{
"type": "FeatureCollection",
"crs": {
"type": "name",
"properties": {
"name": "EPSG:4238"
}
}, "features": [{"type": "Feature", "properties": {"id": "b_525848721", "LINZ2OSM:dataset": "kx_wellington_city_council", "LINZ2OSM:layer": "wcc_buildings", "LINZ2OSM:source_version": "2015-02-02", "attribution": "https://koordinates.com/publisher/wcc/", "building": "yes", "linz2osm:objectid": "41852.0", "source": "Wellington City Council - photo 1999, 0.15m"}, "geometry": {"type": "Polygon", "coordinates": [[[0.0015700371880479418, -0.00037116705983178676], [0.0015700371988277254, -0.0003711667624894277], [0.0015700368179420447, -0.00037116675620122076], [0.00157003683411172, -0.00037116638250206266], [0.0015700365610238735, -0.00037116637172227924], [0.0015700358468632228, -0.0003711663339930373], [0.001570035854049745, -0.0003711661920592223], [0.001570035531554558, -0.0003711661821777542], [0.001570035525266351, -0.000371166320518308], [0.0015700351821099124, -0.00037116631063683985], [0.0015700351470756164, -0.00037116697718678063], [0.00157003678650101, -0.00037116702749243654], [0.001570036793687532, -0.0003711670526452645], [0.0015700371880479418, -0.00037116705983178676]]]}, "id": "way/525848721"}, {"type": "Feature", "properties": {"id": "b_525848743", "LINZ2OSM:dataset": "kx_wellington_city_council", "LINZ2OSM:layer": "wcc_buildings", "LINZ2OSM:source_version": "2015-02-02", "attribution": "https://koordinates.com/publisher/wcc/", "building": "yes", "linz2osm:objectid": "42860.0", "source": "Wellington City Council - photo 1999, 0.15m"}, "geometry": {"type": "Polygon", "coordinates": [[[0.0015700382597380756, -0.000371166466045384], [0.001570038269619544, -0.0003711662998570565], [0.0015700387403367528, -0.0003711663151284163], [0.0015700387403367528, -0.00037116630165368703], [0.0015700390116279686, -0.00037116631063683985], [0.0015700390331875353, -0.000371165912683169], [0.0015700396880593773, -0.00037116593334442054], [0.001570039701534107, -0.0003711656782228798], [0.0015700390304925896, -0.000371165656663313], [0.0015700390277976438, -0.00037116566474815053], [0.00157003871608224, -0.00037116565486668243], [0.00157003871608224, -0.0003711656422902684], [0.001570037649781998, -0.0003711656090526029], [0.0015700376488836825, -0.00037116562252733216], [0.0015700373793890974, -0.0003711656144424946], [0.0015700373560329, -0.00037116604293888517], [0.001570037428796438, -0.0003711660447355157], [0.001570037415321709, -0.00037116627470422847], [0.0015700380405491465, -0.00037116629446716477], [0.0015700380324643092, -0.00037116645885886175], [0.0015700382597380756, -0.000371166466045384]]]}, "id": "way/525848743"}, {"type": "Feature", "properties": {"id": "b_525849007", "LINZ2OSM:dataset": "kx_wellington_city_council", "LINZ2OSM:layer": "wcc_buildings", "LINZ2OSM:source_version": "2015-02-02", "attribution": "https://koordinates.com/publisher/wcc/", "building": "terrace", "linz2osm:objectid": "45912.0", "source": "Wellington City Council - photo 1999, 0.15m"}, "geometry": {"type": "Polygon", "coordinates": [[[0.0015700456879071602, -0.00037114931720661046], [0.0015700457705521663, -0.00037114773527339523], [0.0015700444841646795, -0.000371147684069424], [0.00157004437546853, -0.00037114927947736853], [0.0015700456879071602, -0.00037114931720661046]]]}, "id": "way/525849007"}, {"type": "Feature", "properties": {"id": "b_525849263", "LINZ2OSM:dataset": "kx_wellington_city_council", "LINZ2OSM:layer": "wcc_buildings", "LINZ2OSM:source_version": "2015-02-02", "attribution": "https://koordinates.com/publisher/wcc/", "building": "yes", "linz2osm:objectid": "63651.0", "source": "Wellington City Council - photo 2002"}, "geometry": {"type": "Polygon", "coordinates": [[[0.0015700372913541995, -0.0003711496927023992], [0.0015700373138120816, -0.0003711494241061292], [0.0015700375572555237, -0.00037114943488591263], [0.0015700375922898197, -0.0003711490081861528], [0.001570036012153235, -0.0003711489363209301], [0.001570035993288614, -0.0003711493666139511], [0.0015700361558836804, -0.0003711493738004734], [0.0015700361343241136, -0.00037114964060011276], [0.0015700372913541995, -0.0003711496927023992]]]}, "id": "way/525849263"}, {"type": "Feature", "properties": {"id": "b_525849264", "LINZ2OSM:dataset": "kx_wellington_city_council", "LINZ2OSM:layer": "wcc_buildings", "LINZ2OSM:source_version": "2015-02-02", "attribution": "https://koordinates.com/publisher/wcc/", "building": "yes", "linz2osm:objectid": "63652.0", "source": "Wellington City Council - photo 2002"}, "geometry": {"type": "Polygon", "coordinates": [[[0.0015700373533379542, -0.0003711536111536685], [0.0015700373793890974, -0.0003711532114033671], [0.0015700371395389165, -0.00037115320601347536], [0.0015700371485220695, -0.0003711529670616098], [0.001570035955559372, -0.0003711529428070971], [0.0015700359474745346, -0.00037115316918254876], [0.0015700357318788663, -0.00037115316469097233], [0.0015700357166075064, -0.000371153577916003], [0.0015700373533379542, -0.0003711536111536685]]]}, "id": "way/525849264"}, {"type": "Feature", "properties": {"id": "b_525849265", "LINZ2OSM:dataset": "kx_wellington_city_council", "LINZ2OSM:layer": "wcc_buildings", "LINZ2OSM:source_version": "2015-02-02", "attribution": "https://koordinates.com/publisher/wcc/", "building": "yes", "linz2osm:objectid": "63653.0", "source": "Wellington City Council - photo 2002"}, "geometry": {"type": "Polygon", "coordinates": [[[0.0015700373075238747, -0.000371154928083875], [0.0015700373299817568, -0.0003711545409099876], [0.0015700370820467386, -0.00037115453282515], [0.001570037096419783, -0.00037115429028002333], [0.0015700369814354265, -0.0003711542875850774], [0.0015700359007621398, -0.00037115423997436737], [0.0015700358854907797, -0.00037115449779085395], [0.001570035683369841, -0.00037115449150264696], [0.0015700356627085892, -0.0003711548580152829], [0.0015700356959462548, -0.0003711548589135981], [0.0015700356950479398, -0.00037115487418495804], [0.0015700372850659926, -0.00037115492628724445], [0.0015700373075238747, -0.000371154928083875]]]}, "id": "way/525849265"}, {"type": "Feature", "properties": {"id": "b_525849268", "LINZ2OSM:dataset": "kx_wellington_city_council", "LINZ2OSM:layer": "wcc_buildings", "LINZ2OSM:source_version": "2015-02-02", "attribution": "https://koordinates.com/publisher/wcc/", "building": "yes", "linz2osm:objectid": "63698.0", "source": "Wellington City Council - photo 2002"}, "geometry": {"type": "Polygon", "coordinates": [[[0.0015700371485220695, -0.0003711529670616098], [0.0015700371206742955, -0.00037115269038050225], [0.0015700373955587724, -0.0003711526957703939], [0.001570037409931817, -0.0003711522654773729], [0.0015700358279986018, -0.00037115223044307687], [0.0015700358127272418, -0.0003711526571428368], [0.001570035964542525, -0.0003711526607360979], [0.001570035955559372, -0.0003711529428070971], [0.0015700371485220695, -0.0003711529670616098]]]}, "id": "way/525849268"}, {"type": "Feature", "properties": {"id": "b_525849277", "LINZ2OSM:dataset": "kx_wellington_city_council", "LINZ2OSM:layer": "wcc_buildings", "LINZ2OSM:source_version": "2015-02-02", "attribution": "https://koordinates.com/publisher/wcc/", "building": "yes", "linz2osm:objectid": "66121.0", "source": "Wellington City Council - photo 2002"}, "geometry": {"type": "Polygon", "coordinates": [[[0.0015700369562825986, -0.0003711556530243093], [0.0015700369787404807, -0.000371155335919014], [0.0015700372608114799, -0.0003711553440038515], [0.0015700372850659926, -0.00037115492628724445], [0.0015700356950479398, -0.00037115487418495804], [0.0015700356707934269, -0.0003711552892066192], [0.0015700358648295283, -0.0003711552954948261], [0.0015700358459649073, -0.00037115561529506736], [0.0015700369562825986, -0.0003711556530243093]]]}, "id": "way/525849277"}, {"type": "Feature", "properties": {"id": "b_525849299", "LINZ2OSM:dataset": "kx_wellington_city_council", "LINZ2OSM:layer": "wcc_buildings", "LINZ2OSM:source_version": "2015-02-02", "attribution": "https://koordinates.com/publisher/wcc/", "building": "yes", "linz2osm:objectid": "67371.0", "source": "Wellington City Council - photo 2006, 0.30m"}, "geometry": {"type": "Polygon", "coordinates": [[[0.0015700411073975267, -0.0003711655830014597], [0.0015700411271604626, -0.00037116477092444293], [0.0015700409430058294, -0.00037116476912781233], [0.001570040953785613, -0.0003711642499015781], [0.0015700411666863352, -0.0003711642534948392], [0.0015700411846526407, -0.0003711634746554879], [0.001570039973723638, -0.0003711634584858128], [0.0015700399656388003, -0.00037116378996415267], [0.0015700398434679217, -0.0003711637890658374], [0.0015700398326881383, -0.00037116426337630736], [0.0015700401345220736, -0.00037116426696956847], [0.0015700401228439752, -0.00037116475744971363], [0.0015700398165184632, -0.0003711647529581372], [0.0015700398066369951, -0.0003711651895393653], [0.0015700399144348291, -0.0003711651904376806], [0.001570039904553361, -0.00037116556683178454], [0.0015700411073975267, -0.0003711655830014597]]]}, "id": "way/525849299"}, {"type": "Feature", "properties": {"id": "b_525849305", "LINZ2OSM:dataset": "kx_wellington_city_council", "LINZ2OSM:layer": "wcc_buildings", "LINZ2OSM:source_version": "2015-02-02", "attribution": "https://koordinates.com/publisher/wcc/", "building": "yes", "linz2osm:objectid": "67372.0", "source": "Wellington City Council - photo 2006, 0.30m"}, "geometry": {"type": "Polygon", "coordinates": [[[0.0015700351650419222, -0.00037116304885404324], [0.0015700351578553998, -0.0003711634944184241], [0.0015700352324155684, -0.0003711634962150547], [0.0015700352261273614, -0.00037116385015127667], [0.0015700353770443291, -0.0003711638528462226], [0.0015700353689594914, -0.00037116435590278164], [0.0015700351857031735, -0.00037116435320783575], [0.0015700351794149666, -0.00037116482302672934], [0.0015700351102446897, -0.00037116482212841407], [0.001570035104854798, -0.00037116517606463603], [0.0015700363526147277, -0.0003711651877427347], [0.0015700363562079888, -0.00037116495777402193], [0.00157003648736202, -0.0003711649586723372], [0.001570036496345173, -0.00037116437836066376], [0.0015700361981044989, -0.0003711643756657179], [0.0015700362061893364, -0.0003711639004569326], [0.0015700365780918638, -0.00037116390405019374], [0.0015700365861767013, -0.00037116338123069836], [0.0015700364505310937, -0.00037116337943406775], [0.0015700364559209853, -0.0003711630605321419], [0.0015700351650419222, -0.00037116304885404324]]]}, "id": "way/525849305"}, {"type": "Feature", "properties": {"id": "b_525849309", "LINZ2OSM:dataset": "kx_wellington_city_council", "LINZ2OSM:layer": "wcc_buildings", "LINZ2OSM:source_version": "2015-02-02", "attribution": "https://koordinates.com/publisher/wcc/", "building": "yes", "linz2osm:objectid": "67373.0", "source": "Wellington City Council - photo 2006, 0.30m"}, "geometry": {"type": "Polygon", "coordinates": [[[0.0015700400177410868, -0.00037116337045091494], [0.0015700412044155772, -0.00037116337404417604], [0.0015700412080088383, -0.00037116258083178026], [0.001570041046312087, -0.0003711625817300955], [0.0015700410490070331, -0.00037116207418195997], [0.001570041252026287, -0.00037116207508027524], [0.0015700412565178635, -0.0003711612764779877], [0.0015700401174540833, -0.0003711612728847266], [0.0015700401156574528, -0.00037116152171806036], [0.0015700399521640712, -0.00037116152081974503], [0.0015700399476724948, -0.00037116205891060016], [0.0015700402000990896, -0.00037116205980891544], [0.001570040198302459, -0.00037116253591601607], [0.0015700399503674404, -0.00037116253501770074], [0.0015700399476724948, -0.0003711630650237183], [0.001570040018639402, -0.00037116306412540305], [0.0015700400177410868, -0.00037116337045091494]]]}, "id": "way/525849309"}, {"type": "Feature", "properties": {"id": "b_525849313", "LINZ2OSM:dataset": "kx_wellington_city_council", "LINZ2OSM:layer": "wcc_buildings", "LINZ2OSM:source_version": "2015-02-02", "attribution": "https://koordinates.com/publisher/wcc/", "building": "yes", "linz2osm:objectid": "67374.0", "source": "Wellington City Council - photo 2006, 0.30m"}, "geometry": {"type": "Polygon", "coordinates": [[[0.001570037516831336, -0.0003711619493161355], [0.00157003751413639, -0.00037116204094429447], [0.0015700374018469796, -0.0003711620391476639], [0.0015700373937621419, -0.0003711622915742588], [0.0015700374719155718, -0.00037116229337088934], [0.001570037469220626, -0.00037116241015187624], [0.0015700376524769438, -0.0003711624137451374], [0.0015700376354089534, -0.0003711629123101201], [0.0015700374728138868, -0.0003711629105134895], [0.0015700374575425271, -0.00037116339919700405], [0.001570037378490782, -0.0003711633982986888], [0.0015700373677109986, -0.00037116374055681204], [0.001570037526712804, -0.00037116374325175787], [0.0015700375150347052, -0.00037116406754357544], [0.0015700373874739351, -0.0003711640648486296], [0.00157003737130426, -0.0003711645589220358], [0.0015700375779167752, -0.00037116456341361226], [0.0015700375626454153, -0.0003711650197577766], [0.0015700373829823583, -0.0003711650161645155], [0.0015700373802874127, -0.0003711651257589801], [0.001570037270692948, -0.00037116512396234957], [0.0015700372608114799, -0.00037116539435525], [0.0015700373766941516, -0.00037116539705019585], [0.0015700373722025752, -0.00037116550305139943], [0.0015700389972549242, -0.0003711655344924343], [0.0015700390457639493, -0.0003711640783233588], [0.0015700386352338646, -0.0003711640702385213], [0.001570038658590062, -0.0003711634000953193], [0.001570039063730255, -0.00037116340728184154], [0.0015700390798999303, -0.0003711629338696869], [0.0015700388023205075, -0.0003711629284797952], [0.0015700388184901825, -0.0003711624541693252], [0.001570039088883083, -0.0003711624595592169], [0.0015700391050527582, -0.0003711619798588552], [0.001570037516831336, -0.0003711619493161355]]]}, "id": "way/525849313"}, {"type": "Feature", "properties": {"id": "b_525849319", "LINZ2OSM:dataset": "kx_wellington_city_council", "LINZ2OSM:layer": "wcc_buildings", "LINZ2OSM:source_version": "2015-02-02", "attribution": "https://koordinates.com/publisher/wcc/", "building": "yes", "linz2osm:objectid": "67375.0", "source": "Wellington City Council - photo 2006, 0.30m"}, "geometry": {"type": "Polygon", "coordinates": [[[0.0015700355854534752, -0.0003711610716621029], [0.0015700355692838, -0.0003711613824791913], [0.001570035413875256, -0.00037116137708929957], [0.001570035386027482, -0.00037116189631553374], [0.001570035433638192, -0.00037116189811216434], [0.0015700354255533543, -0.00037116203555440276], [0.0015700353285353038, -0.00037116203285945693], [0.0015700353114673133, -0.00037116237152431904], [0.0015700351659402375, -0.00037116236703274265], [0.0015700351380924635, -0.00037116286739435585], [0.001570036476582237, -0.0003711629069202284], [0.0015700364909552816, -0.0003711626383239584], [0.0015700366149227906, -0.0003711626419172195], [0.0015700366427705643, -0.0003711621199960395], [0.0015700363005124412, -0.0003711621083179408], [0.00157003631219054, -0.00037116190170542545], [0.0015700366059396378, -0.00037116191068857827], [0.0015700366490587715, -0.00037116110310313785], [0.0015700355854534752, -0.0003711610716621029]]]}, "id": "way/525849319"}, {"type": "Feature", "properties": {"id": "b_525849342", "LINZ2OSM:dataset": "kx_wellington_city_council", "LINZ2OSM:layer": "wcc_buildings", "LINZ2OSM:source_version": "2015-02-02", "attribution": "https://koordinates.com/publisher/wcc/", "building": "yes", "linz2osm:objectid": "67279.0", "source": "Wellington City Council - photo 2006, 0.30m"}, "geometry": {"type": "Polygon", "coordinates": [[[0.0015700522860329221, -0.0003711674182595851], [0.0015700510634258206, -0.0003711673967000183], [0.0015700510436628841, -0.00037116802013082545], [0.0015700490718608354, -0.000371167984198214], [0.0015700490637759982, -0.0003711682608793216], [0.0015700491491159499, -0.0003711682626759522], [0.0015700491311496443, -0.0003711688492758327], [0.0015700496737320758, -0.00037116885915730076], [0.0015700496701388147, -0.00037116894719219865], [0.0015700509762892377, -0.00037116897054839605], [0.0015700509655094544, -0.00037116928226379965], [0.0015700514622778064, -0.00037116929124695247], [0.0015700514712609593, -0.0003711689867180712], [0.0015700522411171577, -0.0003711690001928004], [0.0015700522608800942, -0.00037116840460976703], [0.0015700524117970617, -0.00037116840730471297], [0.0015700524369498898, -0.0003711676122956865], [0.001570052279744715, -0.00037116760870242537], [0.0015700522860329221, -0.0003711674182595851]]]}, "id": "way/525849342"}, {"type": "Feature", "properties": {"id": "b_525849351", "LINZ2OSM:dataset": "kx_wellington_city_council", "LINZ2OSM:layer": "wcc_buildings", "LINZ2OSM:source_version": "2015-02-02", "attribution": "https://koordinates.com/publisher/wcc/", "building": "yes", "linz2osm:objectid": "67281.0", "source": "Wellington City Council - photo 2006, 0.30m"}, "geometry": {"type": "Polygon", "coordinates": [[[0.0015700355531141248, -0.0003711601742451341], [0.0015700355486225482, -0.0003711603036025351], [0.0015700354300449309, -0.0003711603018059045], [0.001570035424655039, -0.00037116050213021283], [0.001570035535147819, -0.00037116050392684344], [0.0015700355324528732, -0.00037116062699603733], [0.0015700357399637038, -0.0003711606305892985], [0.0015700357309805508, -0.00037116094140638675], [0.0015700368574679173, -0.00037116095847437717], [0.0015700368655527548, -0.000371160657538757], [0.0015700371431321776, -0.00037116066203033343], [0.0015700371557085917, -0.00037116019849964683], [0.0015700355531141248, -0.0003711601742451341]]]}, "id": "way/525849351"}, {"type": "Feature", "properties": {"id": "b_525849371", "LINZ2OSM:dataset": "kx_wellington_city_council", "LINZ2OSM:layer": "wcc_buildings", "LINZ2OSM:source_version": "2015-02-02", "attribution": "https://koordinates.com/publisher/wcc/", "building": "yes", "linz2osm:objectid": "67828.0", "source": "Wellington City Council - photo 2002"}, "geometry": {"type": "Polygon", "coordinates": [[[0.0015700375500690012, -0.0003711503062517383], [0.0015700375500690012, -0.000371149928959319], [0.0015700373066255594, -0.0003711499208744814], [0.0015700373209986038, -0.0003711497052788132], [0.0015700361271375914, -0.0003711496612613643], [0.001570036113662862, -0.0003711498732637714], [0.0015700359106436078, -0.0003711498660772492], [0.001570035886389095, -0.000371150245166299], [0.0015700375500690012, -0.0003711503062517383]]]}, "id": "way/525849371"}, {"type": "Feature", "properties": {"id": "b_525849375", "LINZ2OSM:dataset": "kx_wellington_city_council", "LINZ2OSM:layer": "wcc_buildings", "LINZ2OSM:source_version": "2015-02-02", "attribution": "https://koordinates.com/publisher/wcc/", "building": "yes", "linz2osm:objectid": "67829.0", "source": "Wellington City Council - photo 2002"}, "geometry": {"type": "Polygon", "coordinates": [[[0.0015700369814354265, -0.0003711542875850774], [0.0015700370128764614, -0.0003711540261753297], [0.0015700372626081104, -0.000371154033361852], [0.0015700372841676773, -0.0003711536596626938], [0.0015700356285726087, -0.00037115360845872263], [0.0015700356079113571, -0.00037115398575114194], [0.0015700357920659905, -0.0003711539911410336], [0.0015700357785912611, -0.00037115423638110615], [0.0015700359007621398, -0.00037115423997436737], [0.0015700369814354265, -0.0003711542875850774]]]}, "id": "way/525849375"}, {"type": "Feature", "properties": {"id": "b_525849416", "LINZ2OSM:dataset": "kx_wellington_city_council", "LINZ2OSM:layer": "wcc_buildings", "LINZ2OSM:source_version": "2015-02-02", "attribution": "https://koordinates.com/publisher/wcc/", "building": "yes", "linz2osm:objectid": "68104.0", "source": "Wellington City Council - photo 2002"}, "geometry": {"type": "Polygon", "coordinates": [[[0.0015700371386406014, -0.00037115165552129497], [0.001570037153911961, -0.00037115142285763645], [0.0015700373811857278, -0.0003711514318407893], [0.001570037406338556, -0.0003711510536500546], [0.0015700357579300096, -0.00037115099166630007], [0.0015700357282856052, -0.0003711513653654583], [0.0015700359286099134, -0.00037115137255198054], [0.001570035914236869, -0.0003711516106055308], [0.0015700371386406014, -0.00037115165552129497]]]}, "id": "way/525849416"}, {"type": "Feature", "properties": {"id": "b_525849420", "LINZ2OSM:dataset": "kx_wellington_city_council", "LINZ2OSM:layer": "wcc_buildings", "LINZ2OSM:source_version": "2015-02-02", "attribution": "https://koordinates.com/publisher/wcc/", "building": "yes", "linz2osm:objectid": "68105.0", "source": "Wellington City Council - photo 2002"}, "geometry": {"type": "Polygon", "coordinates": [[[0.0015700371862513113, -0.0003711510249039655], [0.001570037206912563, -0.00037115075271443445], [0.0015700374611357884, -0.0003711507643925332], [0.0015700374943734537, -0.0003711503367944579], [0.0015700359187284455, -0.0003711502658275505], [0.0015700358998638245, -0.0003711506934256257], [0.001570036072340359, -0.0003711507015104633], [0.001570036049882477, -0.00037115097549662493], [0.0015700371862513113, -0.0003711510249039655]]]}, "id": "way/525849420"}, {"type": "Feature", "properties": {"id": "b_525849500", "LINZ2OSM:dataset": "kx_wellington_city_council", "LINZ2OSM:layer": "wcc_buildings", "LINZ2OSM:source_version": "2015-02-02", "attribution": "https://koordinates.com/publisher/wcc/", "building": "yes", "linz2osm:objectid": "74046.0", "source": "Wellington City Council - photo 2006, 0.30m"}, "geometry": {"type": "Polygon", "coordinates": [[[0.0015700411100924723, -0.0003711598131223899], [0.0015700404660004136, -0.0003711597852746161], [0.0015700404534239995, -0.00037115995146294367], [0.0015700400572669594, -0.00037115993349663793], [0.001570040042893915, -0.00037116012304116297], [0.0015700396754829637, -0.00037116010687148783], [0.0015700396206857312, -0.0003711608407950749], [0.001570039961147224, -0.00037116085696475], [0.0015700399530623862, -0.00037116095398280073], [0.0015700406842910277, -0.000371160986322151], [0.0015700406959691263, -0.00037116082821866096], [0.0015700410319390424, -0.0003711608425917055], [0.0015700411100924723, -0.0003711598131223899]]]}, "id": "way/525849500"}, {"type": "Feature", "properties": {"id": "b_525849504", "LINZ2OSM:dataset": "kx_wellington_city_council", "LINZ2OSM:layer": "wcc_buildings", "LINZ2OSM:source_version": "2015-02-02", "attribution": "https://koordinates.com/publisher/wcc/", "building": "yes", "linz2osm:objectid": "74218.0", "source": "Wellington City Council - photo 2006, 0.30m"}, "geometry": {"type": "Polygon", "coordinates": [[[0.0015700381258890986, -0.00037116101057666363], [0.0015700385471989669, -0.00037116101866150117], [0.0015700385436057055, -0.00037116109411998503], [0.0015700392092573312, -0.000371161106696399], [0.001570039215545538, -0.0003711609081687212], [0.001570039568583445, -0.0003711609144569282], [0.0015700395910413268, -0.0003711602667716084], [0.0015700392227320603, -0.00037116025958508616], [0.0015700392281219522, -0.000371160116752956], [0.0015700381573301337, -0.0003711600951933892], [0.0015700381258890986, -0.00037116101057666363]]]}, "id": "way/525849504"}, {"type": "Feature", "properties": {"id": "b_525849520", "LINZ2OSM:dataset": "kx_wellington_city_council", "LINZ2OSM:layer": "wcc_buildings", "LINZ2OSM:source_version": "2015-02-02", "attribution": "https://koordinates.com/publisher/wcc/", "building": "yes", "linz2osm:objectid": "75011.0", "source": "Wellington City Council - photo 2006, 0.30m"}, "geometry": {"type": "Polygon", "coordinates": [[[0.0015700401569799561, -0.0003711664031633141], [0.001570040166861424, -0.0003711659800568153], [0.0015700395703800753, -0.000371165972870293], [0.001570039559600292, -0.00037116639597679186], [0.0015700401569799561, -0.0003711664031633141]]]}, "id": "way/525849520"}, {"type": "Feature", "properties": {"id": "b_525849791", "LINZ2OSM:dataset": "kx_wellington_city_council", "LINZ2OSM:layer": "wcc_buildings", "LINZ2OSM:source_version": "2015-02-02", "attribution": "https://koordinates.com/publisher/wcc/", "building": "yes", "linz2osm:objectid": "90120.0", "source": "Wellington City Council - photo 2009, 0.30m"}, "geometry": {"type": "Polygon", "coordinates": [[[0.0015700487322976582, -0.0003711488150483667], [0.0015700485679059609, -0.00037114880876015966], [0.0015700485885672126, -0.0003711485150110618], [0.0015700473875196778, -0.00037114846740035173], [0.0015700473650617957, -0.0003711487827090165], [0.0015700474521983783, -0.0003711487863022776], [0.0015700474495034323, -0.00037114885547255447], [0.0015700487331959734, -0.00037114890218494927], [0.0015700487322976582, -0.0003711488150483667]]]}, "id": "way/525849791"}, {"type": "Feature", "properties": {"id": "b_525849792", "LINZ2OSM:dataset": "kx_wellington_city_council", "LINZ2OSM:layer": "wcc_buildings", "LINZ2OSM:source_version": "2015-02-02", "attribution": "https://koordinates.com/publisher/wcc/", "building": "yes", "linz2osm:objectid": "90111.0", "source": "Wellington City Council - photo 2009, 0.30m"}, "geometry": {"type": "Polygon", "coordinates": [[[0.0015700516446358092, -0.0003711509710050485], [0.0015700504471815354, -0.000371150931479176], [0.0015700504381983824, -0.000371150931479176], [0.0015700504256219686, -0.00037115114348158307], [0.0015700516329577106, -0.00037115118300745556], [0.0015700516446358092, -0.0003711509710050485]]]}, "id": "way/525849792"}, {"type": "Feature", "properties": {"id": "b_525849793", "LINZ2OSM:dataset": "kx_wellington_city_council", "LINZ2OSM:layer": "wcc_buildings", "LINZ2OSM:source_version": "2015-02-02", "attribution": "https://koordinates.com/publisher/wcc/", "building": "yes", "linz2osm:objectid": "90112.0", "source": "Wellington City Council - photo 2009, 0.30m"}, "geometry": {"type": "Polygon", "coordinates": [[[0.001570051659907169, -0.00037115060089915145], [0.0015700504723343634, -0.0003711505748480082], [0.001570050464249526, -0.00037115057394969294], [0.0015700504471815354, -0.000371150931479176], [0.0015700516446358092, -0.0003711509710050485], [0.001570051659907169, -0.00037115060089915145]]]}, "id": "way/525849793"}, {"type": "Feature", "properties": {"id": "b_525849794", "LINZ2OSM:dataset": "kx_wellington_city_council", "LINZ2OSM:layer": "wcc_buildings", "LINZ2OSM:source_version": "2015-02-02", "attribution": "https://koordinates.com/publisher/wcc/", "building": "yes", "linz2osm:objectid": "90113.0", "source": "Wellington City Council - photo 2009, 0.30m"}, "geometry": {"type": "Polygon", "coordinates": [[[0.001570051564685749, -0.00037115024336966843], [0.001570050663675519, -0.0003711502263016781], [0.0015700505495894778, -0.0003711502236067322], [0.0015700505450979014, -0.00037115031253994525], [0.001570050483114147, -0.00037115031164163], [0.0015700504723343634, -0.0003711505748480082], [0.001570051659907169, -0.00037115060089915145], [0.001570051666195376, -0.0003711504320158781], [0.001570051706619564, -0.00037115043291419337], [0.001570051710212825, -0.0003711503493708719], [0.0015700515601941723, -0.0003711503457776108], [0.001570051564685749, -0.00037115024336966843]]]}, "id": "way/525849794"}, {"type": "Feature", "properties": {"id": "b_525849795", "LINZ2OSM:dataset": "kx_wellington_city_council", "LINZ2OSM:layer": "wcc_buildings", "LINZ2OSM:source_version": "2015-02-02", "attribution": "https://koordinates.com/publisher/wcc/", "building": "yes", "linz2osm:objectid": "90114.0", "source": "Wellington City Council - photo 2009, 0.30m"}, "geometry": {"type": "Polygon", "coordinates": [[[0.001570051748840382, -0.00037114988224692426], [0.0015700517398572293, -0.000371149881348609], [0.0015700507409306336, -0.00037114984721262816], [0.0015700507355407415, -0.00037114994602730937], [0.001570050676251933, -0.0003711499442306788], [0.001570050663675519, -0.0003711502263016781], [0.001570051564685749, -0.00037115024336966843], [0.0015700518314853884, -0.0003711502487595601], [0.0015700518404685412, -0.0003711500637066116], [0.0015700518719095763, -0.00037115006460492687], [0.0015700518755028372, -0.00037114999363801945], [0.0015700517434504904, -0.00037114999004475834], [0.001570051748840382, -0.00037114988224692426]]]}, "id": "way/525849795"}, {"type": "Feature", "properties": {"id": "b_525849796", "LINZ2OSM:dataset": "kx_wellington_city_council", "LINZ2OSM:layer": "wcc_buildings", "LINZ2OSM:source_version": "2015-02-02", "attribution": "https://koordinates.com/publisher/wcc/", "building": "yes", "linz2osm:objectid": "90115.0", "source": "Wellington City Council - photo 2009, 0.30m"}, "geometry": {"type": "Polygon", "coordinates": [[[0.00157005191502871, -0.0003711496962956604], [0.001570051862926423, -0.0003711496944990298], [0.0015700518728078915, -0.0003711495283107022], [0.0015700517236875542, -0.00037114952292081053], [0.0015700506987098152, -0.0003711494842932533], [0.0015700506816418247, -0.0003711497636693067], [0.001570050746320525, -0.0003711497663642526], [0.0015700507409306336, -0.00037114984721262816], [0.0015700517398572293, -0.000371149881348609], [0.0015700517461454363, -0.00037114977894066656], [0.0015700519096388179, -0.00037114978522887355], [0.00157005191502871, -0.0003711496962956604]]]}, "id": "way/525849796"}, {"type": "Feature", "properties": {"id": "b_525849797", "building": "yes", "building:levels": "3", "height": "5", "source": "Wellington City Council - photo 2009, 0.30m"}, "geometry": {"type": "Polygon", "coordinates": [[[0.0015700516194829814, -0.0003711491528149135], [0.0015700506205563853, -0.0003711491186789327], [0.0015700506151664936, -0.0003711492147986681], [0.0015700505567760002, -0.0003711492130020375], [0.001570050540606325, -0.0003711494798016769], [0.0015700506987098152, -0.0003711494842932533], [0.0015700517236875542, -0.00037114952292081053], [0.001570051735365653, -0.0003711493306813397], [0.001570051767705003, -0.000371149331579655], [0.0015700517721965795, -0.0003711492597144323], [0.0015700516149914048, -0.00037114925432454063], [0.0015700516194829814, -0.0003711491528149135]]]}, "id": "way/525849797"}, {"type": "Feature", "properties": {"id": "b_525849798", "LINZ2OSM:dataset": "kx_wellington_city_council", "LINZ2OSM:layer": "wcc_buildings", "LINZ2OSM:source_version": "2015-02-02", "attribution": "https://koordinates.com/publisher/wcc/", "building": "yes", "linz2osm:objectid": "90117.0", "source": "Wellington City Council - photo 2009, 0.30m"}, "geometry": {"type": "Polygon", "coordinates": [[[0.0015700517721965795, -0.000371148961473758], [0.0015700517506370127, -0.000371148961473758], [0.0015700517650100573, -0.00037114878450564704], [0.0015700507409306336, -0.0003711487575561885], [0.001570050575640621, -0.0003711487593528191], [0.0015700505639625222, -0.00037114902525414316], [0.0015700506340311146, -0.0003711490288474043], [0.0015700506205563853, -0.0003711491186789327], [0.0015700516194829814, -0.0003711491528149135], [0.0015700516212796118, -0.00037114905310191694], [0.0015700517632134267, -0.0003711490522036017], [0.0015700517721965795, -0.000371148961473758]]]}, "id": "way/525849798"}, {"type": "Feature", "properties": {"id": "b_525849799", "LINZ2OSM:dataset": "kx_wellington_city_council", "LINZ2OSM:layer": "wcc_buildings", "LINZ2OSM:source_version": "2015-02-02", "attribution": "https://koordinates.com/publisher/wcc/", "building": "yes", "linz2osm:objectid": "90118.0", "source": "Wellington City Council - photo 2009, 0.30m"}, "geometry": {"type": "Polygon", "coordinates": [[[0.0015700518225022354, -0.00037114842428121803], [0.001570050819084063, -0.0003711483901452373], [0.0015700508136941716, -0.00037114849165486435], [0.001570050755303678, -0.0003711484898582338], [0.0015700507409306336, -0.0003711487575561885], [0.0015700517650100573, -0.00037114878450564704], [0.0015700519213169167, -0.0003711487898955388], [0.0015700519365882766, -0.0003711485374689439], [0.0015700518162140287, -0.0003711485338756827], [0.0015700518225022354, -0.00037114842428121803]]]}, "id": "way/525849799"}, {"type": "Feature", "properties": {"id": "b_525849801", "LINZ2OSM:dataset": "kx_wellington_city_council", "LINZ2OSM:layer": "wcc_buildings", "LINZ2OSM:source_version": "2015-02-02", "attribution": "https://koordinates.com/publisher/wcc/", "building": "yes", "linz2osm:objectid": "90121.0", "source": "Wellington City Council - photo 2009, 0.30m"}, "geometry": {"type": "Polygon", "coordinates": [[[0.0015700487331959734, -0.00037114890218494927], [0.0015700474495034323, -0.00037114885547255447], [0.0015700474441135406, -0.0003711489363209301], [0.0015700473614685346, -0.00037114893362598416], [0.001570047343502229, -0.00037114921030709165], [0.0015700485319733498, -0.00037114925432454063], [0.0015700485499396553, -0.0003711489749484873], [0.0015700487278060816, -0.00037114898123669424], [0.0015700487331959734, -0.00037114890218494927]]]}, "id": "way/525849801"}, {"type": "Feature", "properties": {"id": "b_525849802", "LINZ2OSM:dataset": "kx_wellington_city_council", "LINZ2OSM:layer": "wcc_buildings", "LINZ2OSM:source_version": "2015-02-02", "attribution": "https://koordinates.com/publisher/wcc/", "building": "yes", "linz2osm:objectid": "90122.0", "source": "Wellington City Council - photo 2009, 0.30m"}, "geometry": {"type": "Polygon", "coordinates": [[[0.0015700486936701008, -0.0003711495453786926], [0.0015700485283800887, -0.0003711495399888009], [0.001570048545448079, -0.00037114925522285585], [0.0015700485319733498, -0.00037114925432454063], [0.001570047343502229, -0.00037114921030709165], [0.001570047325535923, -0.00037114951034439655], [0.0015700474081809294, -0.0003711495130393424], [0.0015700474054859833, -0.00037114958310793453], [0.0015700486855852634, -0.00037114962532875295], [0.0015700486936701008, -0.0003711495453786926]]]}, "id": "way/525849802"}, {"type": "Feature", "properties": {"id": "b_525849803", "LINZ2OSM:dataset": "kx_wellington_city_council", "LINZ2OSM:layer": "wcc_buildings", "LINZ2OSM:source_version": "2015-02-02", "attribution": "https://koordinates.com/publisher/wcc/", "building": "yes", "linz2osm:objectid": "90123.0", "source": "Wellington City Council - photo 2009, 0.30m"}, "geometry": {"type": "Polygon", "coordinates": [[[0.0015700486855852634, -0.00037114962532875295], [0.0015700474054859833, -0.00037114958310793453], [0.0015700474009944071, -0.00037114966395631016], [0.0015700473228409772, -0.0003711496612613643], [0.001570047306671302, -0.00037114994333236354], [0.001570048511312098, -0.00037114998106160547], [0.0015700485193969357, -0.00037114970887207436], [0.001570048681093687, -0.00037114971426196607], [0.0015700486855852634, -0.00037114962532875295]]]}, "id": "way/525849803"}, {"type": "Feature", "properties": {"id": "b_525849804", "LINZ2OSM:dataset": "kx_wellington_city_council", "LINZ2OSM:layer": "wcc_buildings", "LINZ2OSM:source_version": "2015-02-02", "attribution": "https://koordinates.com/publisher/wcc/", "building": "yes", "linz2osm:objectid": "90124.0", "source": "Wellington City Council - photo 2009, 0.30m"}, "geometry": {"type": "Polygon", "coordinates": [[[0.0015700486622290657, -0.000371150270319127], [0.0015700484978373689, -0.0003711502658275505], [0.001570048511312098, -0.00037114998106160547], [0.001570047306671302, -0.00037114994333236354], [0.001570047293196573, -0.0003711502352848309], [0.0015700473713500026, -0.0003711502379797767], [0.0015700473668584262, -0.0003711503134382606], [0.0015700486577374896, -0.0003711503547607636], [0.0015700486622290657, -0.000371150270319127]]]}, "id": "way/525849804"}, {"type": "Feature", "properties": {"id": "b_525849805", "LINZ2OSM:dataset": "kx_wellington_city_council", "LINZ2OSM:layer": "wcc_buildings", "LINZ2OSM:source_version": "2015-02-02", "attribution": "https://koordinates.com/publisher/wcc/", "building": "yes", "linz2osm:objectid": "90125.0", "source": "Wellington City Council - photo 2009, 0.30m"}, "geometry": {"type": "Polygon", "coordinates": [[[0.0015700486577374896, -0.0003711503547607636], [0.0015700473668584262, -0.0003711503134382606], [0.0015700473623668498, -0.00037115039249000555], [0.0015700472797218438, -0.0003711503897950597], [0.0015700472644504838, -0.00037115066378122134], [0.0015700484744811717, -0.00037115070420540915], [0.0015700484762778022, -0.0003711504293209322], [0.001570048653245913, -0.00037115043471082387], [0.0015700486577374896, -0.0003711503547607636]]]}, "id": "way/525849805"}, {"type": "Feature", "properties": {"id": "b_525849806", "LINZ2OSM:dataset": "kx_wellington_city_council", "LINZ2OSM:layer": "wcc_buildings", "LINZ2OSM:source_version": "2015-02-02", "attribution": "https://koordinates.com/publisher/wcc/", "building": "yes", "linz2osm:objectid": "90126.0", "source": "Wellington City Council - photo 2009, 0.30m"}, "geometry": {"type": "Polygon", "coordinates": [[[0.0015700486262964547, -0.0003711509943612459], [0.0015700484565148657, -0.00037115098897135424], [0.0015700484744811717, -0.00037115070420540915], [0.0015700472644504838, -0.00037115066378122134], [0.0015700472509757545, -0.00037115095932694985], [0.0015700473300274994, -0.0003711509620218957], [0.0015700473246376078, -0.0003711510500567935], [0.001570048337038933, -0.0003711510859894049], [0.0015700483316490414, -0.0003711511632445193], [0.0015700486146183559, -0.00037115117402430274], [0.0015700486262964547, -0.0003711509943612459]]]}, "id": "way/525849806"}, {"type": "Feature", "properties": {"id": "b_525849821", "LINZ2OSM:dataset": "kx_wellington_city_council", "LINZ2OSM:layer": "wcc_buildings", "LINZ2OSM:source_version": "2015-02-02", "attribution": "https://koordinates.com/publisher/wcc/", "building": "yes", "linz2osm:objectid": "90149.0", "source": "Wellington City Council - photo 2002"}, "geometry": {"type": "Polygon", "coordinates": [[[0.0015700373416598554, -0.00037115898757064393], [0.0015700373578295308, -0.0003711585527860463], [0.0015700370892332606, -0.0003711585447012088], [0.0015700371036063052, -0.00037115827610493884], [0.0015700371880479418, -0.00037115827879988467], [0.0015700371997260404, -0.0003711580335598121], [0.0015700374413728522, -0.000371158042542965], [0.0015700374629324188, -0.0003711576697421221], [0.0015700373524396387, -0.0003711576661488609], [0.0015700373793890974, -0.00037115720710975073], [0.0015700371332507096, -0.00037115719902491325], [0.0015700371485220695, -0.0003711569501915796], [0.0015700373802874127, -0.0003711569582764171], [0.0015700374054402407, -0.00037115653786486407], [0.0015700371521153306, -0.00037115652888171125], [0.0015700371673866903, -0.0003711562737601705], [0.001570037181759735, -0.0003711560401981967], [0.0015700374261014922, -0.0003711560491813495], [0.0015700374278981228, -0.0003711560249268369], [0.0015700374485593744, -0.00037115567009229965], [0.0015700369562825986, -0.0003711556530243093], [0.0015700358459649073, -0.00037115561529506736], [0.0015700357875744141, -0.0003711556126001214], [0.0015700357669131625, -0.00037115597551949626], [0.0015700359789155695, -0.0003711559827060186], [0.0015700359483728499, -0.00037115649564404575], [0.0015700357318788663, -0.00037115648845752343], [0.0015700357103192997, -0.000371156850478583], [0.0015700357597266401, -0.0003711568531735288], [0.001570035757031694, -0.00037115690437750006], [0.0015700359214233914, -0.00037115691066570705], [0.0015700359061520315, -0.0003711571630923019], [0.001570035721099083, -0.0003711571559057796], [0.0015700356986412009, -0.00037115751882515433], [0.0015700357345738122, -0.0003711575197234696], [0.0015700357309805508, -0.0003711575673341797], [0.0015700358118289266, -0.0003711575709274408], [0.0015700357857777833, -0.0003711579877457327], [0.0015700359905936683, -0.0003711579949322549], [0.001570035958254318, -0.0003711585132601738], [0.0015700357965575669, -0.0003711585078702821], [0.0015700357902693597, -0.0003711586021933869], [0.0015700357642182165, -0.00037115860129507164], [0.0015700357444552802, -0.0003711589309767809], [0.0015700373416598554, -0.00037115898757064393]]]}, "id": "way/525849821"}, {"type": "Feature", "properties": {"id": "b_525849822", "LINZ2OSM:dataset": "kx_wellington_city_council", "LINZ2OSM:layer": "wcc_buildings", "LINZ2OSM:source_version": "2015-02-02", "attribution": "https://koordinates.com/publisher/wcc/", "building": "garage", "linz2osm:objectid": "90150.0", "source": "Wellington City Council - photo 2009, 0.30m"}, "geometry": {"type": "Polygon", "coordinates": [[[0.0015700376839179785, -0.0003711560276217827], [0.0015700374278981228, -0.0003711560249268369], [0.0015700374261014922, -0.0003711560491813495], [0.001570037181759735, -0.0003711560401981967], [0.0015700371673866903, -0.0003711562737601705], [0.001570037678528087, -0.0003711562809466928], [0.0015700376839179785, -0.0003711560276217827]]]}, "id": "way/525849822"}, {"type": "Feature", "properties": {"id": "b_525849824", "LINZ2OSM:dataset": "kx_wellington_city_council", "LINZ2OSM:layer": "wcc_buildings", "LINZ2OSM:source_version": "2015-02-02", "attribution": "https://koordinates.com/publisher/wcc/", "building": "yes", "linz2osm:objectid": "90289.0", "source": "Wellington City Council - photo 2009, 0.30m"}, "geometry": {"type": "Polygon", "coordinates": [[[0.0015700490781490426, -0.0003711664166380433], [0.0015700487125347219, -0.0003711664130447822], [0.0015700487125347219, -0.00037116621182215864], [0.0015700491059968162, -0.0003711659522090415], [0.0015700492578120994, -0.00037116573391842735], [0.0015700493781863475, -0.0003711642930207117], [0.0015700494689161913, -0.00037116328421264765], [0.0015700492299643254, -0.000371163029091107], [0.0015700486191099323, -0.00037116299046354985], [0.001570048191511857, -0.00037116299495512623], [0.0015700479624414596, -0.0003711631216175813], [0.0015700479265088484, -0.00037116389057546454], [0.0015700481618674527, -0.0003711640935947187], [0.001570048535566611, -0.0003711640980862951], [0.001570048511312098, -0.0003711644376494725], [0.0015700474207573432, -0.0003711643837505555], [0.0015700474270455504, -0.0003711642481049475], [0.0015700464326105308, -0.00037116420678244447], [0.001570046420932432, -0.00037116434691962877], [0.0015700449872212386, -0.00037116431098701744], [0.0015700449872212386, -0.0003711641663582567], [0.0015700440233289389, -0.0003711641439003746], [0.0015700440170407317, -0.0003711642930207117], [0.0015700420236791164, -0.0003711642436133711], [0.0015700419329492724, -0.0003711655910862973], [0.0015700439272092032, -0.000371165650375106], [0.0015700439092428977, -0.0003711657815291375], [0.0015700449270341147, -0.0003711658174617488], [0.0015700449450004202, -0.0003711656638498352], [0.0015700462277946458, -0.00037116570876559945], [0.0015700483918361654, -0.0003711657752409305], [0.0015700483648867069, -0.0003711662172120503], [0.0015700481447994622, -0.0003711663546542888], [0.0015700481178500037, -0.000371166908914819], [0.0015700483226658885, -0.0003711670643233632], [0.001570048304699583, -0.0003711674218528462], [0.0015700475626911582, -0.0003711673975983336], [0.0015700475599962124, -0.00037116744970062005], [0.001570047172822325, -0.00037116743712420613], [0.0015700471791105317, -0.000371167323038165], [0.001570047097363841, -0.0003711673203432192], [0.0015700471045503634, -0.0003711670014412933], [0.0015700472958915187, -0.0003711668792704147], [0.0015700473354173913, -0.0003711663465694512], [0.0015700471557543343, -0.0003711661965507988], [0.0015700471827037928, -0.0003711658767505576], [0.001570046423627378, -0.00037116585159772963], [0.0015700464182374862, -0.0003711661704996555], [0.0015700462224047544, -0.00037116629806042587], [0.0015700461990485568, -0.00037116684243948794], [0.0015700463571520467, -0.00037116697269520425], [0.0015700463373891109, -0.0003711672969870217], [0.0015700462798969325, -0.0003711672951903913], [0.0015700462736087254, -0.0003711674119713781], [0.0015700459798596276, -0.00037116740208990997], [0.0015700459834528887, -0.0003711673454960471], [0.0015700451525112508, -0.0003711673185465886], [0.0015700451489179896, -0.0003711673706488751], [0.0015700447527609495, -0.00037116735717414583], [0.001570044760845787, -0.0003711672215285379], [0.0015700438248012608, -0.0003711671909858183], [0.0015700438167164236, -0.0003711673338179484], [0.0015700431726243646, -0.00037116731315669686], [0.0015700431753193104, -0.00037116726824093266], [0.0015700427108903087, -0.00037116725296957285], [0.001570042709093678, -0.0003711672969870217], [0.0015700418260497539, -0.00037116726824093266], [0.0015700417766424132, -0.00037116813152192064], [0.0015700414586388026, -0.0003711681216404525], [0.0015700414379775508, -0.00037116849354298026], [0.0015700417559811615, -0.0003711685043227636], [0.0015700417523879003, -0.0003711685698997794], [0.0015700437376646784, -0.0003711686336801645], [0.001570043730478156, -0.0003711687666308266], [0.001570044662929421, -0.00037116879717354626], [0.0015700446701159435, -0.0003711686642228842], [0.0015700461604209995, -0.00037116871183359425], [0.0015700461523361622, -0.00037116885107246327], [0.0015700470856857423, -0.00037116888161518294], [0.00157004709377058, -0.0003711687360881069], [0.0015700490089787657, -0.0003711687980718615], [0.0015700490826406188, -0.0003711674991079607], [0.0015700490071821349, -0.00037116749641301485], [0.0015700490224534948, -0.0003711673733438209], [0.0015700486514492824, -0.0003711670912728217], [0.0015700486828903175, -0.0003711668873552522], [0.0015700490503012686, -0.00037116689903335094], [0.0015700490781490426, -0.0003711664166380433]]]}, "id": "way/525849824"}, {"type": "Feature", "properties": {"id": "b_553203568", "LINZ2OSM:dataset": "kx_wellington_city_council", "LINZ2OSM:layer": "wcc_buildings", "LINZ2OSM:source_version": "2015-02-02", "attribution": "https://koordinates.com/publisher/wcc/", "building": "yes", "linz2osm:objectid": "42462.0", "source": "Wellington City Council - photo 1999, 0.15m"}, "geometry": {"type": "Polygon", "coordinates": [[[0.0015700569887134345, -0.0003711515216723176], [0.0015700570084763706, -0.00037115103748037954], [0.0015700551983710731, -0.00037115099166630007], [0.001570055188489605, -0.0003711512369063727], [0.0015700549944535037, -0.0003711512315164809], [0.0015700550025383414, -0.00037115101592081275], [0.0015700547258572337, -0.0003711510087342905], [0.0015700547096875585, -0.0003711513402126303], [0.0015700549782838287, -0.0003711513473991526], [0.0015700549755888827, -0.000371151424654267], [0.0015700551705232996, -0.0003711514300441587], [0.0015700551669300383, -0.00037115147585823813], [0.0015700569887134345, -0.0003711515216723176]]]}, "id": "way/553203568"}, {"type": "Feature", "properties": {"id": "b_553204165", "LINZ2OSM:dataset": "kx_wellington_city_council", "LINZ2OSM:layer": "wcc_buildings", "LINZ2OSM:source_version": "2015-02-02", "attribution": "https://koordinates.com/publisher/wcc/", "building": "yes", "linz2osm:objectid": "60155.0", "source": "Wellington City Council - photo 2006, 0.30m"}, "geometry": {"type": "Polygon", "coordinates": [[[0.0015700553762374992, -0.000371165521017705], [0.0015700553313217351, -0.0003711661570249263], [0.0015700555693752853, -0.0003711661660080791], [0.0015700556133927345, -0.0003711655308991732], [0.0015700553762374992, -0.000371165521017705]]]}, "id": "way/553204165"}, {"type": "Feature", "properties": {"id": "b_553204178", "LINZ2OSM:dataset": "kx_wellington_city_council", "LINZ2OSM:layer": "wcc_buildings", "LINZ2OSM:source_version": "2015-02-02", "attribution": "https://koordinates.com/publisher/wcc/", "building": "yes", "linz2osm:objectid": "67282.0", "source": "Wellington City Council - photo 2006, 0.30m"}, "geometry": {"type": "Polygon", "coordinates": [[[0.001570051280818119, -0.00037115710290517787], [0.001570051589838577, -0.0003711577460989212], [0.001570052038996219, -0.00037115762482635786], [0.0015700517299757613, -0.00037115698163261453], [0.001570051280818119, -0.00037115710290517787]]]}, "id": "way/553204178"}, {"type": "Feature", "properties": {"id": "b_553204213", "LINZ2OSM:dataset": "kx_wellington_city_council", "LINZ2OSM:layer": "wcc_buildings", "LINZ2OSM:source_version": "2015-02-02", "attribution": "https://koordinates.com/publisher/wcc/", "building": "yes", "linz2osm:objectid": "70226.0", "source": "Wellington City Council - photo 2006, 0.30m"}, "geometry": {"type": "Polygon", "coordinates": [[[0.001570052617511262, -0.00037116770931373713], [0.0015700533909607216, -0.000371167730873304], [0.0015700534134186037, -0.0003711674092764323], [0.0015700539497128282, -0.00037116742005621577], [0.0015700539380347296, -0.0003711677596193931], [0.0015700548004174025, -0.0003711677748907529], [0.0015700548094005552, -0.00037116748203997027], [0.0015700559808036858, -0.00037116750270122184], [0.001570056004159883, -0.0003711667885405709], [0.0015700561065678255, -0.00037116679123551686], [0.0015700561236358158, -0.00037116627919580496], [0.0015700551687266688, -0.00037116626122949927], [0.001570055156150255, -0.00037116662055561284], [0.0015700548462314818, -0.00037116661426740585], [0.0015700548570112653, -0.0003711662782974897], [0.0015700540045100605, -0.00037116626212781455], [0.0015700539946285925, -0.0003711665504870207], [0.0015700534996568709, -0.00037116654150386787], [0.0015700535113349697, -0.0003711661830760695], [0.0015700526291893607, -0.0003711661669063944], [0.0015700526184095772, -0.00037116651275777876], [0.0015700523722711893, -0.00037116650736788705], [0.0015700523794577117, -0.0003711662729075979], [0.0015700525438494088, -0.000371166276500859], [0.001570052570798867, -0.00037116548598340897], [0.001570052405508855, -0.00037116548328846314], [0.0015700524144920077, -0.0003711652281669225], [0.0015700526947663765, -0.0003711652335568142], [0.0015700526848849083, -0.00037116554527221775], [0.0015700535661322022, -0.00037116556234020816], [0.0015700535760136702, -0.00037116527847257845], [0.001570054088053382, -0.0003711652874557312], [0.0015700540772735985, -0.0003711656117475488], [0.0015700549333680642, -0.00037116562791722393], [0.0015700549441478478, -0.00037116530452372163], [0.0015700560823133129, -0.0003711653260832884], [0.0015700561047711948, -0.00037116462899062803], [0.0015700562359252262, -0.00037116463258388913], [0.0015700562529932167, -0.0003711641223408078], [0.0015700552621514584, -0.0003711641034761868], [0.0015700552513716749, -0.00037116443585284194], [0.0015700549684023605, -0.00037116443136126545], [0.0015700549809787745, -0.00037116408550988113], [0.0015700541311725155, -0.0003711640711368366], [0.0015700541212910477, -0.0003711643720724567], [0.0015700536272176412, -0.0003711643639876192], [0.0015700536370991094, -0.0003711640585604226], [0.0015700527702248602, -0.0003711640423907475], [0.0015700527585467616, -0.0003711643846488707], [0.0015700524800690233, -0.00037116438015729426], [0.0015700524899504916, -0.00037116408640819646], [0.0015700526291893607, -0.0003711640891031423], [0.0015700526543421887, -0.0003711633345183036], [0.001570052529476364, -0.00037116333182335773], [0.0015700525393578322, -0.0003711630326843681], [0.0015700531735684227, -0.0003711630434641515], [0.0015700531618903241, -0.00037116342255320145], [0.0015700541051213723, -0.00037116344141782236], [0.0015700541159011556, -0.00037116309646475327], [0.0015700547698746824, -0.00037116310814285197], [0.0015700547572982686, -0.0003711634872319019], [0.0015700562943157198, -0.00037116351597799095], [0.0015700563131803406, -0.00037116295722588435], [0.0015700560014649371, -0.0003711629509376773], [0.0015700560086514593, -0.0003711627182740187], [0.001570056270061207, -0.00037116272366391045], [0.0015700563041971879, -0.00037116168880470317], [0.0015700564326562737, -0.0003711616906013338], [0.0015700564605040475, -0.0003711608560664347], [0.0015700563850455636, -0.0003711608542698042], [0.0015700564236731207, -0.0003711596909515113], [0.0015700565018265504, -0.00037115969274814187], [0.001570056519792856, -0.00037115912770782823], [0.0015700549154017585, -0.0003711590971651085], [0.0015700549046219754, -0.0003711594439148082], [0.0015700543144288336, -0.00037115943403334006], [0.0015700543270052473, -0.00037115904146956094], [0.0015700533613163172, -0.00037115902260494], [0.0015700533496382184, -0.00037115940079567456], [0.0015700525025269055, -0.00037115938462599943], [0.0015700525160016348, -0.0003711589740959146], [0.001570051470362644, -0.0003711589543329783], [0.0015700513535816573, -0.00037116248920362126], [0.0015700515628891186, -0.0003711624936951977], [0.0015700515476177585, -0.00037116295363262314], [0.0015700511173247374, -0.0003711629455477856], [0.0015700510472561454, -0.00037116405137390036], [0.0015700510373746772, -0.00037116438195392487], [0.0015700514865323192, -0.0003711643900387624], [0.0015700514712609593, -0.00037116486434923243], [0.0015700512026646895, -0.000371164859857656], [0.001570051138884304, -0.00037116679033720153], [0.0015700513320220902, -0.00037116679482877797], [0.001570051328428829, -0.00037116739849664887], [0.0015700522860329221, -0.0003711674182595851], [0.0015700523219655334, -0.0003711673499876235], [0.001570052639969144, -0.0003711673562758305], [0.001570052617511262, -0.00037116770931373713]]]}, "id": "way/553204213"}, {"type": "Feature", "properties": {"id": "b_553204361", "LINZ2OSM:dataset": "kx_wellington_city_council", "LINZ2OSM:layer": "wcc_buildings", "LINZ2OSM:source_version": "2015-02-02", "attribution": "https://koordinates.com/publisher/wcc/", "building": "yes", "linz2osm:objectid": "90105.0", "source": "Wellington City Council - photo 2009, 0.30m"}, "geometry": {"type": "Polygon", "coordinates": [[[0.0015700540296628884, -0.00037114883121804184], [0.0015700528663445956, -0.00037114880606521384], [0.0015700526992579527, -0.0003711488015736374], [0.0015700526866815388, -0.00037114906388170037], [0.0015700528061574717, -0.0003711490674749615], [0.001570052801665895, -0.0003711491608997511], [0.001570052807055787, -0.0003711491608997511], [0.0015700538095756438, -0.0003711491914424707], [0.0015700538140672204, -0.0003711490944244201], [0.0015700538751526596, -0.0003711490962210506], [0.0015700538760509751, -0.00037114907735642967], [0.0015700540188831051, -0.0003711490809496908], [0.0015700540296628884, -0.00037114883121804184]]]}, "id": "way/553204361"}, {"type": "Feature", "properties": {"id": "b_553204362", "LINZ2OSM:dataset": "kx_wellington_city_council", "LINZ2OSM:layer": "wcc_buildings", "LINZ2OSM:source_version": "2015-02-02", "attribution": "https://koordinates.com/publisher/wcc/", "building": "yes", "linz2osm:objectid": "90108.0", "source": "Wellington City Council - photo 2009, 0.30m"}, "geometry": {"type": "Polygon", "coordinates": [[[0.0015700539389330449, -0.0003711499154845897], [0.0015700539308482072, -0.0003711499154845897], [0.0015700529256334045, -0.00037114989212839235], [0.0015700529202435126, -0.00037114989212839235], [0.0015700529166502513, -0.00037114999543465005], [0.0015700527953776881, -0.00037114999273970417], [0.0015700527845979048, -0.0003711502532511366], [0.00157005280076758, -0.0003711502532511366], [0.0015700539991201688, -0.00037115028109891037], [0.0015700540107982676, -0.00037115028199722564], [0.001570054011696583, -0.0003711502568443977], [0.0015700541347657769, -0.0003711502595393435], [0.0015700541437489296, -0.00037115003855378364], [0.001570054015289844, -0.00037115003585883776], [0.0015700540170864744, -0.0003711500044178028], [0.0015700539353397836, -0.00037115000262117237], [0.0015700539389330449, -0.0003711499154845897]]]}, "id": "way/553204362"}, {"type": "Feature", "properties": {"id": "b_553204363", "LINZ2OSM:dataset": "kx_wellington_city_council", "LINZ2OSM:layer": "wcc_buildings", "LINZ2OSM:source_version": "2015-02-02", "attribution": "https://koordinates.com/publisher/wcc/", "building": "yes", "linz2osm:objectid": "90109.0", "source": "Wellington City Council - photo 2009, 0.30m"}, "geometry": {"type": "Polygon", "coordinates": [[[0.0015700539991201688, -0.00037115028109891037], [0.00157005280076758, -0.0003711502532511366], [0.001570052782801274, -0.0003711506134755655], [0.001570053977560602, -0.0003711506431199698], [0.0015700539991201688, -0.00037115028109891037]]]}, "id": "way/553204363"}, {"type": "Feature", "properties": {"id": "b_553204364", "LINZ2OSM:dataset": "kx_wellington_city_council", "LINZ2OSM:layer": "wcc_buildings", "LINZ2OSM:source_version": "2015-02-02", "attribution": "https://koordinates.com/publisher/wcc/", "building": "yes", "linz2osm:objectid": "90110.0", "source": "Wellington City Council - photo 2009, 0.30m"}, "geometry": {"type": "Polygon", "coordinates": [[[0.001570053977560602, -0.0003711506431199698], [0.001570052782801274, -0.0003711506134755655], [0.0015700527675299144, -0.0003711506134755655], [0.0015700527585467616, -0.00037115082368134193], [0.0015700539685774492, -0.0003711508533257463], [0.001570053977560602, -0.0003711506431199698]]]}, "id": "way/553204364"}, {"type": "Feature", "properties": {"id": "b_553204388", "LINZ2OSM:dataset": "kx_wellington_city_council", "LINZ2OSM:layer": "wcc_buildings", "LINZ2OSM:source_version": "2015-02-02", "attribution": "https://koordinates.com/publisher/wcc/", "building": "yes", "linz2osm:objectid": "90106.0", "source": "Wellington City Council - photo 2009, 0.30m"}, "geometry": {"type": "Polygon", "coordinates": [[[0.0015700538095756438, -0.0003711491914424707], [0.001570052807055787, -0.0003711491608997511], [0.001570052801665895, -0.0003711492633076934], [0.0015700526741051248, -0.000371149258816117], [0.001570052658833765, -0.0003711495175309188], [0.0015700528214288314, -0.00037114952202249525], [0.0015700540018151149, -0.0003711495534635302], [0.0015700540143915287, -0.0003711493046301965], [0.0015700538886273892, -0.0003711493010369353], [0.0015700538895257043, -0.0003711492758841074], [0.0015700538050840674, -0.00037114927318916154], [0.0015700538095756438, -0.0003711491914424707]]]}, "id": "way/553204388"}, {"type": "Feature", "properties": {"id": "b_553204389", "LINZ2OSM:dataset": "kx_wellington_city_council", "LINZ2OSM:layer": "wcc_buildings", "LINZ2OSM:source_version": "2015-02-02", "attribution": "https://koordinates.com/publisher/wcc/", "building": "yes", "linz2osm:objectid": "90107.0", "source": "Wellington City Council - photo 2009, 0.30m"}, "geometry": {"type": "Polygon", "coordinates": [[[0.0015700541706983881, -0.00037114959478603323], [0.0015700540009167996, -0.00037114959029445685], [0.0015700540018151149, -0.0003711495534635302], [0.0015700528214288314, -0.00037114952202249525], [0.0015700528088524173, -0.00037114979331371114], [0.0015700529292266654, -0.00037114979600865697], [0.0015700529256334045, -0.00037114989212839235], [0.0015700539308482072, -0.0003711499154845897], [0.0015700539344414683, -0.00037114983194126835], [0.0015700539946285925, -0.00037114983373789885], [0.0015700539964252232, -0.0003711498022968639], [0.00157005416081692, -0.00037114980678844034], [0.0015700541706983881, -0.00037114959478603323]]]}, "id": "way/553204389"}, {"type": "Feature", "properties": {"id": "b_553204390", "LINZ2OSM:dataset": "kx_wellington_city_council", "LINZ2OSM:layer": "wcc_buildings", "LINZ2OSM:source_version": "2015-02-02", "attribution": "https://koordinates.com/publisher/wcc/", "building": "yes", "linz2osm:objectid": "90098.0", "source": "Wellington City Council - photo 2009, 0.30m"}, "geometry": {"type": "Polygon", "coordinates": [[[0.0015700566410654197, -0.00037114854375715087], [0.0015700555747651774, -0.0003711485204009535], [0.0015700554031869579, -0.0003711485150110618], [0.0015700553852206524, -0.0003711488689472837], [0.001570056639268789, -0.00037114892374451606], [0.0015700566410654197, -0.00037114854375715087]]]}, "id": "way/553204390"}, {"type": "Feature", "properties": {"id": "b_553204391", "LINZ2OSM:dataset": "kx_wellington_city_council", "LINZ2OSM:layer": "wcc_buildings", "LINZ2OSM:source_version": "2015-02-02", "attribution": "https://koordinates.com/publisher/wcc/", "building": "yes", "linz2osm:objectid": "90099.0", "source": "Wellington City Council - photo 2009, 0.30m"}, "geometry": {"type": "Polygon", "coordinates": [[[0.001570056639268789, -0.00037114892374451606], [0.0015700553852206524, -0.0003711488689472837], [0.0015700553762374992, -0.0003711492327649737], [0.0015700555352393046, -0.00037114923815486544], [0.0015700566195058527, -0.0003711492740874768], [0.001570056639268789, -0.00037114892374451606]]]}, "id": "way/553204391"}, {"type": "Feature", "properties": {"id": "b_553204392", "LINZ2OSM:dataset": "kx_wellington_city_council", "LINZ2OSM:layer": "wcc_buildings", "LINZ2OSM:source_version": "2015-02-02", "attribution": "https://koordinates.com/publisher/wcc/", "building": "yes", "linz2osm:objectid": "90100.0", "source": "Wellington City Council - photo 2009, 0.30m"}, "geometry": {"type": "Polygon", "coordinates": [[[0.0015700567587447216, -0.00037114927857905325], [0.0015700566195058527, -0.0003711492740874768], [0.0015700555352393046, -0.00037114923815486544], [0.0015700555163746836, -0.00037114960556581666], [0.0015700567389817855, -0.00037114965227821146], [0.0015700567587447216, -0.00037114927857905325]]]}, "id": "way/553204392"}, {"type": "Feature", "properties": {"id": "b_553204393", "LINZ2OSM:dataset": "kx_wellington_city_council", "LINZ2OSM:layer": "wcc_buildings", "LINZ2OSM:source_version": "2015-02-02", "attribution": "https://koordinates.com/publisher/wcc/", "building": "yes", "linz2osm:objectid": "90101.0", "source": "Wellington City Council - photo 2009, 0.30m"}, "geometry": {"type": "Polygon", "coordinates": [[[0.0015700565530305218, -0.00037114999633296533], [0.0015700555002050086, -0.0003711499711801374], [0.0015700553196436363, -0.0003711499666885609], [0.0015700553043722768, -0.0003711503287096204], [0.0015700565377591619, -0.000371150352964133], [0.0015700565530305218, -0.00037114999633296533]]]}, "id": "way/553204393"}, {"type": "Feature", "properties": {"id": "b_553204394", "LINZ2OSM:dataset": "kx_wellington_city_council", "LINZ2OSM:layer": "wcc_buildings", "LINZ2OSM:source_version": "2015-02-02", "attribution": "https://koordinates.com/publisher/wcc/", "building": "yes", "linz2osm:objectid": "90102.0", "source": "Wellington City Council - photo 2009, 0.30m"}, "geometry": {"type": "Polygon", "coordinates": [[[0.0015700565467423148, -0.000371150352964133], [0.0015700565377591619, -0.000371150352964133], [0.0015700553043722768, -0.0003711503287096204], [0.0015700552882026016, -0.0003711506844424729], [0.0015700553043722768, -0.0003711506844424729], [0.0015700565170979103, -0.00037115071588350785], [0.0015700565305726397, -0.00037115071588350785], [0.0015700565467423148, -0.000371150352964133]]]}, "id": "way/553204394"}, {"type": "Feature", "properties": {"id": "b_553204395", "LINZ2OSM:dataset": "kx_wellington_city_council", "LINZ2OSM:layer": "wcc_buildings", "LINZ2OSM:source_version": "2015-02-02", "attribution": "https://koordinates.com/publisher/wcc/", "building": "yes", "linz2osm:objectid": "90103.0", "source": "Wellington City Council - photo 2009, 0.30m"}, "geometry": {"type": "Polygon", "coordinates": [[[0.0015700565170979103, -0.00037115071588350785], [0.0015700553043722768, -0.0003711506844424729], [0.0015700552917958628, -0.00037115088656341187], [0.0015700565054198115, -0.0003711509260892843], [0.0015700565170979103, -0.00037115071588350785]]]}, "id": "way/553204395"}, {"type": "Feature", "properties": {"id": "b_553204396", "LINZ2OSM:dataset": "kx_wellington_city_council", "LINZ2OSM:layer": "wcc_buildings", "LINZ2OSM:source_version": "2015-02-02", "attribution": "https://koordinates.com/publisher/wcc/", "building": "yes", "linz2osm:objectid": "90104.0", "source": "Wellington City Council - photo 2009, 0.30m"}, "geometry": {"type": "Polygon", "coordinates": [[[0.0015700540143915287, -0.00037114845482393775], [0.001570053013668302, -0.0003711484305694251], [0.0015700530064817798, -0.00037114853926557443], [0.001570052879819325, -0.00037114853567231333], [0.0015700528663445956, -0.00037114880606521384], [0.0015700540296628884, -0.00037114883121804184], [0.0015700540584089777, -0.0003711488321163571], [0.0015700540593072928, -0.00037114880876015966], [0.0015700542066309994, -0.0003711488123534208], [0.0015700542183090982, -0.00037114858597796924], [0.00157005409793485, -0.00037114858238470813], [0.0015700540997314809, -0.00037114855633356485], [0.0015700540098999524, -0.000371148553638619], [0.0015700540143915287, -0.00037114845482393775]]]}, "id": "way/553204396"}, {"type": "Feature", "properties": {"id": "b_553204400", "LINZ2OSM:dataset": "kx_wellington_city_council", "LINZ2OSM:layer": "wcc_buildings", "LINZ2OSM:source_version": "2015-02-02", "attribution": "https://koordinates.com/publisher/wcc/", "building": "yes", "linz2osm:objectid": "90143.0", "source": "Wellington City Council - photo 2009, 0.30m"}, "geometry": {"type": "Polygon", "coordinates": [[[0.001570056762337983, -0.0003711496531765268], [0.0015700567389817855, -0.00037114965227821146], [0.0015700555163746836, -0.00037114960556581666], [0.0015700555002050086, -0.0003711499711801374], [0.0015700565530305218, -0.00037114999633296533], [0.0015700567443716772, -0.0003711500008245417], [0.001570056762337983, -0.0003711496531765268]]]}, "id": "way/553204400"}, {"type": "Feature", "properties": {"id": "b_553204464", "LINZ2OSM:dataset": "kx_wellington_city_council", "LINZ2OSM:layer": "wcc_buildings", "LINZ2OSM:source_version": "2015-02-02", "attribution": "https://koordinates.com/publisher/wcc/", "building": "yes", "linz2osm:objectid": "95993.0", "source": "Wellington City Council - Photo 2012, +/- 0.3m"}, "geometry": {"type": "Polygon", "coordinates": [[[0.0015700537224390613, -0.00037116999013624347], [0.0015700537107609625, -0.00037116999013624347], [0.001570053743100313, -0.00037116956343648353], [0.0015700530936183625, -0.00037116953558870975], [0.001570053041516076, -0.0003711702210032715], [0.001570053702676125, -0.0003711702497493606], [0.0015700537224390613, -0.00037116999013624347]]]}, "id": "way/553204464"}, {"type": "Feature", "properties": {"id": "b_553204467", "LINZ2OSM:dataset": "kx_wellington_city_council", "LINZ2OSM:layer": "wcc_buildings", "LINZ2OSM:source_version": "2015-02-02", "attribution": "https://koordinates.com/publisher/wcc/", "building": "kindergarten", "linz2osm:objectid": "95992.0", "source": "Wellington City Council - Photo 2012, +/- 0.3m"}, "geometry": {"type": "Polygon", "coordinates": [[[0.0015700568207284763, -0.00037115299760432947], [0.0015700551139294365, -0.0003711529499936194], [0.0015700550564372582, -0.0003711541240916957], [0.0015700527567501308, -0.00037115406031131053], [0.0015700526947663765, -0.0003711553224442847], [0.0015700547779595201, -0.0003711553808347782], [0.0015700547716713132, -0.00037115550390397206], [0.0015700554903235406, -0.00037115552366690836], [0.0015700554957134322, -0.00037115540508929085], [0.0015700566958626518, -0.00037115543832695635], [0.0015700567255070561, -0.0003711548409472925], [0.00157005670574412, -0.0003711548409472925], [0.0015700567668295593, -0.00037115359678062393], [0.001570056791084072, -0.0003711535976789392], [0.0015700568207284763, -0.00037115299760432947]]]}, "id": "way/553204467"}, {"type": "Feature", "properties": {"id": "b_553204479", "LINZ2OSM:dataset": "kx_wellington_city_council", "LINZ2OSM:layer": "wcc_buildings", "LINZ2OSM:source_version": "2015-02-02", "attribution": "https://koordinates.com/publisher/wcc/", "building": "shed", "linz2osm:objectid": "96036.0", "source": "Wellington City Council - Photo 2012, +/- 0.3m"}, "geometry": {"type": "Polygon", "coordinates": [[[0.0015700554678656584, -0.0003711528044665434], [0.001570055197472758, -0.00037115279728002106], [0.0015700551938794968, -0.00037115289070481066], [0.0015700554642723973, -0.00037115289699301765], [0.0015700554678656584, -0.0003711528044665434]]]}, "id": "way/553204479"}, {"type": "Feature", "properties": {"id": "b_553204480", "LINZ2OSM:dataset": "kx_wellington_city_council", "LINZ2OSM:layer": "wcc_buildings", "LINZ2OSM:source_version": "2015-02-02", "attribution": "https://koordinates.com/publisher/wcc/", "building": "shed", "linz2osm:objectid": "96037.0", "source": "Wellington City Council - Photo 2012, +/- 0.3m"}, "geometry": {"type": "Polygon", "coordinates": [[[0.0015700568018638553, -0.00037115272182153725], [0.0015700566769980308, -0.0003711527182282761], [0.001570056667116563, -0.0003711529167559539], [0.0015700567919823875, -0.000371152920349215], [0.0015700568018638553, -0.00037115272182153725]]]}, "id": "way/553204480"}, {"type": "Feature", "properties": {"id": "b_643611752", "building": "yes"}, "geometry": {"type": "Polygon", "coordinates": [[[0.001570050341180332, -0.00037115299041780726], [0.0015700486864835786, -0.00037115293562057486], [0.0015700485697025916, -0.00037115529459651094], [0.001570049300931233, -0.0003711553107661861], [0.0015700492937447106, -0.00037115522273128813], [0.0015700502459589116, -0.00037115523979927854], [0.001570050341180332, -0.00037115299041780726]]]}, "id": "way/643611752"}, {"type": "Feature", "properties": {"id": "b_878824386", "building": "yes"}, "geometry": {"type": "Polygon", "coordinates": [[[0.001570049652172509, -0.0003711585447012088], [0.0015700477558289441, -0.0003711584925989222], [0.0015700477630154665, -0.0003711583353937476], [0.001570046673359027, -0.00037115830485102795], [0.001570046664375874, -0.0003711584683444096], [0.0015700453411574607, -0.0003711584306151676], [0.0015700453510389286, -0.00037115824915548033], [0.0015700442703656418, -0.0003711582168161301], [0.0015700442631791196, -0.000371158346173531], [0.001570042259936036, -0.0003711582850880917], [0.0015700421835792369, -0.00037115970891781695], [0.0015700442317380845, -0.00037115977179988683], [0.001570044226348193, -0.0003711598760044598], [0.0015700452441394098, -0.0003711599065471795], [0.001570045251325932, -0.000371159762816734], [0.001570046711088269, -0.0003711598050375524], [0.0015700467030034314, -0.00037115997571745635], [0.0015700476300648043, -0.0003711600017685996], [0.0015700476372513268, -0.000371159854444893], [0.0015700487906881516, -0.0003711598795977209], [0.0015700494464583091, -0.0003711599065471795], [0.0015700495865954931, -0.00037115990744549475], [0.001570049652172509, -0.0003711585447012088]]]}, "id": "way/878824386"}, {"type": "Feature", "properties": {"id": "b_878824387", "building": "yes"}, "geometry": {"type": "Polygon", "coordinates": [[[0.0015700495084420636, -0.00037116151632816865], [0.001570049326084061, -0.0003711614920736559], [0.0015700486801953715, -0.00037116148309050315], [0.0015700476112001835, -0.00037116146422588213], [0.0015700476183867058, -0.0003711613070207074], [0.0015700465287302662, -0.0003711612764779877], [0.0015700465206454285, -0.00037116143997136946], [0.0015700451974270152, -0.0003711614022421275], [0.001570045206410168, -0.00037116122078244013], [0.001570044125736881, -0.00037116118844308986], [0.001570044119448674, -0.0003711613186988061], [0.001570043957751923, -0.0003711613070207074], [0.0015700430351821264, -0.0003711612656982043], [0.0015700421162055905, -0.00037116125761336673], [0.0015700420389504759, -0.0003711626814430921], [0.001570044087109324, -0.00037116274342684664], [0.0015700440817194323, -0.0003711628485297349], [0.001570045099510649, -0.0003711628781741393], [0.0015700451075954867, -0.00037116273444369387], [0.001570046566459508, -0.0003711627766645122], [0.0015700465583746706, -0.00037116294824273143], [0.0015700474854360438, -0.0003711629742938747], [0.001570047492622566, -0.0003711628260718528], [0.0015700494419667328, -0.00037116287907245455], [0.0015700495084420636, -0.00037116151632816865]]]}, "id": "way/878824387"}, {"type": "Feature", "properties": {"id": "b_878824388", "building": "yes"}, "geometry": {"type": "Polygon", "coordinates": [[[0.0015700487906881516, -0.0003711598795977209], [0.001570048763738693, -0.00037116024880530274], [0.0015700485229901968, -0.0003711604024172163], [0.0015700485472447095, -0.0003711609638642688], [0.001570048690975155, -0.0003711610725604182], [0.0015700486801953715, -0.00037116148309050315], [0.001570049326084061, -0.0003711614920736559], [0.001570049329677322, -0.0003711613348684812], [0.001570049088928826, -0.0003711612171891789], [0.0015700490952170328, -0.0003711610033901413], [0.001570049476102713, -0.0003711610096783483], [0.0015700494931707037, -0.0003711604518245569], [0.001570049142827743, -0.00037116044553635], [0.0015700491491159499, -0.000371160230838997], [0.0015700494383734716, -0.0003711600134466983], [0.0015700494464583091, -0.0003711599065471795], [0.0015700487906881516, -0.0003711598795977209]]]}, "id": "way/878824388"}, {"type": "Feature", "properties": {"id": "b_878824389", "building": "yes"}, "geometry": {"type": "Polygon", "coordinates": [[[0.0015700422940720167, -0.00037115990025897243], [0.0015700422006472274, -0.00037116106357726537], [0.0015700430477585403, -0.0003711611022048226], [0.0015700430351821264, -0.0003711612656982043], [0.001570043957751923, -0.0003711613070207074], [0.0015700440646514418, -0.0003711599802090328], [0.0015700422940720167, -0.00037115990025897243]]]}, "id": "way/878824389"}, {"type": "Feature", "properties": {"id": "b_878824390", "building": "yes"}, "geometry": {"type": "Polygon", "coordinates": [[[0.0015700470138205196, -0.0003711581458492227], [0.001570047065922806, -0.00037115672022286684], [0.0015700472752302674, -0.0003711567247144432], [0.001570047306671302, -0.0003711559063492194], [0.0015700470874823729, -0.00037115590095932767], [0.0015700471270082453, -0.00037115490742262354], [0.0015700473686550568, -0.00037115491281251525], [0.0015700474009944071, -0.0003711541007354983], [0.0015700472285178726, -0.00037115409714223713], [0.0015700472913999421, -0.0003711525915658211], [0.0015700453959546928, -0.0003711525466500569], [0.0015700453312759925, -0.0003711540854641385], [0.001570045191138808, -0.00037115408276919265], [0.0015700451605960885, -0.0003711548472354995], [0.0015700453519372438, -0.00037115485172707586], [0.0015700453097164256, -0.00037115594857003775], [0.0015700450815443435, -0.00037115594318014604], [0.0015700450545948848, -0.00037115664027280643], [0.0015700452522242473, -0.0003711566438660676], [0.0015700451983253303, -0.00037115810811998075], [0.0015700470138205196, -0.0003711581458492227]]]}, "id": "way/878824390"}, {"type": "Feature", "properties": {"id": "b_878824395", "LINZ2OSM:dataset": "kx_wellington_city_council", "LINZ2OSM:layer": "wcc_buildings", "LINZ2OSM:source_version": "2015-02-02", "attribution": "https://koordinates.com/publisher/wcc/", "building": "terrace", "linz2osm:objectid": "41845.0", "source": "Wellington City Council - photo 1999, 0.15m"}, "geometry": {"type": "Polygon", "coordinates": [[[0.0015700407507663588, -0.00037114876025113436], [0.0015700420407471067, -0.0003711488357096182], [0.0015700420910527626, -0.0003711476256789306], [0.0015700408001736994, -0.0003711475942378956], [0.0015700407507663588, -0.00037114876025113436]]]}, "id": "way/878824395"}, {"type": "Feature", "properties": {"id": "b_1150367744", "building": "yes", "building:levels": "1"}, "geometry": {"type": "Polygon", "coordinates": [[[0.0015700444617067974, -0.00037115103388711844], [0.001570044609030504, -0.00037115178847195706], [0.0015700452522242473, -0.00037115172109831074], [0.001570045182155655, -0.00037115140309470015], [0.0015700458028915165, -0.0003711513384159997], [0.0015700457436027078, -0.0003711510347854337], [0.0015700459834528887, -0.00037115101412418214], [0.0015700458379258125, -0.0003711502029454807], [0.0015700455962790012, -0.00037115022899662385], [0.001570045541481769, -0.0003711499253660579], [0.0015700449252374839, -0.00037114998106160547], [0.001570044867745306, -0.0003711496756344088], [0.0015700442568909127, -0.00037114972144848833], [0.0015700443575022243, -0.00037115047693164223], [0.0015700446665226821, -0.0003711504481855532], [0.001570044767133994, -0.00037115100244608344], [0.0015700444617067974, -0.00037115103388711844]]]}, "id": "way/1150367744"}, {"type": "Feature", "properties": {"id": "b_1150367745", "building": "yes", "building:levels": "1"}, "geometry": {"type": "Polygon", "coordinates": [[[0.0015700433549823674, -0.00037115190255799813], [0.0015700439604468689, -0.0003711518450658199], [0.0015700438319877833, -0.0003711511030573953], [0.001570043543628577, -0.00037115113090516915], [0.001570043435830743, -0.00037115055867833314], [0.0015700437313764715, -0.0003711505245423523], [0.0015700436056123315, -0.00037114979960191813], [0.0015700429983511995, -0.00037114985709409625], [0.0015700430558433778, -0.00037115016791118457], [0.0015700424360058317, -0.00037115022899662385], [0.0015700424863114874, -0.00037115054879686504], [0.0015700422590377205, -0.00037115057574632355], [0.0015700423901917522, -0.00037115137345029587], [0.0015700424369041472, -0.00037115136985703466], [0.001570042480921596, -0.0003711516698943395], [0.001570043296591874, -0.0003711515872493333], [0.0015700433549823674, -0.00037115190255799813]]]}, "id": "way/1150367745"}, {"type": "Feature", "properties": {"id": "b_1150367746", "building": "yes", "building:levels": "1"}, "geometry": {"type": "Polygon", "coordinates": [[[0.0015700435409336311, -0.0003711549936608907], [0.0015700435723746662, -0.0003711545382150417], [0.0015700438068349553, -0.00037115454180830287], [0.0015700438256995763, -0.00037115402078543805], [0.001570043591239287, -0.00037115401180228523], [0.001570043612798854, -0.000371153565339589], [0.0015700437664107674, -0.0003711535725261113], [0.0015700437879703343, -0.0003711531152836317], [0.0015700440026676873, -0.00037115312606341507], [0.001570044030515461, -0.0003711526014472892], [0.0015700438122248468, -0.0003711525915658211], [0.001570043815818108, -0.00037115245771684373], [0.0015700437915635956, -0.0003711524559202132], [0.0015700438086315859, -0.00037115213162839566], [0.0015700431366917533, -0.0003711521118654593], [0.0015700431348951228, -0.0003711520777294786], [0.001570043008232668, -0.0003711520741362174], [0.001570043008232668, -0.0003711521082721982], [0.001570042559973341, -0.0003711520947974689], [0.001570042563566602, -0.00037115212264524273], [0.0015700423803102844, -0.0003711521163570358], [0.0015700423713271312, -0.00037115240651287254], [0.001570042329106313, -0.0003711524083095031], [0.0015700422877838098, -0.0003711532230814658], [0.0015700423344962046, -0.0003711532230814658], [0.0015700423246147366, -0.00037115351683056363], [0.0015700421853758674, -0.00037115351593224836], [0.0015700421772910297, -0.00037115382225776024], [0.0015700421215954822, -0.00037115382225776024], [0.001570042082967925, -0.00037115463792803825], [0.0015700421296803197, -0.00037115463972466886], [0.0015700421215954822, -0.0003711549271855597], [0.0015700423111400072, -0.0003711549325754514], [0.0015700423129366378, -0.0003711549523383876], [0.0015700435409336311, -0.0003711549936608907]]]}, "id": "way/1150367746"}, {"type": "Feature", "properties": {"id": "b_1150367747", "building": "yes"}, "geometry": {"type": "Polygon", "coordinates": [[[0.001570043619985376, -0.0003711552110531895], [0.0015700422365798386, -0.00037115518320541565], [0.0015700422231051095, -0.0003711554670730454], [0.0015700421467483101, -0.0003711554670730454], [0.0015700421189005366, -0.0003711562809466928], [0.001570042168307877, -0.0003711562836416387], [0.0015700421566297782, -0.00037115658008568243], [0.0015700419733734605, -0.00037115658008568243], [0.00157004195630547, -0.0003711569906157673], [0.0015700420030178648, -0.0003711569906157673], [0.0015700419895431357, -0.00037115726909350534], [0.001570042171002823, -0.00037115727448339705], [0.001570042171002823, -0.00037115729783959446], [0.0015700434097795997, -0.0003711573086193778], [0.0015700434241526441, -0.00037115702744669395], [0.0015700434573903098, -0.0003711570310399551], [0.0015700434618818862, -0.00037115688551287904], [0.0015700436604095638, -0.00037115689090277075], [0.0015700436649011404, -0.00037115663937449116], [0.0015700435768662424, -0.00037115663578123005], [0.0015700435768662424, -0.00037115631777761947], [0.0015700436172904303, -0.00037115631957425], [0.001570043612798854, -0.0003711561722505434], [0.0015700438328860985, -0.0003711561794370657], [0.0015700438463608277, -0.00037115564943104813], [0.0015700436442398886, -0.00037115564493947175], [0.0015700436595112487, -0.0003711555101921791], [0.0015700436056123315, -0.00037115550570060267], [0.001570043619985376, -0.0003711552110531895]]]}, "id": "way/1150367747"}, {"type": "Feature", "properties": {"id": "b_1150367748", "building": "yes", "building:levels": "1"}, "geometry": {"type": "Polygon", "coordinates": [[[0.0015700415745214741, -0.00037115773981071426], [0.0015700408603608234, -0.0003711577164545168], [0.001570040837004626, -0.0003711581188997641], [0.0015700405297807986, -0.000371158109018296], [0.001570040508221232, -0.00037115847642924714], [0.0015700404785768275, -0.0003711589938588508], [0.0015700414999613057, -0.00037115902709651636], [0.0015700415745214741, -0.00037115773981071426]]]}, "id": "way/1150367748"}, {"type": "Feature", "properties": {"id": "b_1150367749", "building": "garage", "building:levels": "1"}, "geometry": {"type": "Polygon", "coordinates": [[[0.0015700404785768275, -0.0003711589938588508], [0.001570040508221232, -0.00037115847642924714], [0.0015700404156947577, -0.00037115846654777905], [0.0015700400958945165, -0.0003711584557679956], [0.0015700400653517969, -0.0003711589794858063], [0.0015700404785768275, -0.0003711589938588508]]]}, "id": "way/1150367749"}, {"type": "Feature", "properties": {"id": "b_1150367750", "building": "garage", "building:levels": "1"}, "geometry": {"type": "Polygon", "coordinates": [[[0.0015700400653517969, -0.0003711589794858063], [0.0015700400958945165, -0.0003711584557679956], [0.0015700395128878974, -0.0003711584351067441], [0.0015700394805485468, -0.0003711589561296089], [0.0015700400653517969, -0.0003711589794858063]]]}, "id": "way/1150367750"}, {"type": "Feature", "properties": {"id": "b_1150367751", "building": "yes", "building:levels": "1"}, "geometry": {"type": "Polygon", "coordinates": [[[0.0015700404156947577, -0.00037115846654777905], [0.001570040495644818, -0.0003711571586007254], [0.0015700392838174995, -0.00037115711727822234], [0.0015700392038674395, -0.00037115842432696073], [0.0015700395128878974, -0.0003711584351067441], [0.0015700400958945165, -0.0003711584557679956], [0.0015700404156947577, -0.00037115846654777905]]]}, "id": "way/1150367751"}, {"type": "Feature", "properties": {"id": "b_1383913682", "building": "yes", "building:levels": "1"}, "geometry": {"type": "Polygon", "coordinates": [[[0.001570039176917981, -0.00037114892823609245], [0.0015700391445786306, -0.0003711493836819415], [0.0015700389101183417, -0.0003711493800886804], [0.0015700388912537205, -0.0003711499011115452], [0.0015700391257140098, -0.000371149910094698], [0.001570039104154443, -0.00037115035655739423], [0.0015700389505425294, -0.0003711503493708719], [0.0015700389289829626, -0.0003711508066133515], [0.0015700387142856096, -0.0003711507958335681], [0.0015700386855395205, -0.000371151320449694], [0.0015700389038301344, -0.0003711513303311622], [0.0015700389002368733, -0.0003711514641801395], [0.0015700389244913862, -0.00037115146597677004], [0.0015700389074233955, -0.00037115179026858756], [0.0015700395793632283, -0.00037115181003152386], [0.001570039581159859, -0.00037115184416750463], [0.0015700397078223139, -0.0003711518477607658], [0.0015700397078223139, -0.00037115181362478496], [0.0015700401560816406, -0.0003711518279978295], [0.0015700401524883793, -0.0003711518001500557], [0.0015700403357446974, -0.0003711518064382627], [0.0015700403447278502, -0.0003711515162824259], [0.0015700403869486686, -0.0003711515144857954], [0.001570040429169487, -0.0003711506997138327], [0.0015700403824570922, -0.0003711506997138327], [0.0015700403923385603, -0.0003711504059647348], [0.0015700405315774296, -0.00037115040686305014], [0.001570040539662267, -0.0003711501005375383], [0.0015700405953578145, -0.0003711501005375383], [0.0015700406339853716, -0.00037114928486726024], [0.0015700405872729772, -0.00037114928307062963], [0.00157004059625613, -0.0003711489956097388], [0.0015700404067116051, -0.0003711489902198471], [0.0015700404049149744, -0.0003711489704569108], [0.001570039176917981, -0.00037114892823609245]]]}, "id": "way/1383913682"}, {"type": "Feature", "properties": {"id": "b_1383913683", "building": "yes", "building:levels": "1"}, "geometry": {"type": "Polygon", "coordinates": [[[0.0015700390385774271, -0.00037115185584560333], [0.0015700390026448156, -0.00037115231129145244], [0.0015700387681845266, -0.0003711523059015608], [0.001570038743930014, -0.00037115282692442545], [0.0015700389774919877, -0.00037115283770420887], [0.0015700389514408447, -0.0003711532832685898], [0.001570038797828931, -0.0003711532751837522], [0.0015700387717777877, -0.0003711537324262319], [0.001570038557080435, -0.0003711537207481332], [0.0015700385238427695, -0.0003711542453642591], [0.0015700387421333836, -0.00037115425614404245], [0.0015700387376418067, -0.0003711543899930198], [0.0015700387609980044, -0.0003711543917896504], [0.001570038741235068, -0.000371154716081468], [0.0015700394122765853, -0.0003711547403359806], [0.001570039414073216, -0.00037115477447196145], [0.001570039540735671, -0.00037115477806522255], [0.001570039540735671, -0.0003711547439292417], [0.0015700399889949977, -0.0003711547600989169], [0.0015700399863000521, -0.00037115473225114313], [0.0015700401695563698, -0.00037115473943766534], [0.0015700401812344686, -0.0003711544501801438], [0.001570040223455287, -0.0003711544483835133], [0.0015700402728626274, -0.00037115363361155064], [0.0015700402261502328, -0.00037115363361155064], [0.0015700402396249622, -0.00037115333986245273], [0.0015700403788638311, -0.00037115334165908323], [0.0015700403896436144, -0.0003711530353335714], [0.001570040445339162, -0.0003711530353335714], [0.0015700404929498723, -0.0003711522196632935], [0.0015700404462374773, -0.0003711522178666629], [0.0015700404570172606, -0.0003711519304057719], [0.0015700402674727358, -0.000371151924117565], [0.0015700402656761054, -0.00037115190435462863], [0.0015700390385774271, -0.00037115185584560333]]]}, "id": "way/1383913683"}]}