
{
"type": "FeatureCollection",
"name": "bupaF1_AI",
"features": [
{ "type": "Feature", "properties": { "Color":"white" "Description": "Common"}, "geometry": { "type": "Polygon", "coordinates": [ [ [ 174.7665514, -41.2579307, 0.0 ], [ 174.7665387, -41.2579187, 0.0 ], [ 174.7665189, -41.2579001, 0.0 ], [ 174.7664221, -41.2579608, 0.0 ], [ 174.7663812, -41.257924, 0.0 ], [ 174.7663012, -41.2578531, 0.0 ], [ 174.7663166, -41.2578437, 0.0 ], [ 174.7664026, -41.2577909, 0.0 ], [ 174.7663867, -41.257776, 0.0 ], [ 174.7663606, -41.2577915, 0.0 ], [ 174.7662963, -41.2578296, 0.0 ], [ 174.7662706, -41.2578074, 0.0 ], [ 174.7662505, -41.2578194, 0.0 ], [ 174.7661902, -41.2577736, 0.0 ], [ 174.7661613, -41.2577517, 0.0 ], [ 174.7662142, -41.2577121, 0.0 ], [ 174.7662524, -41.2576835, 0.0 ], [ 174.7662953, -41.2576515, 0.0 ], [ 174.7663278, -41.2576271, 0.0 ], [ 174.7663428, -41.2576159, 0.0 ], [ 174.7664234, -41.2575557, 0.0 ], [ 174.7665165, -41.257486, 0.0 ], [ 174.7664969, -41.2574712, 0.0 ], [ 174.7664037, -41.2575408, 0.0 ], [ 174.7663232, -41.257601, 0.0 ], [ 174.7662327, -41.2576688, 0.0 ], [ 174.766165, -41.2577194, 0.0 ], [ 174.7660978, -41.2577696, 0.0 ], [ 174.7659974, -41.2578447, 0.0 ], [ 174.766017, -41.2578596, 0.0 ], [ 174.7661174, -41.2577845, 0.0 ], [ 174.7661401, -41.2577675, 0.0 ], [ 174.7662271, -41.2578333, 0.0 ], [ 174.7662695, -41.2578713, 0.0 ], [ 174.7662998, -41.2578985, 0.0 ], [ 174.7663412, -41.2579356, 0.0 ], [ 174.7662889, -41.2579666, 0.0 ], [ 174.7663113, -41.2579876, 0.0 ], [ 174.7663988, -41.2580697, 0.0 ], [ 174.7664526, -41.258036, 0.0 ], [ 174.7664802, -41.2580609, 0.0 ], [ 174.7665076, -41.2580856, 0.0 ], [ 174.7665175, -41.2580946, 0.0 ], [ 174.7665488, -41.258075, 0.0 ], [ 174.7665214, -41.2580503, 0.0 ], [ 174.7664554, -41.2579909, 0.0 ], [ 174.7665514, -41.2579307, 0.0 ] ] ] } },
{ "type": "Feature", "properties": { "Name": "Entry", "Description": "Common"}, "geometry": { "type": "Polygon", "coordinates": [ [ [ 174.76624, -41.2579779, 0.0 ], [ 174.7661693, -41.2580198, 0.0 ], [ 174.7662953, -41.2581411, 0.0 ], [ 174.7663643, -41.2580976, 0.0 ], [ 174.76624, -41.2579779, 0.0 ] ] ] } },
{ "type": "Feature", "properties": { "Name": "Reception", "Description": "Common"}, "geometry": { "type": "Polygon", "coordinates": [ [ [ 174.7663113, -41.2579876, 0.0 ], [ 174.7662734, -41.2580101, 0.0 ], [ 174.7663643, -41.2580976, 0.0 ], [ 174.7664026, -41.2580734, 0.0 ], [ 174.7663988, -41.2580697, 0.0 ], [ 174.7663113, -41.2579876, 0.0 ] ] ] } },
{ "type": "Feature", "properties": { "Name": "General Manager", "Description": "Common"}, "geometry": { "type": "Polygon", "coordinates": [ [ [ 174.7663113, -41.2579876, 0.0 ], [ 174.7662773, -41.2579557, 0.0 ], [ 174.76624, -41.2579779, 0.0 ], [ 174.7662734, -41.2580101, 0.0 ], [ 174.7663113, -41.2579876, 0.0 ] ] ] } },
{ "type": "Feature", "properties": { "Name": "Mailboxes", "Description": "Common"}, "geometry": { "type": "Polygon", "coordinates": [ [ [ 174.7663166, -41.2578437, 0.0 ], [ 174.7663012, -41.2578531, 0.0 ], [ 174.7663817, -41.2579244, 0.0 ], [ 174.7663969, -41.2579149, 0.0 ], [ 174.7663166, -41.2578437, 0.0 ] ] ] } },
{ "type": "Feature", "properties": { "Name": "Storage", "Description": "Common"}, "geometry": { "type": "Polygon", "coordinates": [ [ [ 174.7663394, -41.2577315, 0.0 ], [ 174.7663274, -41.2577405, 0.0 ], [ 174.7663157, -41.2577493, 0.0 ], [ 174.7663606, -41.2577915, 0.0 ], [ 174.7663867, -41.257776, 0.0 ], [ 174.7663394, -41.2577315, 0.0 ] ] ] } },
{ "type": "Feature", "properties": { "Name": "Lounge", "Description": "Common"}, "geometry": { "type": "Polygon", "coordinates": [ [ [ 174.7667274, -41.2576546, 0.0 ], [ 174.7666322, -41.2577161, 0.0 ], [ 174.7668188, -41.2578971, 0.0 ], [ 174.7669197, -41.2578319, 0.0 ], [ 174.7667274, -41.2576546, 0.0 ] ] ] } },
{ "type": "Feature", "properties": { "Name": "Library", "Description": "Common"}, "geometry": { "type": "Polygon", "coordinates": [ [ [ 174.7667263, -41.2578074, 0.0 ], [ 174.7666416, -41.2578577, 0.0 ], [ 174.7667171, -41.2579309, 0.0 ], [ 174.7668018, -41.2578806, 0.0 ], [ 174.7667263, -41.2578074, 0.0 ] ] ] } },
{ "type": "Feature", "properties": { "Name": "Kitchen Servery", "Description": "Common"}, "geometry": { "type": "Polygon", "coordinates": [ [ [ 174.7667171, -41.2579309, 0.0 ], [ 174.7666416, -41.2578577, 0.0 ], [ 174.7665387, -41.2579187, 0.0 ], [ 174.7666157, -41.2579911, 0.0 ], [ 174.7667171, -41.2579309, 0.0 ] ] ] } },
{ "type": "Feature", "properties": { "Name": "Offices", "Description": "Common"}, "geometry": { "type": "Polygon", "coordinates": [ [ [ 174.7665514, -41.2579307, 0.0 ], [ 174.7664554, -41.2579909, 0.0 ], [ 174.7665214, -41.2580503, 0.0 ], [ 174.7666158, -41.2579912, 0.0 ], [ 174.7665514, -41.2579307, 0.0 ] ] ] } },
{ "type": "Feature", "properties": { "Name": "Lift", "Description": "Common"}, "geometry": { "type": "Polygon", "coordinates": [ [ [ 174.7665189, -41.2579001, 0.0 ], [ 174.7664795, -41.2578631, 0.0 ], [ 174.7663969, -41.2579149, 0.0 ], [ 174.7663817, -41.2579244, 0.0 ], [ 174.7664221, -41.2579608, 0.0 ], [ 174.7665189, -41.2579001, 0.0 ] ] ] } },
{ "type": "Feature", "properties": { "Name": "Dining", "Description": "Common"}, "geometry": { "type": "Polygon", "coordinates": [ [ [ 174.7665661, -41.2577845, 0.0 ], [ 174.7664617, -41.2578464, 0.0 ], [ 174.7664795, -41.2578631, 0.0 ], [ 174.7665387, -41.2579187, 0.0 ], [ 174.7666416, -41.2578577, 0.0 ], [ 174.7665661, -41.2577845, 0.0 ] ] ] } },
{ "type": "Feature", "properties": { "Name": "Community Facilities", "Description": "Common"}, "geometry": { "type": "Polygon", "coordinates": [ [ [ 174.7666508, -41.2577342, 0.0 ], [ 174.7665661, -41.2577845, 0.0 ], [ 174.7666416, -41.2578577, 0.0 ], [ 174.7667263, -41.2578074, 0.0 ], [ 174.7666508, -41.2577342, 0.0 ] ] ] } },
{ "type": "Feature", "properties": { "Name": "Activity Room", "Description": "Common"}, "geometry": { "type": "Polygon", "coordinates": [ [ [ 174.7664026, -41.2577909, 0.0 ], [ 174.7663166, -41.2578437, 0.0 ], [ 174.7663969, -41.2579149, 0.0 ], [ 174.7664795, -41.2578631, 0.0 ], [ 174.7664026, -41.2577909, 0.0 ] ] ] } },
{ "type": "Feature", "properties": { "Name": "Care Home", "Description": "Common"}, "geometry": { "type": "Polygon", "coordinates": [ [ [ 174.767115, -41.258082, 0.0 ], [ 174.7670088, -41.2579596, 0.0 ], [ 174.7667347, -41.2581029, 0.0 ], [ 174.7666158, -41.2579912, 0.0 ], [ 174.7665214, -41.2580503, 0.0 ], [ 174.7665488, -41.258075, 0.0 ], [ 174.7665175, -41.2580946, 0.0 ], [ 174.7665076, -41.2580856, 0.0 ], [ 174.7664525, -41.2581202, 0.0 ], [ 174.7665415, -41.2582038, 0.0 ], [ 174.7663935, -41.2582812, 0.0 ], [ 174.7664997, -41.2584036, 0.0 ], [ 174.767115, -41.258082, 0.0 ] ] ] } },
{ "type": "Feature", "properties": { "Name": "Lift", "Description": "Common"}, "geometry": { "type": "Polygon", "coordinates": [ [ [ 174.7665076, -41.2580856, 0.0 ], [ 174.7664802, -41.2580609, 0.0 ], [ 174.7664257, -41.2580951, 0.0 ], [ 174.7664525, -41.2581202, 0.0 ], [ 174.7665076, -41.2580856, 0.0 ] ] ] } },
{ "type": "Feature", "properties": { "Name": "Stairs", "Description": "Common"}, "geometry": { "type": "Polygon", "coordinates": [ [ [ 174.7664526, -41.258036, 0.0 ], [ 174.7663988, -41.2580697, 0.0 ], [ 174.7664257, -41.2580951, 0.0 ], [ 174.7664802, -41.2580609, 0.0 ], [ 174.7664526, -41.258036, 0.0 ] ] ] } },
{ "type": "Feature", "properties": { "Name": "Whanau Room", "Description": "Common"}, "geometry": { "type": "Polygon", "coordinates": [ [ [ 174.7662695, -41.2578713, 0.0 ], [ 174.7662271, -41.2578333, 0.0 ], [ 174.7662019, -41.2578482, 0.0 ], [ 174.766178, -41.2578624, 0.0 ], [ 174.7662192, -41.2579011, 0.0 ], [ 174.7662695, -41.2578713, 0.0 ] ] ] } },
{ "type": "Feature", "properties": { "Name": "Office", "Description": "Common"}, "geometry": { "type": "Polygon", "coordinates": [ [ [ 174.7662998, -41.2578985, 0.0 ], [ 174.7662695, -41.2578713, 0.0 ], [ 174.7662192, -41.2579011, 0.0 ], [ 174.7662486, -41.2579288, 0.0 ], [ 174.7662998, -41.2578985, 0.0 ] ] ] } },
{ "type": "Feature", "properties": { "Name": "Admin", "Description": "Common"}, "geometry": { "type": "Polygon", "coordinates": [ [ [ 174.7662998, -41.2578985, 0.0 ], [ 174.7662486, -41.2579288, 0.0 ], [ 174.7662889, -41.2579666, 0.0 ], [ 174.7663412, -41.2579356, 0.0 ], [ 174.7662998, -41.2578985, 0.0 ] ] ] } },
{ "type": "Feature", "properties": { "Name": "107", "Description": "Apt - Corner", "Color":"green", "Bedroom": "2"}, "geometry": { "type": "Polygon", "coordinates": [ [ [ 174.7664969, -41.2574712, 0.0 ], [ 174.7664001, -41.2573981, 0.0 ], [ 174.7663067, -41.2574679, 0.0 ], [ 174.7664037, -41.2575408, 0.0 ], [ 174.7664969, -41.2574712, 0.0 ] ] ] } },
{ "type": "Feature", "properties": { "Name": "106", "Description": "Apt", "Color":"green", "Bedroom": "2"}, "geometry": { "type": "Polygon", "coordinates": [ [ [ 174.76633, -41.2574854, 0.0 ], [ 174.7662499, -41.2575453, 0.0 ], [ 174.7663232, -41.257601, 0.0 ], [ 174.7664037, -41.2575408, 0.0 ], [ 174.76633, -41.2574854, 0.0 ] ] ] } },
{ "type": "Feature", "properties": { "Name": "105", "Description": "Apt", "Color":"green", "Bedroom": "2"}, "geometry": { "type": "Polygon", "coordinates": [ [ [ 174.7663232, -41.257601, 0.0 ], [ 174.7662499, -41.2575453, 0.0 ], [ 174.7661591, -41.2576132, 0.0 ], [ 174.7662327, -41.2576688, 0.0 ], [ 174.7663232, -41.257601, 0.0 ] ] ] } },
{ "type": "Feature", "properties": { "Name": "104", "Description": "Apt", "Color":"green", "Bedroom": "1"}, "geometry": { "type": "Polygon", "coordinates": [ [ [ 174.7662327, -41.2576688, 0.0 ], [ 174.7661591, -41.2576132, 0.0 ], [ 174.7660916, -41.2576637, 0.0 ], [ 174.766165, -41.2577194, 0.0 ], [ 174.7662327, -41.2576688, 0.0 ] ] ] } },
{ "type": "Feature", "properties": { "Name": "103", "Description": "Apt", "Color":"green", "Bedroom": "1"}, "geometry": { "type": "Polygon", "coordinates": [ [ [ 174.766165, -41.2577194, 0.0 ], [ 174.7660916, -41.2576637, 0.0 ], [ 174.7660242, -41.2577141, 0.0 ], [ 174.7660978, -41.2577696, 0.0 ], [ 174.766165, -41.2577194, 0.0 ] ] ] } },
{ "type": "Feature", "properties": { "Name": "102", "Description": "Apt Corner", "Color":"green", "Bedrooms": "2"}, "geometry": { "type": "Polygon", "coordinates": [ [ [ 174.7660978, -41.2577696, 0.0 ], [ 174.7660242, -41.2577141, 0.0 ], [ 174.765924, -41.2577891, 0.0 ], [ 174.7659974, -41.2578447, 0.0 ], [ 174.7660978, -41.2577696, 0.0 ] ] ] } },
{ "type": "Feature", "properties": { "Name": "101", "Description": "Apt - Corner", "Color":"green", "Bedrooms": "2"}, "geometry": { "type": "Polygon", "coordinates": [ [ [ 174.7661174, -41.2577845, 0.0 ], [ 174.766017, -41.2578596, 0.0 ], [ 174.7660922, -41.2579165, 0.0 ], [ 174.766172, -41.2578568, 0.0 ], [ 174.766178, -41.2578624, 0.0 ], [ 174.7662019, -41.2578482, 0.0 ], [ 174.7661174, -41.2577845, 0.0 ] ] ] } },
{ "type": "Feature", "properties": { "Name": "Stairs", "Description": "Common"}, "geometry": { "type": "Polygon", "coordinates": [ [ [ 174.7661401, -41.2577675, 0.0 ], [ 174.7661174, -41.2577845, 0.0 ], [ 174.7662019, -41.2578482, 0.0 ], [ 174.7662271, -41.2578333, 0.0 ], [ 174.7661401, -41.2577675, 0.0 ] ] ] } },
{ "type": "Feature", "properties": { "Name": "Meeting Room", "Description": "Common"}, "geometry": { "type": "Polygon", "coordinates": [ [ [ 174.7662431, -41.2577341, 0.0 ], [ 174.7662377, -41.25773, 0.0 ], [ 174.7662142, -41.2577121, 0.0 ], [ 174.7661613, -41.2577517, 0.0 ], [ 174.7661902, -41.2577736, 0.0 ], [ 174.7662431, -41.2577341, 0.0 ] ] ] } },
{ "type": "Feature", "properties": { "Name": "Refuse Store", "Description": "Common"}, "geometry": { "type": "Polygon", "coordinates": [ [ [ 174.7662813, -41.2577055, 0.0 ], [ 174.7662524, -41.2576835, 0.0 ], [ 174.7662142, -41.2577121, 0.0 ], [ 174.7662431, -41.2577341, 0.0 ], [ 174.7662813, -41.2577055, 0.0 ] ] ] } },
{ "type": "Feature", "properties": { "Name": "Gym", "Description": "Common"}, "geometry": { "type": "Polygon", "coordinates": [ [ [ 174.7662953, -41.2576515, 0.0 ], [ 174.7662524, -41.2576835, 0.0 ], [ 174.7663274, -41.2577405, 0.0 ], [ 174.7663394, -41.2577315, 0.0 ], [ 174.7663703, -41.2577084, 0.0 ], [ 174.7662953, -41.2576515, 0.0 ] ] ] } },
{ "type": "Feature", "properties": { "Name": "Gym II", "Description": "Common"}, "geometry": { "type": "Polygon", "coordinates": [ [ [ 174.7663278, -41.2576271, 0.0 ], [ 174.7662953, -41.2576515, 0.0 ], [ 174.7663703, -41.2577084, 0.0 ], [ 174.7664029, -41.2576841, 0.0 ], [ 174.7663278, -41.2576271, 0.0 ] ] ] } },
{ "type": "Feature", "properties": { "Name": "Hall", "Description": "Common", "Color":"gray" }, "geometry": { "type": "Polygon", "coordinates": [ [ [ 174.7663428, -41.2576159, 0.0 ], [ 174.7663278, -41.2576271, 0.0 ], [ 174.7664029, -41.2576841, 0.0 ], [ 174.766418, -41.2576728, 0.0 ], [ 174.7663428, -41.2576159, 0.0 ] ] ] } },
{ "type": "Feature", "properties": { "Name": "109", "Description": "Apt", "Bedroom": "1" }, "geometry": { "type": "Polygon", "coordinates": [ [ [ 174.7664988, -41.2576124, 0.0 ], [ 174.7664234, -41.2575557, 0.0 ], [ 174.7663428, -41.2576159, 0.0 ], [ 174.766418, -41.2576728, 0.0 ], [ 174.7664988, -41.2576124, 0.0 ] ] ] } },
{ "type": "Feature", "properties": { "Name": "108", "Description": "Apt - Corner", "Color":"green", "Bedrooms": "2"}, "geometry": { "type": "Polygon", "coordinates": [ [ [ 174.7666202, -41.2575644, 0.0 ], [ 174.7665165, -41.257486, 0.0 ], [ 174.7664234, -41.2575557, 0.0 ], [ 174.7665274, -41.2576339, 0.0 ], [ 174.7666202, -41.2575644, 0.0 ] ] ] } },
{ "type": "Feature", "properties": { "Name": "Storage", "Description": "Common"}, "geometry": { "type": "Polygon", "coordinates": [ [ [ 174.7662813, -41.2577055, 0.0 ], [ 174.7662431, -41.2577341, 0.0 ], [ 174.7662485, -41.2577382, 0.0 ], [ 174.7662892, -41.2577691, 0.0 ], [ 174.7663274, -41.2577405, 0.0 ], [ 174.7662813, -41.2577055, 0.0 ] ] ] } },
{ "type": "Feature", "properties": { "Name": "Hair Salon", "Description": "Common"}, "geometry": { "type": "Polygon", "coordinates": [ [ [ 174.7662431, -41.2577341, 0.0 ], [ 174.7661902, -41.2577736, 0.0 ], [ 174.7662505, -41.2578194, 0.0 ], [ 174.7662706, -41.2578074, 0.0 ], [ 174.7662554, -41.2577943, 0.0 ], [ 174.7662892, -41.2577691, 0.0 ], [ 174.7662431, -41.2577341, 0.0 ] ] ] } },
{ "type": "Feature", "properties": { "Name": "Wellness Clinic", "Description": "Common"}, "geometry": { "type": "Polygon", "coordinates": [ [ [ 174.7663157, -41.2577493, 0.0 ], [ 174.7662892, -41.2577691, 0.0 ], [ 174.7662554, -41.2577943, 0.0 ], [ 174.7662963, -41.2578296, 0.0 ], [ 174.7663606, -41.2577915, 0.0 ], [ 174.7663157, -41.2577493, 0.0 ] ] ] } }
]
}
