{
    "type": "FeatureCollection",
    "name": "bupaF1_AI",
    "features": [
        {
            "type": "Feature",
            "properties": {
                "Name": null,
                "description": "Common",
                "Desc": null,
                "Bedroom": null
            },
            "geometry": {
                "type": "Polygon",
                "coordinates": [
                    [
                        [
                            0.0015699546427547994,
                            -0.0003706262973869556,
                            0.0
                        ],
                        [
                            0.0015699545286687584,
                            -0.00037062618958912135,
                            0.0
                        ],
                        [
                            0.0015699543508023322,
                            -0.0003706260225024786,
                            0.0
                        ],
                        [
                            0.001569953481233137,
                            -0.0003706265677798561,
                            0.0
                        ],
                        [
                            0.0015699531138221859,
                            -0.00037062623719983154,
                            0.0
                        ],
                        [
                            0.0015699523951699585,
                            -0.0003706256002942951,
                            0.0
                        ],
                        [
                            0.0015699525335105124,
                            -0.0003706255158526584,
                            0.0
                        ],
                        [
                            0.0015699533060616565,
                            -0.0003706250415421884,
                            0.0
                        ],
                        [
                            0.0015699531632295265,
                            -0.0003706249076932111,
                            0.0
                        ],
                        [
                            0.0015699529287692374,
                            -0.0003706250469320801,
                            0.0
                        ],
                        [
                            0.0015699523511525097,
                            -0.0003706253891902033,
                            0.0
                        ],
                        [
                            0.0015699521202854818,
                            -0.0003706251897642102,
                            0.0
                        ],
                        [
                            0.0015699519397241095,
                            -0.00037062529756204436,
                            0.0
                        ],
                        [
                            0.001569951398039993,
                            -0.00037062488613364417,
                            0.0
                        ],
                        [
                            0.001569951138426876,
                            -0.000370624689402597,
                            0.0
                        ],
                        [
                            0.0015699516136356616,
                            -0.0003706243336697445,
                            0.0
                        ],
                        [
                            0.0015699519567921,
                            -0.00037062407675157326,
                            0.0
                        ],
                        [
                            0.0015699523421693568,
                            -0.00037062378929068234,
                            0.0
                        ],
                        [
                            0.0015699526341218242,
                            -0.00037062357010175296,
                            0.0
                        ],
                        [
                            0.0015699527688691165,
                            -0.00037062346949044114,
                            0.0
                        ],
                        [
                            0.0015699534929112357,
                            -0.00037062292870464013,
                            0.0
                        ],
                        [
                            0.0015699543292427651,
                            -0.0003706223025788871,
                            0.0
                        ],
                        [
                            0.0015699541531729695,
                            -0.00037062216962822507,
                            0.0
                        ],
                        [
                            0.0015699533159431248,
                            -0.0003706227948556628,
                            0.0
                        ],
                        [
                            0.001569952592799321,
                            -0.00037062333564146383,
                            0.0
                        ],
                        [
                            0.0015699517798239888,
                            -0.0003706239446992265,
                            0.0
                        ],
                        [
                            0.0015699511716645415,
                            -0.0003706243992467603,
                            0.0
                        ],
                        [
                            0.0015699505679966708,
                            -0.00037062485020103285,
                            0.0
                        ],
                        [
                            0.0015699496660881254,
                            -0.00037062552483581123,
                            0.0
                        ],
                        [
                            0.001569949842157921,
                            -0.0003706256586847885,
                            0.0
                        ],
                        [
                            0.0015699507440664665,
                            -0.00037062498405001016,
                            0.0
                        ],
                        [
                            0.0015699509479840357,
                            -0.0003706248313364119,
                            0.0
                        ],
                        [
                            0.001569951729518333,
                            -0.00037062542242786886,
                            0.0
                        ],
                        [
                            0.0015699521104040133,
                            -0.00037062576378767674,
                            0.0
                        ],
                        [
                            0.0015699523825935448,
                            -0.000370626008129434,
                            0.0
                        ],
                        [
                            0.001569952754496072,
                            -0.0003706263414044045,
                            0.0
                        ],
                        [
                            0.0015699522846771786,
                            -0.00037062661988214256,
                            0.0
                        ],
                        [
                            0.0015699524858998023,
                            -0.00037062680852835216,
                            0.0
                        ],
                        [
                            0.0015699532719256756,
                            -0.00037062754604520043,
                            0.0
                        ],
                        [
                            0.0015699537552192988,
                            -0.00037062724331294965,
                            0.0
                        ],
                        [
                            0.001569954003154317,
                            -0.0003706274669934554,
                            0.0
                        ],
                        [
                            0.0015699542492927051,
                            -0.0003706276888773306,
                            0.0
                        ],
                        [
                            0.0015699543382259181,
                            -0.0003706277697257062,
                            0.0
                        ],
                        [
                            0.0015699546193986022,
                            -0.00037062759365591046,
                            0.0
                        ],
                        [
                            0.0015699543732602141,
                            -0.00037062737177203536,
                            0.0
                        ],
                        [
                            0.0015699537803721267,
                            -0.0003706268381727566,
                            0.0
                        ],
                        [
                            0.0015699546427547994,
                            -0.0003706262973869556,
                            0.0
                        ]
                    ]
                ]
            }
        },
        {
            "type": "Feature",
            "properties": {
                "Name": "Enry",
                "description": "Common",
                "Desc": null,
                "Bedroom": null
            },
            "geometry": {
                "type": "Polygon",
                "coordinates": [
                    [
                        [
                            0.0015699518454010046,
                            -0.00037062672139176966,
                            0.0
                        ],
                        [
                            0.0015699512102920988,
                            -0.00037062709778587364,
                            0.0
                        ],
                        [
                            0.0015699523421693568,
                            -0.00037062818744231326,
                            0.0
                        ],
                        [
                            0.0015699529620069026,
                            -0.0003706277966751647,
                            0.0
                        ],
                        [
                            0.0015699518454010046,
                            -0.00037062672139176966,
                            0.0
                        ]
                    ]
                ]
            }
        },
        {
            "type": "Feature",
            "properties": {
                "Name": "Reception",
                "description": "Common",
                "Desc": null,
                "Bedroom": null
            },
            "geometry": {
                "type": "Polygon",
                "coordinates": [
                    [
                        [
                            0.0015699524858998023,
                            -0.00037062680852835216,
                            0.0
                        ],
                        [
                            0.0015699521454383095,
                            -0.0003706270106492911,
                            0.0
                        ],
                        [
                            0.0015699529620069026,
                            -0.0003706277966751647,
                            0.0
                        ],
                        [
                            0.0015699533060616565,
                            -0.000370627579282866,
                            0.0
                        ],
                        [
                            0.0015699532719256756,
                            -0.00037062754604520043,
                            0.0
                        ],
                        [
                            0.0015699524858998023,
                            -0.00037062680852835216,
                            0.0
                        ]
                    ]
                ]
            }
        },
        {
            "type": "Feature",
            "properties": {
                "Name": "General Manager",
                "description": "Common",
                "Desc": null,
                "Bedroom": null
            },
            "geometry": {
                "type": "Polygon",
                "coordinates": [
                    [
                        [
                            0.0015699524858998023,
                            -0.00037062680852835216,
                            0.0
                        ],
                        [
                            0.0015699521804726057,
                            -0.0003706265219657765,
                            0.0
                        ],
                        [
                            0.0015699518454010046,
                            -0.00037062672139176966,
                            0.0
                        ],
                        [
                            0.0015699521454383095,
                            -0.0003706270106492911,
                            0.0
                        ],
                        [
                            0.0015699524858998023,
                            -0.00037062680852835216,
                            0.0
                        ]
                    ]
                ]
            }
        },
        {
            "type": "Feature",
            "properties": {
                "Name": "Mailboxes",
                "description": "Common",
                "Desc": null,
                "Bedroom": null
            },
            "geometry": {
                "type": "Polygon",
                "coordinates": [
                    [
                        [
                            0.0015699525335105124,
                            -0.0003706255158526584,
                            0.0
                        ],
                        [
                            0.0015699523951699585,
                            -0.0003706256002942951,
                            0.0
                        ],
                        [
                            0.0015699531183137622,
                            -0.00037062624079309264,
                            0.0
                        ],
                        [
                            0.0015699532548576853,
                            -0.0003706261554531407,
                            0.0
                        ],
                        [
                            0.0015699525335105124,
                            -0.0003706255158526584,
                            0.0
                        ]
                    ]
                ]
            }
        },
        {
            "type": "Feature",
            "properties": {
                "Name": "Wellness Clinic",
                "description": "Common",
                "Desc": null,
                "Bedroom": null
            },
            "geometry": {
                "type": "Polygon",
                "coordinates": [
                    [
                        [
                            0.0015699529287692374,
                            -0.0003706250469320801,
                            0.0
                        ],
                        [
                            0.0015699525254256749,
                            -0.0003706246678430302,
                            0.0
                        ],
                        [
                            0.0015699522873721243,
                            -0.0003706248457094564,
                            0.0
                        ],
                        [
                            0.0015699519837415585,
                            -0.00037062507208490805,
                            0.0
                        ],
                        [
                            0.0015699521202854818,
                            -0.0003706251897642102,
                            0.0
                        ],
                        [
                            0.0015699523511525097,
                            -0.0003706253891902033,
                            0.0
                        ],
                        [
                            0.0015699529287692374,
                            -0.0003706250469320801,
                            0.0
                        ]
                    ]
                ]
            }
        },
        {
            "type": "Feature",
            "properties": {
                "Name": "Storage",
                "description": "Common",
                "Desc": null,
                "Bedroom": null
            },
            "geometry": {
                "type": "Polygon",
                "coordinates": [
                    [
                        [
                            0.0015699527383263969,
                            -0.0003706245079429096,
                            0.0
                        ],
                        [
                            0.001569952630528563,
                            -0.0003706245887912851,
                            0.0
                        ],
                        [
                            0.0015699525254256749,
                            -0.0003706246678430302,
                            0.0
                        ],
                        [
                            0.0015699529287692374,
                            -0.0003706250469320801,
                            0.0
                        ],
                        [
                            0.0015699531632295265,
                            -0.0003706249076932111,
                            0.0
                        ],
                        [
                            0.0015699527383263969,
                            -0.0003706245079429096,
                            0.0
                        ]
                    ]
                ]
            }
        },
        {
            "type": "Feature",
            "properties": {
                "Name": "Lounge",
                "description": "Common",
                "Desc": null,
                "Bedroom": null
            },
            "geometry": {
                "type": "Polygon",
                "coordinates": [
                    [
                        [
                            0.0015699562237896996,
                            -0.0003706238171384561,
                            0.0
                        ],
                        [
                            0.001569955368593549,
                            -0.0003706243696023559,
                            0.0
                        ],
                        [
                            0.0015699570448498691,
                            -0.00037062599555302004,
                            0.0
                        ],
                        [
                            0.0015699579512499907,
                            -0.0003706254098514548,
                            0.0
                        ],
                        [
                            0.0015699562237896996,
                            -0.0003706238171384561,
                            0.0
                        ]
                    ]
                ]
            }
        },
        {
            "type": "Feature",
            "properties": {
                "Name": "Library",
                "description": "Common",
                "Desc": null,
                "Bedroom": null
            },
            "geometry": {
                "type": "Polygon",
                "coordinates": [
                    [
                        [
                            0.0015699562139082311,
                            -0.0003706251897642102,
                            0.0
                        ],
                        [
                            0.0015699554530351858,
                            -0.0003706256416167981,
                            0.0
                        ],
                        [
                            0.001569956131263225,
                            -0.00037062629918358615,
                            0.0
                        ],
                        [
                            0.0015699568921362706,
                            -0.00037062584733099814,
                            0.0
                        ],
                        [
                            0.0015699562139082311,
                            -0.0003706251897642102,
                            0.0
                        ]
                    ]
                ]
            }
        },
        {
            "type": "Feature",
            "properties": {
                "Name": "Kitchen Servery",
                "description": "Common",
                "Desc": null,
                "Bedroom": null
            },
            "geometry": {
                "type": "Polygon",
                "coordinates": [
                    [
                        [
                            0.001569956131263225,
                            -0.00037062629918358615,
                            0.0
                        ],
                        [
                            0.0015699554530351858,
                            -0.0003706256416167981,
                            0.0
                        ],
                        [
                            0.0015699545286687584,
                            -0.00037062618958912135,
                            0.0
                        ],
                        [
                            0.001569955220371527,
                            -0.0003706268399693871,
                            0.0
                        ],
                        [
                            0.001569956131263225,
                            -0.00037062629918358615,
                            0.0
                        ]
                    ]
                ]
            }
        },
        {
            "type": "Feature",
            "properties": {
                "Name": "Offices",
                "description": "Common",
                "Desc": null,
                "Bedroom": null
            },
            "geometry": {
                "type": "Polygon",
                "coordinates": [
                    [
                        [
                            0.0015699546427547994,
                            -0.0003706262973869556,
                            0.0
                        ],
                        [
                            0.0015699537803721267,
                            -0.0003706268381727566,
                            0.0
                        ],
                        [
                            0.0015699543732602141,
                            -0.00037062737177203536,
                            0.0
                        ],
                        [
                            0.0015699552212698426,
                            -0.0003706268408677024,
                            0.0
                        ],
                        [
                            0.0015699546427547994,
                            -0.0003706262973869556,
                            0.0
                        ]
                    ]
                ]
            }
        },
        {
            "type": "Feature",
            "properties": {
                "Name": "Lift",
                "description": "Common",
                "Desc": null,
                "Bedroom": null
            },
            "geometry": {
                "type": "Polygon",
                "coordinates": [
                    [
                        [
                            0.0015699543508023322,
                            -0.0003706260225024786,
                            0.0
                        ],
                        [
                            0.00156995399686611,
                            -0.00037062569012582343,
                            0.0
                        ],
                        [
                            0.0015699532548576853,
                            -0.0003706261554531407,
                            0.0
                        ],
                        [
                            0.0015699531183137622,
                            -0.00037062624079309264,
                            0.0
                        ],
                        [
                            0.001569953481233137,
                            -0.0003706265677798561,
                            0.0
                        ],
                        [
                            0.0015699543508023322,
                            -0.0003706260225024786,
                            0.0
                        ]
                    ]
                ]
            }
        },
        {
            "type": "Feature",
            "properties": {
                "Name": "Dining",
                "description": "Common",
                "Desc": null,
                "Bedroom": null
            },
            "geometry": {
                "type": "Polygon",
                "coordinates": [
                    [
                        [
                            0.0015699547748071463,
                            -0.00037062498405001016,
                            0.0
                        ],
                        [
                            0.0015699538369659896,
                            -0.00037062554010717103,
                            0.0
                        ],
                        [
                            0.00156995399686611,
                            -0.00037062569012582343,
                            0.0
                        ],
                        [
                            0.0015699545286687584,
                            -0.00037062618958912135,
                            0.0
                        ],
                        [
                            0.0015699554530351858,
                            -0.0003706256416167981,
                            0.0
                        ],
                        [
                            0.0015699547748071463,
                            -0.00037062498405001016,
                            0.0
                        ]
                    ]
                ]
            }
        },
        {
            "type": "Feature",
            "properties": {
                "Name": "Community Facilities",
                "description": "Common",
                "Desc": null,
                "Bedroom": null
            },
            "geometry": {
                "type": "Polygon",
                "coordinates": [
                    [
                        [
                            0.0015699555356801919,
                            -0.00037062453219742226,
                            0.0
                        ],
                        [
                            0.0015699547748071463,
                            -0.00037062498405001016,
                            0.0
                        ],
                        [
                            0.0015699554530351858,
                            -0.0003706256416167981,
                            0.0
                        ],
                        [
                            0.0015699562139082311,
                            -0.0003706251897642102,
                            0.0
                        ],
                        [
                            0.0015699555356801919,
                            -0.00037062453219742226,
                            0.0
                        ]
                    ]
                ]
            }
        },
        {
            "type": "Feature",
            "properties": {
                "Name": "Activity Room",
                "description": "Common",
                "Desc": null,
                "Bedroom": null
            },
            "geometry": {
                "type": "Polygon",
                "coordinates": [
                    [
                        [
                            0.0015699533060616565,
                            -0.0003706250415421884,
                            0.0
                        ],
                        [
                            0.0015699525335105124,
                            -0.0003706255158526584,
                            0.0
                        ],
                        [
                            0.0015699532548576853,
                            -0.0003706261554531407,
                            0.0
                        ],
                        [
                            0.00156995399686611,
                            -0.00037062569012582343,
                            0.0
                        ],
                        [
                            0.0015699533060616565,
                            -0.0003706250415421884,
                            0.0
                        ]
                    ]
                ]
            }
        },
        {
            "type": "Feature",
            "properties": {
                "Name": "Care Home",
                "description": "Common",
                "Desc": null,
                "Bedroom": null
            },
            "geometry": {
                "type": "Polygon",
                "coordinates": [
                    [
                        [
                            0.0015699597056597406,
                            -0.0003706276565379804,
                            0.0
                        ],
                        [
                            0.0015699587516489091,
                            -0.0003706265570000726,
                            0.0
                        ],
                        [
                            0.0015699562893667152,
                            -0.0003706278442858748,
                            0.0
                        ],
                        [
                            0.0015699552212698426,
                            -0.0003706268408677024,
                            0.0
                        ],
                        [
                            0.0015699543732602141,
                            -0.00037062737177203536,
                            0.0
                        ],
                        [
                            0.0015699546193986022,
                            -0.00037062759365591046,
                            0.0
                        ],
                        [
                            0.0015699543382259181,
                            -0.0003706277697257062,
                            0.0
                        ],
                        [
                            0.0015699542492927051,
                            -0.0003706276888773306,
                            0.0
                        ],
                        [
                            0.0015699537543209835,
                            -0.0003706279996944188,
                            0.0
                        ],
                        [
                            0.0015699545538215862,
                            -0.0003706287506859964,
                            0.0
                        ],
                        [
                            0.0015699532243149657,
                            -0.0003706294459820263,
                            0.0
                        ],
                        [
                            0.0015699541783257974,
                            -0.000370630545519934,
                            0.0
                        ],
                        [
                            0.0015699597056597406,
                            -0.0003706276565379804,
                            0.0
                        ]
                    ]
                ]
            }
        },
        {
            "type": "Feature",
            "properties": {
                "Name": "Lift",
                "description": "Common",
                "Desc": null,
                "Bedroom": null
            },
            "geometry": {
                "type": "Polygon",
                "coordinates": [
                    [
                        [
                            0.0015699542492927051,
                            -0.0003706276888773306,
                            0.0
                        ],
                        [
                            0.001569954003154317,
                            -0.0003706274669934554,
                            0.0
                        ],
                        [
                            0.0015699535135724875,
                            -0.0003706277742172826,
                            0.0
                        ],
                        [
                            0.0015699537543209835,
                            -0.0003706279996944188,
                            0.0
                        ],
                        [
                            0.0015699542492927051,
                            -0.0003706276888773306,
                            0.0
                        ]
                    ]
                ]
            }
        },
        {
            "type": "Feature",
            "properties": {
                "Name": "Stairs",
                "description": "Common",
                "Desc": null,
                "Bedroom": null
            },
            "geometry": {
                "type": "Polygon",
                "coordinates": [
                    [
                        [
                            0.0015699537552192988,
                            -0.00037062724331294965,
                            0.0
                        ],
                        [
                            0.0015699532719256756,
                            -0.00037062754604520043,
                            0.0
                        ],
                        [
                            0.0015699535135724875,
                            -0.0003706277742172826,
                            0.0
                        ],
                        [
                            0.001569954003154317,
                            -0.0003706274669934554,
                            0.0
                        ],
                        [
                            0.0015699537552192988,
                            -0.00037062724331294965,
                            0.0
                        ]
                    ]
                ]
            }
        },
        {
            "type": "Feature",
            "properties": {
                "Name": "Whanau Room",
                "description": "Common",
                "Desc": null,
                "Bedroom": null
            },
            "geometry": {
                "type": "Polygon",
                "coordinates": [
                    [
                        [
                            0.0015699521104040133,
                            -0.00037062576378767674,
                            0.0
                        ],
                        [
                            0.001569951729518333,
                            -0.00037062542242786886,
                            0.0
                        ],
                        [
                            0.0015699515031428815,
                            -0.0003706255562768461,
                            0.0
                        ],
                        [
                            0.0015699512884455285,
                            -0.0003706256838376165,
                            0.0
                        ],
                        [
                            0.0015699516585514256,
                            -0.00037062603148563136,
                            0.0
                        ],
                        [
                            0.0015699521104040133,
                            -0.00037062576378767674,
                            0.0
                        ]
                    ]
                ]
            }
        },
        {
            "type": "Feature",
            "properties": {
                "Name": "Office",
                "description": "Common",
                "Desc": null,
                "Bedroom": null
            },
            "geometry": {
                "type": "Polygon",
                "coordinates": [
                    [
                        [
                            0.0015699523825935448,
                            -0.000370626008129434,
                            0.0
                        ],
                        [
                            0.0015699521104040133,
                            -0.00037062576378767674,
                            0.0
                        ],
                        [
                            0.0015699516585514256,
                            -0.00037062603148563136,
                            0.0
                        ],
                        [
                            0.0015699519226561192,
                            -0.0003706262803189652,
                            0.0
                        ],
                        [
                            0.0015699523825935448,
                            -0.000370626008129434,
                            0.0
                        ]
                    ]
                ]
            }
        },
        {
            "type": "Feature",
            "properties": {
                "Name": "Admin",
                "description": "Common",
                "Desc": null,
                "Bedroom": null
            },
            "geometry": {
                "type": "Polygon",
                "coordinates": [
                    [
                        [
                            0.0015699523825935448,
                            -0.000370626008129434,
                            0.0
                        ],
                        [
                            0.0015699519226561192,
                            -0.0003706262803189652,
                            0.0
                        ],
                        [
                            0.0015699522846771786,
                            -0.00037062661988214256,
                            0.0
                        ],
                        [
                            0.001569952754496072,
                            -0.0003706263414044045,
                            0.0
                        ],
                        [
                            0.0015699523825935448,
                            -0.000370626008129434,
                            0.0
                        ]
                    ]
                ]
            }
        },
        {
            "type": "Feature",
            "properties": {
                "Name": "107",
                "description": "Apt",
                "Desc": "2 Bedroom Corner",
                "Bedroom": null
            },
            "geometry": {
                "type": "Polygon",
                "coordinates": [
                    [
                        [
                            0.0015699541531729695,
                            -0.00037062216962822507,
                            0.0
                        ],
                        [
                            0.0015699532836037744,
                            -0.00037062151295975243,
                            0.0
                        ],
                        [
                            0.0015699524445772991,
                            -0.00037062213998382074,
                            0.0
                        ],
                        [
                            0.0015699533159431248,
                            -0.0003706227948556628,
                            0.0
                        ],
                        [
                            0.0015699541531729695,
                            -0.00037062216962822507,
                            0.0
                        ]
                    ]
                ]
            }
        },
        {
            "type": "Feature",
            "properties": {
                "Name": "106",
                "description": "Apt",
                "Desc": "2 Bedroom",
                "Bedroom": null
            },
            "geometry": {
                "type": "Polygon",
                "coordinates": [
                    [
                        [
                            0.0015699526538847605,
                            -0.00037062229718899545,
                            0.0
                        ],
                        [
                            0.0015699519343342178,
                            -0.0003706228352798506,
                            0.0
                        ],
                        [
                            0.001569952592799321,
                            -0.00037062333564146383,
                            0.0
                        ],
                        [
                            0.0015699533159431248,
                            -0.0003706227948556628,
                            0.0
                        ],
                        [
                            0.0015699526538847605,
                            -0.00037062229718899545,
                            0.0
                        ]
                    ]
                ]
            }
        },
        {
            "type": "Feature",
            "properties": {
                "Name": "105",
                "description": "Apt",
                "Desc": "2 Bedroom",
                "Bedroom": null
            },
            "geometry": {
                "type": "Polygon",
                "coordinates": [
                    [
                        [
                            0.001569952592799321,
                            -0.00037062333564146383,
                            0.0
                        ],
                        [
                            0.0015699519343342178,
                            -0.0003706228352798506,
                            0.0
                        ],
                        [
                            0.0015699511186639398,
                            -0.00037062344523592847,
                            0.0
                        ],
                        [
                            0.0015699517798239888,
                            -0.0003706239446992265,
                            0.0
                        ],
                        [
                            0.001569952592799321,
                            -0.00037062333564146383,
                            0.0
                        ]
                    ]
                ]
            }
        },
        {
            "type": "Feature",
            "properties": {
                "Name": "104",
                "description": "Apt",
                "Desc": "1 Bedroom",
                "Bedroom": null
            },
            "geometry": {
                "type": "Polygon",
                "coordinates": [
                    [
                        [
                            0.0015699517798239888,
                            -0.0003706239446992265,
                            0.0
                        ],
                        [
                            0.0015699511186639398,
                            -0.00037062344523592847,
                            0.0
                        ],
                        [
                            0.001569950512301123,
                            -0.000370623898885147,
                            0.0
                        ],
                        [
                            0.0015699511716645415,
                            -0.0003706243992467603,
                            0.0
                        ],
                        [
                            0.0015699517798239888,
                            -0.0003706239446992265,
                            0.0
                        ]
                    ]
                ]
            }
        },
        {
            "type": "Feature",
            "properties": {
                "Name": "103",
                "description": "Apt",
                "Desc": "1 Bedroom",
                "Bedroom": null
            },
            "geometry": {
                "type": "Polygon",
                "coordinates": [
                    [
                        [
                            0.0015699511716645415,
                            -0.0003706243992467603,
                            0.0
                        ],
                        [
                            0.001569950512301123,
                            -0.000370623898885147,
                            0.0
                        ],
                        [
                            0.0015699499068366216,
                            -0.0003706243516360502,
                            0.0
                        ],
                        [
                            0.0015699505679966708,
                            -0.00037062485020103285,
                            0.0
                        ],
                        [
                            0.0015699511716645415,
                            -0.0003706243992467603,
                            0.0
                        ]
                    ]
                ]
            }
        },
        {
            "type": "Feature",
            "properties": {
                "Name": "102",
                "description": "Apt",
                "Desc": "2 Bedroom Corner",
                "Bedroom": null
            },
            "geometry": {
                "type": "Polygon",
                "coordinates": [
                    [
                        [
                            0.0015699505679966708,
                            -0.00037062485020103285,
                            0.0
                        ],
                        [
                            0.0015699499068366216,
                            -0.0003706243516360502,
                            0.0
                        ],
                        [
                            0.001569949006724707,
                            -0.0003706250253725132,
                            0.0
                        ],
                        [
                            0.0015699496660881254,
                            -0.00037062552483581123,
                            0.0
                        ],
                        [
                            0.0015699505679966708,
                            -0.00037062485020103285,
                            0.0
                        ]
                    ]
                ]
            }
        },
        {
            "type": "Feature",
            "properties": {
                "Name": "101",
                "description": "Common",
                "Desc": "2 Bedroom Corner",
                "Bedroom": null
            },
            "geometry": {
                "type": "Polygon",
                "coordinates": [
                    [
                        [
                            0.0015699507440664665,
                            -0.00037062498405001016,
                            0.0
                        ],
                        [
                            0.001569949842157921,
                            -0.0003706256586847885,
                            0.0
                        ],
                        [
                            0.0015699505176910147,
                            -0.00037062616982618516,
                            0.0
                        ],
                        [
                            0.0015699512345466117,
                            -0.00037062563353196053,
                            0.0
                        ],
                        [
                            0.0015699512884455285,
                            -0.0003706256838376165,
                            0.0
                        ],
                        [
                            0.0015699515031428815,
                            -0.0003706255562768461,
                            0.0
                        ],
                        [
                            0.0015699507440664665,
                            -0.00037062498405001016,
                            0.0
                        ]
                    ]
                ]
            }
        },
        {
            "type": "Feature",
            "properties": {
                "Name": "Stairs",
                "description": "Common",
                "Desc": null,
                "Bedroom": null
            },
            "geometry": {
                "type": "Polygon",
                "coordinates": [
                    [
                        [
                            0.0015699509479840357,
                            -0.0003706248313364119,
                            0.0
                        ],
                        [
                            0.0015699507440664665,
                            -0.00037062498405001016,
                            0.0
                        ],
                        [
                            0.0015699515031428815,
                            -0.0003706255562768461,
                            0.0
                        ],
                        [
                            0.001569951729518333,
                            -0.00037062542242786886,
                            0.0
                        ],
                        [
                            0.0015699509479840357,
                            -0.0003706248313364119,
                            0.0
                        ]
                    ]
                ]
            }
        },
        {
            "type": "Feature",
            "properties": {
                "Name": "Meeting Room",
                "description": "Common",
                "Desc": null,
                "Bedroom": null
            },
            "geometry": {
                "type": "Polygon",
                "coordinates": [
                    [
                        [
                            0.0015699518732487784,
                            -0.000370624531299107,
                            0.0
                        ],
                        [
                            0.0015699518247397533,
                            -0.00037062449446818033,
                            0.0
                        ],
                        [
                            0.0015699516136356616,
                            -0.0003706243336697445,
                            0.0
                        ],
                        [
                            0.001569951138426876,
                            -0.000370624689402597,
                            0.0
                        ],
                        [
                            0.001569951398039993,
                            -0.00037062488613364417,
                            0.0
                        ],
                        [
                            0.0015699518732487784,
                            -0.000370624531299107,
                            0.0
                        ]
                    ]
                ]
            }
        },
        {
            "type": "Feature",
            "properties": {
                "Name": "Refuse Store",
                "description": "Common",
                "Desc": null,
                "Bedroom": null
            },
            "geometry": {
                "type": "Polygon",
                "coordinates": [
                    [
                        [
                            0.001569952216405217,
                            -0.00037062427438093573,
                            0.0
                        ],
                        [
                            0.0015699519567921,
                            -0.00037062407675157326,
                            0.0
                        ],
                        [
                            0.0015699516136356616,
                            -0.0003706243336697445,
                            0.0
                        ],
                        [
                            0.0015699518732487784,
                            -0.000370624531299107,
                            0.0
                        ],
                        [
                            0.001569952216405217,
                            -0.00037062427438093573,
                            0.0
                        ]
                    ]
                ]
            }
        },
        {
            "type": "Feature",
            "properties": {
                "Name": "Gym",
                "description": "Common",
                "Desc": null,
                "Bedroom": null
            },
            "geometry": {
                "type": "Polygon",
                "coordinates": [
                    [
                        [
                            0.0015699523421693568,
                            -0.00037062378929068234,
                            0.0
                        ],
                        [
                            0.0015699519567921,
                            -0.00037062407675157326,
                            0.0
                        ],
                        [
                            0.001569952630528563,
                            -0.0003706245887912851,
                            0.0
                        ],
                        [
                            0.0015699527383263969,
                            -0.0003706245079429096,
                            0.0
                        ],
                        [
                            0.0015699530159058199,
                            -0.000370624300432079,
                            0.0
                        ],
                        [
                            0.0015699523421693568,
                            -0.00037062378929068234,
                            0.0
                        ]
                    ]
                ]
            }
        },
        {
            "type": "Feature",
            "properties": {
                "Name": "Gym II",
                "description": "Common",
                "Desc": null,
                "Bedroom": null
            },
            "geometry": {
                "type": "Polygon",
                "coordinates": [
                    [
                        [
                            0.0015699526341218242,
                            -0.00037062357010175296,
                            0.0
                        ],
                        [
                            0.0015699523421693568,
                            -0.00037062378929068234,
                            0.0
                        ],
                        [
                            0.0015699530159058199,
                            -0.000370624300432079,
                            0.0
                        ],
                        [
                            0.0015699533087566026,
                            -0.0003706240821414649,
                            0.0
                        ],
                        [
                            0.0015699526341218242,
                            -0.00037062357010175296,
                            0.0
                        ]
                    ]
                ]
            }
        },
        {
            "type": "Feature",
            "properties": {
                "Name": "Hall",
                "description": "Common",
                "Desc": null,
                "Bedroom": null
            },
            "geometry": {
                "type": "Polygon",
                "coordinates": [
                    [
                        [
                            0.0015699527688691165,
                            -0.00037062346949044114,
                            0.0
                        ],
                        [
                            0.0015699526341218242,
                            -0.00037062357010175296,
                            0.0
                        ],
                        [
                            0.0015699533087566026,
                            -0.0003706240821414649,
                            0.0
                        ],
                        [
                            0.0015699534444022104,
                            -0.0003706239806318379,
                            0.0
                        ],
                        [
                            0.0015699527688691165,
                            -0.00037062346949044114,
                            0.0
                        ]
                    ]
                ]
            }
        },
        {
            "type": "Feature",
            "properties": {
                "Name": "109",
                "description": "Apt",
                "Desc": null,
                "Bedroom": 0
            },
            "geometry": {
                "type": "Polygon",
                "coordinates": [
                    [
                        [
                            0.00156995417024096,
                            -0.0003706234380494062,
                            0.0
                        ],
                        [
                            0.0015699534929112357,
                            -0.00037062292870464013,
                            0.0
                        ],
                        [
                            0.0015699527688691165,
                            -0.00037062346949044114,
                            0.0
                        ],
                        [
                            0.0015699534444022104,
                            -0.0003706239806318379,
                            0.0
                        ],
                        [
                            0.00156995417024096,
                            -0.0003706234380494062,
                            0.0
                        ]
                    ]
                ]
            }
        },
        {
            "type": "Feature",
            "properties": {
                "Name": "108",
                "description": "Apt",
                "Desc": "2 Bedroom Corner",
                "Bedroom": null
            },
            "geometry": {
                "type": "Polygon",
                "coordinates": [
                    [
                        [
                            0.001569955260795715,
                            -0.0003706230068580699,
                            0.0
                        ],
                        [
                            0.0015699543292427651,
                            -0.0003706223025788871,
                            0.0
                        ],
                        [
                            0.0015699534929112357,
                            -0.00037062292870464013,
                            0.0
                        ],
                        [
                            0.0015699544271591311,
                            -0.0003706236311871923,
                            0.0
                        ],
                        [
                            0.001569955260795715,
                            -0.0003706230068580699,
                            0.0
                        ]
                    ]
                ]
            }
        },
        {
            "type": "Feature",
            "properties": {
                "Name": "Storage",
                "description": "Common",
                "Desc": null,
                "Bedroom": null
            },
            "geometry": {
                "type": "Polygon",
                "coordinates": [
                    [
                        [
                            0.001569952216405217,
                            -0.00037062427438093573,
                            0.0
                        ],
                        [
                            0.0015699518732487784,
                            -0.000370624531299107,
                            0.0
                        ],
                        [
                            0.0015699519217578038,
                            -0.0003706245681300336,
                            0.0
                        ],
                        [
                            0.0015699522873721243,
                            -0.0003706248457094564,
                            0.0
                        ],
                        [
                            0.001569952630528563,
                            -0.0003706245887912851,
                            0.0
                        ],
                        [
                            0.001569952216405217,
                            -0.00037062427438093573,
                            0.0
                        ]
                    ]
                ]
            }
        },
        {
            "type": "Feature",
            "properties": {
                "Name": "Hair Salon",
                "description": "Common",
                "Desc": null,
                "Bedroom": null
            },
            "geometry": {
                "type": "Polygon",
                "coordinates": [
                    [
                        [
                            0.0015699518732487784,
                            -0.000370624531299107,
                            0.0
                        ],
                        [
                            0.001569951398039993,
                            -0.00037062488613364417,
                            0.0
                        ],
                        [
                            0.0015699519397241095,
                            -0.00037062529756204436,
                            0.0
                        ],
                        [
                            0.0015699521202854818,
                            -0.0003706251897642102,
                            0.0
                        ],
                        [
                            0.0015699519837415585,
                            -0.00037062507208490805,
                            0.0
                        ],
                        [
                            0.0015699522873721243,
                            -0.0003706248457094564,
                            0.0
                        ],
                        [
                            0.0015699518732487784,
                            -0.000370624531299107,
                            0.0
                        ]
                    ]
                ]
            }
        },
        {
            "type": "Feature",
            "properties": {
                "Name": "Wellness Clinic",
                "description": "Common",
                "Desc": null,
                "Bedroom": null
            },
            "geometry": {
                "type": "Polygon",
                "coordinates": [
                    [
                        [
                            0.0015699525254256749,
                            -0.0003706246678430302,
                            0.0
                        ],
                        [
                            0.0015699522873721243,
                            -0.0003706248457094564,
                            0.0
                        ],
                        [
                            0.0015699519837415585,
                            -0.00037062507208490805,
                            0.0
                        ],
                        [
                            0.0015699523511525097,
                            -0.0003706253891902033,
                            0.0
                        ],
                        [
                            0.0015699529287692374,
                            -0.0003706250469320801,
                            0.0
                        ],
                        [
                            0.0015699525254256749,
                            -0.0003706246678430302,
                            0.0
                        ]
                    ]
                ]
            }
        },
        {
            "type": "Feature",
            "properties": {
                "Name": "Storage",
                "description": "Common",
                "Desc": null,
                "Bedroom": null
            },
            "geometry": {
                "type": "Polygon",
                "coordinates": [
                    [
                        [
                            0.0015699527383263969,
                            -0.0003706245079429096,
                            0.0
                        ],
                        [
                            0.0015699525254256749,
                            -0.0003706246678430302,
                            0.0
                        ],
                        [
                            0.0015699529287692374,
                            -0.0003706250469320801,
                            0.0
                        ],
                        [
                            0.0015699531632295265,
                            -0.0003706249076932111,
                            0.0
                        ],
                        [
                            0.0015699527383263969,
                            -0.0003706245079429096,
                            0.0
                        ]
                    ]
                ]
            }
        },
        {
            "type": "Feature",
            "properties": {
                "Name": null,
                "description": "Common",
                "Desc": null,
                "Bedroom": null
            },
            "geometry": {
                "type": "Polygon",
                "coordinates": [
                    [
                        [
                            0.0015699533060616565,
                            -0.0003706250415421884,
                            0.0
                        ],
                        [
                            0.0015699525335105124,
                            -0.0003706255158526584,
                            0.0
                        ],
                        [
                            0.0015699532548576853,
                            -0.0003706261554531407,
                            0.0
                        ],
                        [
                            0.00156995399686611,
                            -0.00037062569012582343,
                            0.0
                        ],
                        [
                            0.0015699533060616565,
                            -0.0003706250415421884,
                            0.0
                        ]
                    ]
                ]
            }
        }
    ]
}