{"type": "FeatureCollection", "features": [{"type": "Feature", "properties": {"layer": "#000000", "fid": "Stairs"}, "geometry": {"type": "Polygon", "coordinates": [[[174.76613, -41.25774, 0.0], [174.7661, -41.25776, 0.0], [174.76614, -41.2578, 0.0], [174.76617, -41.25778, 0.0], [174.76613, -41.25774, 0.0]]]}}, {"type": "Feature", "properties": {"layer": "#000000", "fid": "Open"}, "geometry": {"type": "Polygon", "coordinates": [[[174.76616, -41.25772, 0.0], [174.76613, -41.25774, 0.0], [174.76617, -41.25778, 0.0], [174.76614, -41.2578, 0.0], [174.76616, -41.25782, 0.0], [174.76616, -41.25782, 0.0], [174.76622, -41.25778, 0.0], [174.76616, -41.25772, 0.0]]]}}, {"type": "Feature", "properties": {"layer": "#000000", "fid": "315"}, "geometry": {"type": "Polygon", "coordinates": [[[174.76683, -41.25774, 0.0], [174.76675, -41.25779, 0.0], [174.76667, -41.25772, 0.0], [174.76665, -41.2577, 0.0], [174.76669, -41.25767, 0.0], [174.7667, -41.25769, 0.0], [174.76674, -41.25766, 0.0], [174.76679, -41.25771, 0.0], [174.7668, -41.25771, 0.0], [174.76683, -41.25774, 0.0]]]}}, {"type": "Feature", "properties": {"layer": "#000000", "fid": "313"}, "geometry": {"type": "Polygon", "coordinates": [[[174.76667, -41.25772, 0.0], [174.76674, -41.25778, 0.0], [174.76664, -41.25784, 0.0], [174.76657, -41.25778, 0.0], [174.76657, -41.25778, 0.0], [174.7666, -41.25776, 0.0], [174.76661, -41.25777, 0.0], [174.76665, -41.25775, 0.0], [174.76664, -41.25774, 0.0], [174.76667, -41.25772, 0.0]]]}}, {"type": "Feature", "properties": {"layer": "#000000", "fid": "312"}, "geometry": {"type": "Polygon", "coordinates": [[[174.76657, -41.25778, 0.0], [174.76664, -41.25784, 0.0], [174.76653, -41.2579, 0.0], [174.76651, -41.25788, 0.0], [174.7665, -41.25789, 0.0], [174.76646, -41.25785, 0.0], [174.76646, -41.25785, 0.0], [174.7665, -41.25783, 0.0], [174.76651, -41.25783, 0.0], [174.76655, -41.25781, 0.0], [174.76654, -41.2578, 0.0], [174.76657, -41.25778, 0.0], [174.76657, -41.25778, 0.0]]]}}, {"type": "Feature", "properties": {"layer": "#000000", "fid": "316"}, "geometry": {"type": "Polygon", "coordinates": [[[174.76675, -41.2578, 0.0], [174.76681, -41.25785, 0.0], [174.76678, -41.25787, 0.0], [174.76678, -41.25787, 0.0], [174.76674, -41.25789, 0.0], [174.76674, -41.25789, 0.0], [174.76671, -41.25791, 0.0], [174.76671, -41.25791, 0.0], [174.76665, -41.25786, 0.0], [174.76675, -41.2578, 0.0]]]}}, {"type": "Feature", "properties": {"layer": "#000000", "fid": "315"}, "geometry": {"type": "Polygon", "coordinates": [[[174.76685, -41.25777, 0.0], [174.76691, -41.25781, 0.0], [174.76687, -41.25784, 0.0], [174.76688, -41.25785, 0.0], [174.76684, -41.25788, 0.0], [174.76681, -41.25785, 0.0], [174.76675, -41.25779, 0.0], [174.76683, -41.25774, 0.0], [174.76684, -41.25775, 0.0], [174.76686, -41.25776, 0.0], [174.76685, -41.25777, 0.0]]]}}, {"type": "Feature", "properties": {"layer": "#000000", "fid": "301"}, "geometry": {"type": "Polygon", "coordinates": [[[174.76616, -41.25782, 0.0], [174.76616, -41.25782, 0.0], [174.76615, -41.25783, 0.0], [174.76611, -41.25785, 0.0], [174.76611, -41.25785, 0.0], [174.76596, -41.25773, 0.0], [174.76601, -41.2577, 0.0], [174.76608, -41.25775, 0.0], [174.76609, -41.25776, 0.0], [174.76616, -41.25782, 0.0]]]}}, {"type": "Feature", "properties": {"layer": "#000000", "fid": "302"}, "geometry": {"type": "Polygon", "coordinates": [[[174.76608, -41.25765, 0.0], [174.76615, -41.2577, 0.0], [174.76608, -41.25775, 0.0], [174.76601, -41.2577, 0.0], [174.76604, -41.25767, 0.0], [174.76605, -41.25768, 0.0], [174.76608, -41.25765, 0.0], [174.76608, -41.25765, 0.0], [174.76608, -41.25765, 0.0]]]}}, {"type": "Feature", "properties": {"layer": "#000000", "fid": "303"}, "geometry": {"type": "Polygon", "coordinates": [[[174.76616, -41.25759, 0.0], [174.76623, -41.25765, 0.0], [174.76615, -41.2577, 0.0], [174.76608, -41.25765, 0.0], [174.76609, -41.25764, 0.0], [174.7661, -41.25764, 0.0], [174.76613, -41.25762, 0.0], [174.76613, -41.25761, 0.0], [174.76616, -41.25759, 0.0]]]}}, {"type": "Feature", "properties": {"layer": "#000000", "fid": "304"}, "geometry": {"type": "Polygon", "coordinates": [[[174.76625, -41.25752, 0.0], [174.76632, -41.25758, 0.0], [174.76623, -41.25765, 0.0], [174.76616, -41.25759, 0.0], [174.76619, -41.25757, 0.0], [174.76619, -41.25757, 0.0], [174.76623, -41.25755, 0.0], [174.76622, -41.25755, 0.0], [174.76625, -41.25752, 0.0]]]}}, {"type": "Feature", "properties": {"layer": "#000000", "fid": "305"}, "geometry": {"type": "Polygon", "coordinates": [[[174.76634, -41.25746, 0.0], [174.76643, -41.25752, 0.0], [174.76643, -41.25752, 0.0], [174.76642, -41.25751, 0.0], [174.76632, -41.25758, 0.0], [174.76625, -41.25752, 0.0], [174.76628, -41.2575, 0.0], [174.76628, -41.25751, 0.0], [174.76632, -41.25748, 0.0], [174.76631, -41.25748, 0.0], [174.76634, -41.25746, 0.0]]]}}, {"type": "Feature", "properties": {"layer": "#000000", "fid": "306"}, "geometry": {"type": "Polygon", "coordinates": [[[174.76643, -41.25753, 0.0], [174.76643, -41.25752, 0.0], [174.76643, -41.25752, 0.0], [174.7665, -41.25758, 0.0], [174.76647, -41.2576, 0.0], [174.76646, -41.25759, 0.0], [174.76643, -41.25762, 0.0], [174.76643, -41.25762, 0.0], [174.7664, -41.25764, 0.0], [174.76634, -41.25759, 0.0], [174.76643, -41.25753, 0.0]]]}}, {"type": "Feature", "properties": {"layer": "#000000", "fid": "307"}, "geometry": {"type": "Polygon", "coordinates": [[[174.76626, -41.25767, 0.0], [174.76624, -41.25766, 0.0], [174.76634, -41.25759, 0.0], [174.7664, -41.25764, 0.0], [174.76637, -41.25766, 0.0], [174.76637, -41.25766, 0.0], [174.76633, -41.25769, 0.0], [174.76634, -41.25769, 0.0], [174.76631, -41.25771, 0.0], [174.76631, -41.25771, 0.0], [174.76626, -41.25767, 0.0]]]}}, {"type": "Feature", "properties": {"layer": "#000000", "fid": "311"}, "geometry": {"type": "Polygon", "coordinates": [[[174.76629, -41.25784, 0.0], [174.76622, -41.25788, 0.0], [174.76622, -41.25789, 0.0], [174.76622, -41.25789, 0.0], [174.76621, -41.25788, 0.0], [174.76621, -41.25787, 0.0], [174.76618, -41.25785, 0.0], [174.76618, -41.25785, 0.0], [174.76615, -41.25783, 0.0], [174.76616, -41.25782, 0.0], [174.76622, -41.25778, 0.0], [174.76629, -41.25784, 0.0]]]}}, {"type": "Feature", "properties": {"layer": "#000000", "fid": "310"}, "geometry": {"type": "Polygon", "coordinates": [[[174.76634, -41.25789, 0.0], [174.76627, -41.25794, 0.0], [174.76625, -41.25791, 0.0], [174.76626, -41.25791, 0.0], [174.76622, -41.25788, 0.0], [174.76622, -41.25789, 0.0], [174.76622, -41.25788, 0.0], [174.76629, -41.25784, 0.0], [174.76634, -41.25789, 0.0]]]}}, {"type": "Feature", "properties": {"layer": "#000000", "fid": "323"}, "geometry": {"type": "Polygon", "coordinates": [[[174.76634, -41.25792, 0.0], [174.76639, -41.25796, 0.0], [174.76627, -41.25803, 0.0], [174.76621, -41.25798, 0.0], [174.76627, -41.25794, 0.0], [174.76634, -41.25789, 0.0], [174.76636, -41.25791, 0.0], [174.76634, -41.25792, 0.0]]]}}, {"type": "Feature", "properties": {"layer": "#000000", "fid": "322"}, "geometry": {"type": "Polygon", "coordinates": [[[174.7664, -41.25806, 0.0], [174.76633, -41.2581, 0.0], [174.76627, -41.25803, 0.0], [174.76639, -41.25796, 0.0], [174.76642, -41.258, 0.0], [174.76643, -41.25799, 0.0], [174.76646, -41.25802, 0.0], [174.76646, -41.25802, 0.0], [174.7664, -41.25806, 0.0]]]}}, {"type": "Feature", "properties": {"layer": "#000000", "fid": "321"}, "geometry": {"type": "Polygon", "coordinates": [[[174.76648, -41.25804, 0.0], [174.76649, -41.25803, 0.0], [174.76656, -41.25811, 0.0], [174.76649, -41.25814, 0.0], [174.76642, -41.25808, 0.0], [174.76642, -41.25808, 0.0], [174.76648, -41.25804, 0.0], [174.76648, -41.25804, 0.0], [174.76648, -41.25804, 0.0]]]}}, {"type": "Feature", "properties": {"layer": "#000000", "fid": "318"}, "geometry": {"type": "Polygon", "coordinates": [[[174.76663, -41.25801, 0.0], [174.76667, -41.25805, 0.0], [174.76658, -41.25809, 0.0], [174.76649, -41.25801, 0.0], [174.76654, -41.25798, 0.0], [174.76658, -41.25796, 0.0], [174.7666, -41.25798, 0.0], [174.7666, -41.25798, 0.0], [174.7666, -41.25798, 0.0], [174.76663, -41.25801, 0.0]]]}}, {"type": "Feature", "properties": {"layer": "#000000", "fid": "319"}, "geometry": {"type": "Polygon", "coordinates": [[[174.76671, -41.25809, 0.0], [174.76674, -41.25811, 0.0], [174.76665, -41.25816, 0.0], [174.76658, -41.25809, 0.0], [174.76667, -41.25805, 0.0], [174.76671, -41.25809, 0.0]]]}}, {"type": "Feature", "properties": {"layer": "#000000", "fid": "320"}, "geometry": {"type": "Polygon", "coordinates": [[[174.76663, -41.25817, 0.0], [174.76656, -41.25821, 0.0], [174.76649, -41.25814, 0.0], [174.76656, -41.25811, 0.0], [174.76663, -41.25817, 0.0]]]}}, {"type": "Feature", "properties": {"layer": "#000000", "fid": "Care 3"}, "geometry": {"type": "Polygon", "coordinates": [[[174.76703, -41.25797, 0.0], [174.7671, -41.25805, 0.0], [174.76706, -41.25807, 0.0], [174.76709, -41.2581, 0.0], [174.76692, -41.25818, 0.0], [174.76693, -41.25819, 0.0], [174.76684, -41.25823, 0.0], [174.76684, -41.25822, 0.0], [174.76668, -41.2583, 0.0], [174.76659, -41.25835, 0.0], [174.76649, -41.2584, 0.0], [174.76647, -41.25837, 0.0], [174.76646, -41.25837, 0.0], [174.76642, -41.25832, 0.0], [174.76642, -41.25832, 0.0], [174.7664, -41.25829, 0.0], [174.76656, -41.25821, 0.0], [174.76663, -41.25817, 0.0], [174.76665, -41.25816, 0.0], [174.76674, -41.25811, 0.0], [174.76703, -41.25797, 0.0]]]}}, {"type": "Feature", "properties": {"layer": "#000000", "fid": "Crafts"}, "geometry": {"type": "Polygon", "coordinates": [[[174.76654, -41.25792, 0.0], [174.76658, -41.25796, 0.0], [174.76649, -41.25801, 0.0], [174.76649, -41.258, 0.0], [174.76646, -41.25797, 0.0], [174.7665, -41.25795, 0.0], [174.7665, -41.25795, 0.0], [174.7665, -41.25795, 0.0], [174.76654, -41.25792, 0.0]]]}}, {"type": "Feature", "properties": {"layer": "#000000", "fid": "Storage"}, "geometry": {"type": "Polygon", "coordinates": [[[174.7665, -41.25789, 0.0], [174.76646, -41.25791, 0.0], [174.76643, -41.25787, 0.0], [174.76646, -41.25785, 0.0], [174.7665, -41.25789, 0.0], [174.7665, -41.25789, 0.0]]]}}, {"type": "Feature", "properties": {"layer": "#000000", "fid": "Lift"}, "geometry": {"type": "Polygon", "coordinates": [[[174.76641, -41.25788, 0.0], [174.76645, -41.25792, 0.0], [174.76642, -41.25793, 0.0], [174.76638, -41.2579, 0.0], [174.76638, -41.2579, 0.0], [174.76641, -41.25788, 0.0], [174.76641, -41.25788, 0.0]]]}}, {"type": "Feature", "properties": {"layer": "#000000", "fid": "Open"}, "geometry": {"type": "Polygon", "coordinates": [[[174.76646, -41.25791, 0.0], [174.76648, -41.25792, 0.0], [174.76646, -41.25793, 0.0], [174.76641, -41.25788, 0.0], [174.76643, -41.25787, 0.0], [174.76643, -41.25787, 0.0], [174.76646, -41.25791, 0.0]]]}}, {"type": "Feature", "properties": {"layer": "#000000", "fid": "309"}, "geometry": {"type": "Polygon", "coordinates": [[[174.76644, -41.25783, 0.0], [174.76646, -41.25785, 0.0], [174.76646, -41.25785, 0.0], [174.76643, -41.25787, 0.0], [174.76643, -41.25787, 0.0], [174.76641, -41.25788, 0.0], [174.76641, -41.25788, 0.0], [174.76641, -41.25788, 0.0], [174.76638, -41.2579, 0.0], [174.76634, -41.25786, 0.0], [174.76631, -41.25783, 0.0], [174.76639, -41.25778, 0.0], [174.76639, -41.25778, 0.0], [174.76641, -41.2578, 0.0], [174.7664, -41.25781, 0.0], [174.76643, -41.25784, 0.0], [174.76644, -41.25783, 0.0]]]}}, {"type": "Feature", "properties": {"layer": "#000000", "fid": "308"}, "geometry": {"type": "Polygon", "coordinates": [[[174.76631, -41.25783, 0.0], [174.76622, -41.25775, 0.0], [174.76623, -41.25774, 0.0], [174.76625, -41.25773, 0.0], [174.76624, -41.25772, 0.0], [174.76624, -41.25772, 0.0], [174.76625, -41.25771, 0.0], [174.76623, -41.25769, 0.0], [174.76626, -41.25767, 0.0], [174.76631, -41.25771, 0.0], [174.76631, -41.25771, 0.0], [174.76633, -41.25773, 0.0], [174.76632, -41.25773, 0.0], [174.76635, -41.25776, 0.0], [174.76636, -41.25776, 0.0], [174.76639, -41.25778, 0.0], [174.76639, -41.25778, 0.0], [174.76631, -41.25783, 0.0]]]}}, {"type": "Feature", "properties": {"layer": "#000000", "fid": "Refuse"}, "geometry": {"type": "Polygon", "coordinates": [[[174.76624, -41.25772, 0.0], [174.76624, -41.25772, 0.0], [174.76625, -41.25771, 0.0], [174.76623, -41.25769, 0.0], [174.76622, -41.2577, 0.0], [174.76619, -41.25772, 0.0], [174.76622, -41.25775, 0.0], [174.76625, -41.25773, 0.0], [174.76624, -41.25772, 0.0]]]}}, {"type": "Feature", "properties": {"layer": "#000000", "fid": "Open"}, "geometry": {"type": "Polygon", "coordinates": [[[174.76619, -41.25772, 0.0], [174.76618, -41.2577, 0.0], [174.76624, -41.25766, 0.0], [174.76626, -41.25767, 0.0], [174.76619, -41.25772, 0.0]]]}}, {"type": "Feature", "properties": {"layer": "#000000", "fid": "na"}, "geometry": {"type": "Polygon", "coordinates": [[[174.76644, -41.25799, 0.0], [174.76644, -41.25799, 0.0], [174.76644, -41.25799, 0.0], [174.76644, -41.25799, 0.0]]]}}, {"type": "Feature", "properties": {"layer": "#000000", "fid": "317"}, "geometry": {"type": "LineString", "coordinates": [[174.76654, -41.25792, 0.0], [174.76665, -41.25786, 0.0], [174.76671, -41.25791, 0.0], [174.76671, -41.25791, 0.0], [174.76668, -41.25793, 0.0], [174.76667, -41.25793, 0.0], [174.76664, -41.25795, 0.0], [174.76664, -41.25796, 0.0], [174.7666, -41.25798, 0.0], [174.7666, -41.25798, 0.0], [174.76658, -41.25796, 0.0], [174.76658, -41.25796, 0.0], [174.76656, -41.25794, 0.0]]}}, {"type": "Feature", "properties": {"layer": "#52A5A5", "fid": "227"}, "geometry": {"type": "Polygon", "coordinates": [[[174.76663, -41.25817, 0.0], [174.76656, -41.25811, 0.0], [174.76649, -41.25814, 0.0], [174.76656, -41.25821, 0.0], [174.76649, -41.25824, 0.0], [174.76652, -41.25827, 0.0], [174.76666, -41.2582, 0.0], [174.76663, -41.25817, 0.0]]]}}, {"type": "Feature", "properties": {"layer": "#52A5A5", "fid": "222"}, "geometry": {"type": "Polygon", "coordinates": [[[174.76674, -41.25811, 0.0], [174.76674, -41.25811, 0.0], [174.76674, -41.25811, 0.0], [174.76671, -41.25809, 0.0], [174.76667, -41.25805, 0.0], [174.76658, -41.25809, 0.0], [174.76665, -41.25816, 0.0], [174.76668, -41.25819, 0.0], [174.76669, -41.25818, 0.0], [174.76676, -41.25814, 0.0], [174.76674, -41.25811, 0.0]]]}}, {"type": "Feature", "properties": {"layer": "#52A5A5", "fid": "stairs"}, "geometry": {"type": "Polygon", "coordinates": [[[174.76613, -41.25774, 0.0], [174.7661, -41.25776, 0.0], [174.76614, -41.2578, 0.0], [174.76617, -41.25778, 0.0], [174.76613, -41.25774, 0.0]]]}}, {"type": "Feature", "properties": {"layer": "#52A5A5", "fid": "open"}, "geometry": {"type": "Polygon", "coordinates": [[[174.76616, -41.25772, 0.0], [174.76613, -41.25774, 0.0], [174.76617, -41.25778, 0.0], [174.76614, -41.2578, 0.0], [174.76616, -41.25782, 0.0], [174.76616, -41.25782, 0.0], [174.76622, -41.25778, 0.0], [174.76616, -41.25772, 0.0]]]}}, {"type": "Feature", "properties": {"layer": "#52A5A5", "fid": "217"}, "geometry": {"type": "Polygon", "coordinates": [[[174.76683, -41.25774, 0.0], [174.76675, -41.25779, 0.0], [174.76667, -41.25772, 0.0], [174.76665, -41.2577, 0.0], [174.76669, -41.25767, 0.0], [174.7667, -41.25769, 0.0], [174.76674, -41.25766, 0.0], [174.76679, -41.25771, 0.0], [174.7668, -41.25771, 0.0], [174.76683, -41.25774, 0.0]]]}}, {"type": "Feature", "properties": {"layer": "#52A5A5", "fid": "216"}, "geometry": {"type": "Polygon", "coordinates": [[[174.76667, -41.25772, 0.0], [174.76674, -41.25778, 0.0], [174.76664, -41.25784, 0.0], [174.76657, -41.25778, 0.0], [174.76657, -41.25778, 0.0], [174.7666, -41.25776, 0.0], [174.76661, -41.25777, 0.0], [174.76665, -41.25775, 0.0], [174.76664, -41.25774, 0.0], [174.76667, -41.25772, 0.0]]]}}, {"type": "Feature", "properties": {"layer": "#52A5A5", "fid": "215"}, "geometry": {"type": "Polygon", "coordinates": [[[174.76657, -41.25778, 0.0], [174.76664, -41.25784, 0.0], [174.76653, -41.2579, 0.0], [174.76651, -41.25788, 0.0], [174.7665, -41.25789, 0.0], [174.76646, -41.25785, 0.0], [174.76646, -41.25785, 0.0], [174.7665, -41.25783, 0.0], [174.76651, -41.25783, 0.0], [174.76655, -41.25781, 0.0], [174.76654, -41.2578, 0.0], [174.76657, -41.25778, 0.0], [174.76657, -41.25778, 0.0]]]}}, {"type": "Feature", "properties": {"layer": "#52A5A5", "fid": "220"}, "geometry": {"type": "Polygon", "coordinates": [[[174.76654, -41.25792, 0.0], [174.76665, -41.25786, 0.0], [174.76671, -41.25791, 0.0], [174.76671, -41.25791, 0.0], [174.76668, -41.25793, 0.0], [174.76667, -41.25793, 0.0], [174.76664, -41.25795, 0.0], [174.76664, -41.25796, 0.0], [174.7666, -41.25798, 0.0], [174.7666, -41.25798, 0.0], [174.76658, -41.25796, 0.0], [174.76658, -41.25796, 0.0], [174.76656, -41.25794, 0.0], [174.76654, -41.25792, 0.0]]]}}, {"type": "Feature", "properties": {"layer": "#52A5A5", "fid": "219"}, "geometry": {"type": "Polygon", "coordinates": [[[174.76675, -41.2578, 0.0], [174.76681, -41.25785, 0.0], [174.76678, -41.25787, 0.0], [174.76678, -41.25787, 0.0], [174.76674, -41.25789, 0.0], [174.76674, -41.25789, 0.0], [174.76671, -41.25791, 0.0], [174.76671, -41.25791, 0.0], [174.76665, -41.25786, 0.0], [174.76675, -41.2578, 0.0]]]}}, {"type": "Feature", "properties": {"layer": "#52A5A5", "fid": "218"}, "geometry": {"type": "Polygon", "coordinates": [[[174.76685, -41.25777, 0.0], [174.76691, -41.25781, 0.0], [174.76687, -41.25784, 0.0], [174.76688, -41.25785, 0.0], [174.76684, -41.25788, 0.0], [174.76681, -41.25785, 0.0], [174.76675, -41.25779, 0.0], [174.76683, -41.25774, 0.0], [174.76684, -41.25775, 0.0], [174.76686, -41.25776, 0.0], [174.76685, -41.25777, 0.0]]]}}, {"type": "Feature", "properties": {"layer": "#52A5A5", "fid": "203"}, "geometry": {"type": "Polygon", "coordinates": [[[174.76608, -41.25765, 0.0], [174.76615, -41.2577, 0.0], [174.76608, -41.25775, 0.0], [174.76601, -41.2577, 0.0], [174.76604, -41.25767, 0.0], [174.76605, -41.25768, 0.0], [174.76608, -41.25765, 0.0], [174.76608, -41.25765, 0.0], [174.76608, -41.25765, 0.0]]]}}, {"type": "Feature", "properties": {"layer": "#52A5A5", "fid": "204"}, "geometry": {"type": "Polygon", "coordinates": [[[174.76616, -41.25759, 0.0], [174.76623, -41.25765, 0.0], [174.76615, -41.2577, 0.0], [174.76608, -41.25765, 0.0], [174.76609, -41.25764, 0.0], [174.7661, -41.25764, 0.0], [174.76613, -41.25762, 0.0], [174.76613, -41.25761, 0.0], [174.76616, -41.25759, 0.0]]]}}, {"type": "Feature", "properties": {"layer": "#52A5A5", "fid": "205"}, "geometry": {"type": "Polygon", "coordinates": [[[174.76625, -41.25752, 0.0], [174.76632, -41.25758, 0.0], [174.76623, -41.25765, 0.0], [174.76616, -41.25759, 0.0], [174.76619, -41.25757, 0.0], [174.76619, -41.25757, 0.0], [174.76623, -41.25755, 0.0], [174.76622, -41.25755, 0.0], [174.76625, -41.25752, 0.0]]]}}, {"type": "Feature", "properties": {"layer": "#52A5A5", "fid": "206"}, "geometry": {"type": "Polygon", "coordinates": [[[174.76634, -41.25746, 0.0], [174.76643, -41.25752, 0.0], [174.76643, -41.25752, 0.0], [174.76642, -41.25751, 0.0], [174.76632, -41.25758, 0.0], [174.76625, -41.25752, 0.0], [174.76628, -41.2575, 0.0], [174.76628, -41.25751, 0.0], [174.76632, -41.25748, 0.0], [174.76631, -41.25748, 0.0], [174.76634, -41.25746, 0.0]]]}}, {"type": "Feature", "properties": {"layer": "#52A5A5", "fid": "209"}, "geometry": {"type": "Polygon", "coordinates": [[[174.76643, -41.25753, 0.0], [174.76643, -41.25752, 0.0], [174.76643, -41.25752, 0.0], [174.7665, -41.25758, 0.0], [174.76647, -41.2576, 0.0], [174.76646, -41.25759, 0.0], [174.76643, -41.25762, 0.0], [174.76643, -41.25762, 0.0], [174.7664, -41.25764, 0.0], [174.76634, -41.25759, 0.0], [174.76643, -41.25753, 0.0]]]}}, {"type": "Feature", "properties": {"layer": "#52A5A5", "fid": "210"}, "geometry": {"type": "Polygon", "coordinates": [[[174.76626, -41.25767, 0.0], [174.76624, -41.25766, 0.0], [174.76634, -41.25759, 0.0], [174.7664, -41.25764, 0.0], [174.76637, -41.25766, 0.0], [174.76637, -41.25766, 0.0], [174.76633, -41.25769, 0.0], [174.76634, -41.25769, 0.0], [174.76631, -41.25771, 0.0], [174.76631, -41.25771, 0.0], [174.76626, -41.25767, 0.0]]]}}, {"type": "Feature", "properties": {"layer": "#52A5A5", "fid": "214"}, "geometry": {"type": "Polygon", "coordinates": [[[174.76629, -41.25784, 0.0], [174.76622, -41.25788, 0.0], [174.76622, -41.25789, 0.0], [174.76622, -41.25789, 0.0], [174.76621, -41.25788, 0.0], [174.76621, -41.25787, 0.0], [174.76618, -41.25785, 0.0], [174.76618, -41.25785, 0.0], [174.76615, -41.25783, 0.0], [174.76616, -41.25782, 0.0], [174.76622, -41.25778, 0.0], [174.76629, -41.25784, 0.0]]]}}, {"type": "Feature", "properties": {"layer": "#52A5A5", "fid": "213"}, "geometry": {"type": "Polygon", "coordinates": [[[174.76634, -41.25789, 0.0], [174.76627, -41.25794, 0.0], [174.76625, -41.25791, 0.0], [174.76626, -41.25791, 0.0], [174.76622, -41.25788, 0.0], [174.76622, -41.25789, 0.0], [174.76622, -41.25788, 0.0], [174.76629, -41.25784, 0.0], [174.76634, -41.25789, 0.0]]]}}, {"type": "Feature", "properties": {"layer": "#52A5A5", "fid": "Storage"}, "geometry": {"type": "Polygon", "coordinates": [[[174.76654, -41.25799, 0.0], [174.76655, -41.258, 0.0], [174.76651, -41.25802, 0.0], [174.76649, -41.258, 0.0], [174.76646, -41.25797, 0.0], [174.7665, -41.25795, 0.0], [174.7665, -41.25795, 0.0], [174.7665, -41.25795, 0.0], [174.76654, -41.25799, 0.0], [174.76654, -41.25799, 0.0]]]}}, {"type": "Feature", "properties": {"layer": "#52A5A5", "fid": "Open"}, "geometry": {"type": "Polygon", "coordinates": [[[174.76658, -41.25796, 0.0], [174.76654, -41.25799, 0.0], [174.7665, -41.25795, 0.0], [174.76654, -41.25792, 0.0], [174.76656, -41.25794, 0.0], [174.76658, -41.25796, 0.0]]]}}, {"type": "Feature", "properties": {"layer": "#52A5A5", "fid": "Open"}, "geometry": {"type": "Polygon", "coordinates": [[[174.7665, -41.25789, 0.0], [174.76646, -41.25791, 0.0], [174.76643, -41.25787, 0.0], [174.76646, -41.25785, 0.0], [174.7665, -41.25789, 0.0], [174.7665, -41.25789, 0.0]]]}}, {"type": "Feature", "properties": {"layer": "#52A5A5", "fid": "Lift"}, "geometry": {"type": "Polygon", "coordinates": [[[174.76641, -41.25788, 0.0], [174.76645, -41.25792, 0.0], [174.76642, -41.25793, 0.0], [174.76638, -41.2579, 0.0], [174.76638, -41.2579, 0.0], [174.76641, -41.25788, 0.0], [174.76641, -41.25788, 0.0]]]}}, {"type": "Feature", "properties": {"layer": "#52A5A5", "fid": "Open"}, "geometry": {"type": "Polygon", "coordinates": [[[174.76646, -41.25791, 0.0], [174.76648, -41.25792, 0.0], [174.76646, -41.25793, 0.0], [174.76641, -41.25788, 0.0], [174.76643, -41.25787, 0.0], [174.76643, -41.25787, 0.0], [174.76646, -41.25791, 0.0]]]}}, {"type": "Feature", "properties": {"layer": "#52A5A5", "fid": "212"}, "geometry": {"type": "Polygon", "coordinates": [[[174.76644, -41.25783, 0.0], [174.76646, -41.25785, 0.0], [174.76646, -41.25785, 0.0], [174.76643, -41.25787, 0.0], [174.76643, -41.25787, 0.0], [174.76641, -41.25788, 0.0], [174.76641, -41.25788, 0.0], [174.76641, -41.25788, 0.0], [174.76638, -41.2579, 0.0], [174.76634, -41.25786, 0.0], [174.76631, -41.25783, 0.0], [174.76639, -41.25778, 0.0], [174.76639, -41.25778, 0.0], [174.76641, -41.2578, 0.0], [174.7664, -41.25781, 0.0], [174.76643, -41.25784, 0.0], [174.76644, -41.25783, 0.0]]]}}, {"type": "Feature", "properties": {"layer": "#52A5A5", "fid": "211"}, "geometry": {"type": "Polygon", "coordinates": [[[174.76631, -41.25783, 0.0], [174.76634, -41.25786, 0.0], [174.76622, -41.25775, 0.0], [174.76623, -41.25774, 0.0], [174.76625, -41.25773, 0.0], [174.76624, -41.25772, 0.0], [174.76624, -41.25772, 0.0], [174.76625, -41.25771, 0.0], [174.76623, -41.25769, 0.0], [174.76626, -41.25767, 0.0], [174.76631, -41.25771, 0.0], [174.76631, -41.25771, 0.0], [174.76633, -41.25773, 0.0], [174.76632, -41.25773, 0.0], [174.76635, -41.25776, 0.0], [174.76636, -41.25776, 0.0], [174.76639, -41.25778, 0.0], [174.76639, -41.25778, 0.0], [174.76631, -41.25783, 0.0]]]}}, {"type": "Feature", "properties": {"layer": "#52A5A5", "fid": "Refuse"}, "geometry": {"type": "Polygon", "coordinates": [[[174.76624, -41.25772, 0.0], [174.76624, -41.25772, 0.0], [174.76625, -41.25771, 0.0], [174.76623, -41.25769, 0.0], [174.76622, -41.2577, 0.0], [174.76619, -41.25772, 0.0], [174.76622, -41.25775, 0.0], [174.76625, -41.25773, 0.0], [174.76624, -41.25772, 0.0]]]}}, {"type": "Feature", "properties": {"layer": "#52A5A5", "fid": "Storage"}, "geometry": {"type": "Polygon", "coordinates": [[[174.76619, -41.25772, 0.0], [174.76618, -41.2577, 0.0], [174.76624, -41.25766, 0.0], [174.76626, -41.25767, 0.0], [174.76619, -41.25772, 0.0]]]}}, {"type": "Feature", "properties": {"layer": "#52A5A5", "fid": "na"}, "geometry": {"type": "Polygon", "coordinates": [[[174.76644, -41.25799, 0.0], [174.76644, -41.25799, 0.0], [174.76644, -41.25799, 0.0], [174.76644, -41.25799, 0.0]]]}}, {"type": "Feature", "properties": {"layer": "#52A5A5", "fid": "208"}, "geometry": {"type": "Polygon", "coordinates": [[[174.76653, -41.25749, 0.0], [174.76659, -41.25753, 0.0], [174.76655, -41.25756, 0.0], [174.76656, -41.25757, 0.0], [174.76652, -41.2576, 0.0], [174.7665, -41.25758, 0.0], [174.7665, -41.25758, 0.0], [174.76643, -41.25752, 0.0], [174.76651, -41.25746, 0.0], [174.76653, -41.25748, 0.0], [174.76653, -41.25749, 0.0]]]}}, {"type": "Feature", "properties": {"layer": "#52A5A5", "fid": "207"}, "geometry": {"type": "Polygon", "coordinates": [[[174.76651, -41.25746, 0.0], [174.76643, -41.25752, 0.0], [174.76634, -41.25746, 0.0], [174.76632, -41.25743, 0.0], [174.76635, -41.25741, 0.0], [174.76637, -41.25742, 0.0], [174.7664, -41.25739, 0.0], [174.76646, -41.25743, 0.0], [174.76647, -41.25743, 0.0], [174.76651, -41.25746, 0.0]]]}}, {"type": "Feature", "properties": {"layer": "#52A5A5", "fid": "229"}, "geometry": {"type": "Polygon", "coordinates": [[[174.76647, -41.25801, 0.0], [174.7664, -41.25805, 0.0], [174.76642, -41.25808, 0.0], [174.76642, -41.25808, 0.0], [174.7664, -41.25806, 0.0], [174.76629, -41.25812, 0.0], [174.76628, -41.25812, 0.0], [174.76627, -41.25812, 0.0], [174.76624, -41.25809, 0.0], [174.76622, -41.25809, 0.0], [174.7662, -41.25808, 0.0], [174.7662, -41.25808, 0.0], [174.7662, -41.25808, 0.0], [174.76639, -41.25797, 0.0], [174.76642, -41.258, 0.0], [174.76644, -41.25799, 0.0], [174.76647, -41.25801, 0.0]]]}}, {"type": "Feature", "properties": {"layer": "#52A5A5", "fid": "221"}, "geometry": {"type": "Polygon", "coordinates": [[[174.76663, -41.25801, 0.0], [174.76667, -41.25805, 0.0], [174.76658, -41.25809, 0.0], [174.76651, -41.25802, 0.0], [174.76655, -41.258, 0.0], [174.76654, -41.25799, 0.0], [174.76658, -41.25796, 0.0], [174.7666, -41.25798, 0.0], [174.7666, -41.25798, 0.0], [174.7666, -41.25798, 0.0], [174.76663, -41.25801, 0.0]]]}}, {"type": "Feature", "properties": {"layer": "#52A5A5", "fid": "228"}, "geometry": {"type": "Polygon", "coordinates": [[[174.76648, -41.25804, 0.0], [174.76649, -41.25803, 0.0], [174.76656, -41.25811, 0.0], [174.76649, -41.25814, 0.0], [174.76642, -41.25808, 0.0], [174.76642, -41.25808, 0.0], [174.76648, -41.25804, 0.0], [174.76648, -41.25804, 0.0], [174.76648, -41.25804, 0.0]]]}}, {"type": "Feature", "properties": {"layer": "#52A5A5", "fid": ""}, "geometry": {"type": "Polygon", "coordinates": [[[174.76703, -41.25797, 0.0], [174.7671, -41.25805, 0.0], [174.76706, -41.25807, 0.0], [174.76709, -41.2581, 0.0], [174.76692, -41.25818, 0.0], [174.76693, -41.25819, 0.0], [174.76692, -41.25819, 0.0], [174.76682, -41.25808, 0.0], [174.76703, -41.25797, 0.0]]]}}, {"type": "Feature", "properties": {"layer": "#52A5A5", "fid": "223"}, "geometry": {"type": "Polygon", "coordinates": [[[174.76682, -41.25808, 0.0], [174.76692, -41.25819, 0.0], [174.76688, -41.25821, 0.0], [174.76684, -41.25823, 0.0], [174.76684, -41.25822, 0.0], [174.76684, -41.25822, 0.0], [174.76678, -41.25816, 0.0], [174.76678, -41.25816, 0.0], [174.76677, -41.25815, 0.0], [174.76674, -41.25811, 0.0], [174.76674, -41.25811, 0.0], [174.76674, -41.25811, 0.0], [174.76678, -41.25809, 0.0], [174.76682, -41.25808, 0.0]]]}}, {"type": "Feature", "properties": {"layer": "#52A5A5", "fid": "224"}, "geometry": {"type": "Polygon", "coordinates": [[[174.76684, -41.25822, 0.0], [174.76671, -41.25829, 0.0], [174.76671, -41.25829, 0.0], [174.76665, -41.25822, 0.0], [174.76665, -41.25822, 0.0], [174.76668, -41.25821, 0.0], [174.76668, -41.25821, 0.0], [174.76669, -41.2582, 0.0], [174.76678, -41.25816, 0.0], [174.76684, -41.25822, 0.0]]]}}, {"type": "Feature", "properties": {"layer": "#52A5A5", "fid": "225"}, "geometry": {"type": "Polygon", "coordinates": [[[174.76653, -41.25828, 0.0], [174.76665, -41.25822, 0.0], [174.76665, -41.25822, 0.0], [174.76671, -41.25829, 0.0], [174.76671, -41.25829, 0.0], [174.76668, -41.2583, 0.0], [174.76659, -41.25835, 0.0], [174.76659, -41.25835, 0.0], [174.76653, -41.25828, 0.0]]]}}, {"type": "Feature", "properties": {"layer": "#52A5A5", "fid": "226"}, "geometry": {"type": "Polygon", "coordinates": [[[174.76659, -41.25835, 0.0], [174.76654, -41.25837, 0.0], [174.76649, -41.2584, 0.0], [174.76647, -41.25837, 0.0], [174.76647, -41.25837, 0.0], [174.76642, -41.25832, 0.0], [174.76642, -41.25832, 0.0], [174.7664, -41.25829, 0.0], [174.76644, -41.25826, 0.0], [174.76649, -41.25824, 0.0], [174.76652, -41.25827, 0.0], [174.76652, -41.25827, 0.0], [174.76652, -41.25828, 0.0], [174.76659, -41.25835, 0.0]]]}}, {"type": "Feature", "properties": {"layer": "#52A5A5", "fid": "Stairs"}, "geometry": {"type": "Polygon", "coordinates": [[[174.76648, -41.25804, 0.0], [174.76648, -41.25804, 0.0], [174.76642, -41.25808, 0.0], [174.7664, -41.25805, 0.0], [174.76646, -41.25802, 0.0], [174.76648, -41.25804, 0.0]]]}}, {"type": "Feature", "properties": {"layer": "#52A5A5", "fid": "Open"}, "geometry": {"type": "Polygon", "coordinates": [[[174.76647, -41.25801, 0.0], [174.76649, -41.25803, 0.0], [174.76648, -41.25804, 0.0], [174.76648, -41.25804, 0.0], [174.76646, -41.25802, 0.0], [174.76646, -41.25802, 0.0], [174.76647, -41.25801, 0.0]]]}}, {"type": "Feature", "properties": {"layer": "#52A5A5", "fid": "230"}, "geometry": {"type": "Polygon", "coordinates": [[[174.76634, -41.25789, 0.0], [174.76636, -41.25791, 0.0], [174.76634, -41.25792, 0.0], [174.76639, -41.25797, 0.0], [174.7662, -41.25808, 0.0], [174.7662, -41.25808, 0.0], [174.7662, -41.25808, 0.0], [174.76619, -41.25806, 0.0], [174.7662, -41.25805, 0.0], [174.76617, -41.25802, 0.0], [174.76617, -41.25802, 0.0], [174.76616, -41.25801, 0.0], [174.76634, -41.25789, 0.0]]]}}, {"type": "Feature", "properties": {"layer": "#52A5A5", "fid": "201"}, "geometry": {"type": "Polygon", "coordinates": [[[174.76616, -41.25782, 0.0], [174.76615, -41.25783, 0.0], [174.76608, -41.25787, 0.0], [174.76605, -41.25785, 0.0], [174.76603, -41.25786, 0.0], [174.76598, -41.25783, 0.0], [174.76609, -41.25776, 0.0], [174.76609, -41.25776, 0.0], [174.76616, -41.25782, 0.0]]]}}, {"type": "Feature", "properties": {"layer": "#52A5A5", "fid": "202"}, "geometry": {"type": "Polygon", "coordinates": [[[174.76609, -41.25776, 0.0], [174.76609, -41.25776, 0.0], [174.76598, -41.25783, 0.0], [174.76594, -41.2578, 0.0], [174.76596, -41.25778, 0.0], [174.76593, -41.25776, 0.0], [174.76601, -41.2577, 0.0], [174.76601, -41.2577, 0.0], [174.76609, -41.25776, 0.0]]]}}, {"type": "Feature", "properties": {"layer": "#CCCCCC", "fid": "na"}, "geometry": {"type": "Polygon", "coordinates": [[[174.76613, -41.25774, 0.0], [174.7661, -41.25776, 0.0], [174.76614, -41.2578, 0.0], [174.76617, -41.25778, 0.0], [174.76613, -41.25774, 0.0]]]}}, {"type": "Feature", "properties": {"layer": "#CCCCCC", "fid": "hall"}, "geometry": {"type": "Polygon", "coordinates": [[[174.76616, -41.25772, 0.0], [174.76613, -41.25774, 0.0], [174.76617, -41.25778, 0.0], [174.76614, -41.2578, 0.0], [174.76616, -41.25782, 0.0], [174.76616, -41.25782, 0.0], [174.76622, -41.25778, 0.0], [174.76616, -41.25772, 0.0]]]}}, {"type": "Feature", "properties": {"layer": "#CCCCCC", "fid": "126"}, "geometry": {"type": "Polygon", "coordinates": [[[174.76683, -41.25774, 0.0], [174.76675, -41.25779, 0.0], [174.76667, -41.25772, 0.0], [174.76665, -41.2577, 0.0], [174.76669, -41.25767, 0.0], [174.7667, -41.25769, 0.0], [174.76674, -41.25766, 0.0], [174.76679, -41.25771, 0.0], [174.7668, -41.25771, 0.0], [174.76683, -41.25774, 0.0]]]}}, {"type": "Feature", "properties": {"layer": "#CCCCCC", "fid": "125"}, "geometry": {"type": "Polygon", "coordinates": [[[174.76667, -41.25772, 0.0], [174.76674, -41.25778, 0.0], [174.76664, -41.25784, 0.0], [174.76657, -41.25778, 0.0], [174.76657, -41.25778, 0.0], [174.7666, -41.25776, 0.0], [174.76661, -41.25777, 0.0], [174.76665, -41.25775, 0.0], [174.76664, -41.25774, 0.0], [174.76667, -41.25772, 0.0]]]}}, {"type": "Feature", "properties": {"layer": "#CCCCCC", "fid": "124"}, "geometry": {"type": "Polygon", "coordinates": [[[174.76657, -41.25778, 0.0], [174.76664, -41.25784, 0.0], [174.76653, -41.2579, 0.0], [174.76651, -41.25788, 0.0], [174.7665, -41.25789, 0.0], [174.76646, -41.25785, 0.0], [174.76646, -41.25785, 0.0], [174.7665, -41.25783, 0.0], [174.76651, -41.25783, 0.0], [174.76655, -41.25781, 0.0], [174.76654, -41.2578, 0.0], [174.76657, -41.25778, 0.0], [174.76657, -41.25778, 0.0]]]}}, {"type": "Feature", "properties": {"layer": "#CCCCCC", "fid": "129"}, "geometry": {"type": "Polygon", "coordinates": [[[174.76654, -41.25792, 0.0], [174.76665, -41.25786, 0.0], [174.76671, -41.25791, 0.0], [174.76671, -41.25791, 0.0], [174.76668, -41.25793, 0.0], [174.76667, -41.25793, 0.0], [174.76664, -41.25795, 0.0], [174.76664, -41.25796, 0.0], [174.7666, -41.25798, 0.0], [174.7666, -41.25798, 0.0], [174.76658, -41.25796, 0.0], [174.76658, -41.25796, 0.0], [174.76656, -41.25794, 0.0], [174.76654, -41.25792, 0.0]]]}}, {"type": "Feature", "properties": {"layer": "#CCCCCC", "fid": "128"}, "geometry": {"type": "Polygon", "coordinates": [[[174.76675, -41.2578, 0.0], [174.76681, -41.25785, 0.0], [174.76678, -41.25787, 0.0], [174.76678, -41.25787, 0.0], [174.76674, -41.25789, 0.0], [174.76674, -41.25789, 0.0], [174.76671, -41.25791, 0.0], [174.76671, -41.25791, 0.0], [174.76665, -41.25786, 0.0], [174.76675, -41.2578, 0.0]]]}}, {"type": "Feature", "properties": {"layer": "#CCCCCC", "fid": "127"}, "geometry": {"type": "Polygon", "coordinates": [[[174.76685, -41.25777, 0.0], [174.76691, -41.25781, 0.0], [174.76687, -41.25784, 0.0], [174.76688, -41.25785, 0.0], [174.76684, -41.25788, 0.0], [174.76681, -41.25785, 0.0], [174.76675, -41.25779, 0.0], [174.76683, -41.25774, 0.0], [174.76684, -41.25775, 0.0], [174.76686, -41.25776, 0.0], [174.76685, -41.25777, 0.0]]]}}, {"type": "Feature", "properties": {"layer": "#CCCCCC", "fid": "112"}, "geometry": {"type": "Polygon", "coordinates": [[[174.76608, -41.25765, 0.0], [174.76615, -41.2577, 0.0], [174.76608, -41.25775, 0.0], [174.76601, -41.2577, 0.0], [174.76604, -41.25767, 0.0], [174.76605, -41.25768, 0.0], [174.76608, -41.25765, 0.0], [174.76608, -41.25765, 0.0], [174.76608, -41.25765, 0.0]]]}}, {"type": "Feature", "properties": {"layer": "#CCCCCC", "fid": "113"}, "geometry": {"type": "Polygon", "coordinates": [[[174.76616, -41.25759, 0.0], [174.76623, -41.25765, 0.0], [174.76615, -41.2577, 0.0], [174.76608, -41.25765, 0.0], [174.76609, -41.25764, 0.0], [174.7661, -41.25764, 0.0], [174.76613, -41.25762, 0.0], [174.76613, -41.25761, 0.0], [174.76616, -41.25759, 0.0]]]}}, {"type": "Feature", "properties": {"layer": "#CCCCCC", "fid": "114"}, "geometry": {"type": "Polygon", "coordinates": [[[174.76625, -41.25752, 0.0], [174.76632, -41.25758, 0.0], [174.76623, -41.25765, 0.0], [174.76616, -41.25759, 0.0], [174.76619, -41.25757, 0.0], [174.76619, -41.25757, 0.0], [174.76623, -41.25755, 0.0], [174.76622, -41.25755, 0.0], [174.76625, -41.25752, 0.0]]]}}, {"type": "Feature", "properties": {"layer": "#CCCCCC", "fid": "115"}, "geometry": {"type": "Polygon", "coordinates": [[[174.76634, -41.25746, 0.0], [174.76643, -41.25752, 0.0], [174.76643, -41.25752, 0.0], [174.76642, -41.25751, 0.0], [174.76632, -41.25758, 0.0], [174.76625, -41.25752, 0.0], [174.76628, -41.2575, 0.0], [174.76628, -41.25751, 0.0], [174.76632, -41.25748, 0.0], [174.76631, -41.25748, 0.0], [174.76634, -41.25746, 0.0]]]}}, {"type": "Feature", "properties": {"layer": "#CCCCCC", "fid": "118"}, "geometry": {"type": "Polygon", "coordinates": [[[174.76643, -41.25753, 0.0], [174.76643, -41.25752, 0.0], [174.76643, -41.25752, 0.0], [174.7665, -41.25758, 0.0], [174.76647, -41.2576, 0.0], [174.76646, -41.25759, 0.0], [174.76643, -41.25762, 0.0], [174.76643, -41.25762, 0.0], [174.7664, -41.25764, 0.0], [174.76634, -41.25759, 0.0], [174.76643, -41.25753, 0.0]]]}}, {"type": "Feature", "properties": {"layer": "#CCCCCC", "fid": "119"}, "geometry": {"type": "Polygon", "coordinates": [[[174.76626, -41.25767, 0.0], [174.76624, -41.25766, 0.0], [174.76634, -41.25759, 0.0], [174.7664, -41.25764, 0.0], [174.76637, -41.25766, 0.0], [174.76637, -41.25766, 0.0], [174.76633, -41.25769, 0.0], [174.76634, -41.25769, 0.0], [174.76631, -41.25771, 0.0], [174.76631, -41.25771, 0.0], [174.76626, -41.25767, 0.0]]]}}, {"type": "Feature", "properties": {"layer": "#CCCCCC", "fid": "123"}, "geometry": {"type": "Polygon", "coordinates": [[[174.76629, -41.25784, 0.0], [174.76622, -41.25788, 0.0], [174.76622, -41.25789, 0.0], [174.76622, -41.25789, 0.0], [174.76621, -41.25788, 0.0], [174.76621, -41.25787, 0.0], [174.76618, -41.25785, 0.0], [174.76618, -41.25785, 0.0], [174.76615, -41.25783, 0.0], [174.76616, -41.25782, 0.0], [174.76622, -41.25778, 0.0], [174.76629, -41.25784, 0.0]]]}}, {"type": "Feature", "properties": {"layer": "#CCCCCC", "fid": "122"}, "geometry": {"type": "Polygon", "coordinates": [[[174.76634, -41.25789, 0.0], [174.76627, -41.25794, 0.0], [174.76625, -41.25791, 0.0], [174.76626, -41.25791, 0.0], [174.76622, -41.25788, 0.0], [174.76622, -41.25789, 0.0], [174.76622, -41.25788, 0.0], [174.76629, -41.25784, 0.0], [174.76634, -41.25789, 0.0]]]}}, {"type": "Feature", "properties": {"layer": "#CCCCCC", "fid": "open"}, "geometry": {"type": "Polygon", "coordinates": [[[174.7665, -41.25789, 0.0], [174.76646, -41.25791, 0.0], [174.76643, -41.25787, 0.0], [174.76646, -41.25785, 0.0], [174.7665, -41.25789, 0.0], [174.7665, -41.25789, 0.0]]]}}, {"type": "Feature", "properties": {"layer": "#CCCCCC", "fid": "Lift"}, "geometry": {"type": "Polygon", "coordinates": [[[174.76641, -41.25788, 0.0], [174.76645, -41.25792, 0.0], [174.76642, -41.25793, 0.0], [174.76638, -41.2579, 0.0], [174.76638, -41.2579, 0.0], [174.76641, -41.25788, 0.0], [174.76641, -41.25788, 0.0]]]}}, {"type": "Feature", "properties": {"layer": "#CCCCCC", "fid": "121"}, "geometry": {"type": "Polygon", "coordinates": [[[174.76644, -41.25783, 0.0], [174.76646, -41.25785, 0.0], [174.76646, -41.25785, 0.0], [174.76643, -41.25787, 0.0], [174.76643, -41.25787, 0.0], [174.76641, -41.25788, 0.0], [174.76641, -41.25788, 0.0], [174.76641, -41.25788, 0.0], [174.76638, -41.2579, 0.0], [174.76634, -41.25786, 0.0], [174.76631, -41.25783, 0.0], [174.76639, -41.25778, 0.0], [174.76639, -41.25778, 0.0], [174.76641, -41.2578, 0.0], [174.7664, -41.25781, 0.0], [174.76643, -41.25784, 0.0], [174.76644, -41.25783, 0.0]]]}}, {"type": "Feature", "properties": {"layer": "#CCCCCC", "fid": "120"}, "geometry": {"type": "Polygon", "coordinates": [[[174.76631, -41.25783, 0.0], [174.76622, -41.25775, 0.0], [174.76623, -41.25774, 0.0], [174.76625, -41.25773, 0.0], [174.76624, -41.25772, 0.0], [174.76624, -41.25772, 0.0], [174.76625, -41.25771, 0.0], [174.76623, -41.25769, 0.0], [174.76626, -41.25767, 0.0], [174.76631, -41.25771, 0.0], [174.76631, -41.25771, 0.0], [174.76633, -41.25773, 0.0], [174.76632, -41.25773, 0.0], [174.76635, -41.25776, 0.0], [174.76636, -41.25776, 0.0], [174.76639, -41.25778, 0.0], [174.76639, -41.25778, 0.0], [174.76631, -41.25783, 0.0]]]}}, {"type": "Feature", "properties": {"layer": "#CCCCCC", "fid": "Refuse"}, "geometry": {"type": "Polygon", "coordinates": [[[174.76624, -41.25772, 0.0], [174.76624, -41.25772, 0.0], [174.76625, -41.25771, 0.0], [174.76623, -41.25769, 0.0], [174.76622, -41.2577, 0.0], [174.76619, -41.25772, 0.0], [174.76622, -41.25775, 0.0], [174.76625, -41.25773, 0.0], [174.76624, -41.25772, 0.0]]]}}, {"type": "Feature", "properties": {"layer": "#CCCCCC", "fid": "open"}, "geometry": {"type": "Polygon", "coordinates": [[[174.76619, -41.25772, 0.0], [174.76618, -41.2577, 0.0], [174.76624, -41.25766, 0.0], [174.76626, -41.25767, 0.0], [174.76619, -41.25772, 0.0]]]}}, {"type": "Feature", "properties": {"layer": "#CCCCCC", "fid": "117"}, "geometry": {"type": "Polygon", "coordinates": [[[174.76653, -41.25749, 0.0], [174.76659, -41.25753, 0.0], [174.76655, -41.25756, 0.0], [174.76656, -41.25757, 0.0], [174.76652, -41.2576, 0.0], [174.7665, -41.25758, 0.0], [174.7665, -41.25758, 0.0], [174.76643, -41.25752, 0.0], [174.76651, -41.25746, 0.0], [174.76653, -41.25748, 0.0], [174.76653, -41.25749, 0.0]]]}}, {"type": "Feature", "properties": {"layer": "#CCCCCC", "fid": "116"}, "geometry": {"type": "Polygon", "coordinates": [[[174.76651, -41.25746, 0.0], [174.76643, -41.25752, 0.0], [174.76634, -41.25746, 0.0], [174.76632, -41.25743, 0.0], [174.76635, -41.25741, 0.0], [174.76637, -41.25742, 0.0], [174.7664, -41.25739, 0.0], [174.76646, -41.25743, 0.0], [174.76647, -41.25743, 0.0], [174.76651, -41.25746, 0.0]]]}}, {"type": "Feature", "properties": {"layer": "#CCCCCC", "fid": "110"}, "geometry": {"type": "Polygon", "coordinates": [[[174.76616, -41.25782, 0.0], [174.76615, -41.25783, 0.0], [174.76608, -41.25787, 0.0], [174.76605, -41.25785, 0.0], [174.76603, -41.25786, 0.0], [174.76598, -41.25783, 0.0], [174.76609, -41.25776, 0.0], [174.76609, -41.25776, 0.0], [174.76616, -41.25782, 0.0]]]}}, {"type": "Feature", "properties": {"layer": "#CCCCCC", "fid": "111"}, "geometry": {"type": "Polygon", "coordinates": [[[174.76609, -41.25776, 0.0], [174.76609, -41.25776, 0.0], [174.76598, -41.25783, 0.0], [174.76594, -41.2578, 0.0], [174.76596, -41.25778, 0.0], [174.76593, -41.25776, 0.0], [174.76601, -41.2577, 0.0], [174.76601, -41.2577, 0.0], [174.76609, -41.25776, 0.0]]]}}, {"type": "Feature", "properties": {"layer": "#CCCCCC", "fid": "Care"}, "geometry": {"type": "Polygon", "coordinates": [[[174.76706, -41.25807, 0.0], [174.7671, -41.25805, 0.0], [174.76703, -41.25797, 0.0], [174.76674, -41.25811, 0.0], [174.76671, -41.25809, 0.0], [174.76667, -41.25805, 0.0], [174.76663, -41.25801, 0.0], [174.7666, -41.25798, 0.0], [174.7666, -41.25798, 0.0], [174.7666, -41.25798, 0.0], [174.76658, -41.25796, 0.0], [174.76656, -41.25794, 0.0], [174.76654, -41.25792, 0.0], [174.7665, -41.25795, 0.0], [174.7665, -41.25795, 0.0], [174.76646, -41.25797, 0.0], [174.76644, -41.25798, 0.0], [174.76641, -41.25795, 0.0], [174.76639, -41.25796, 0.0], [174.76639, -41.25796, 0.0], [174.76633, -41.25799, 0.0], [174.76627, -41.25794, 0.0], [174.76616, -41.25801, 0.0], [174.76617, -41.25802, 0.0], [174.76617, -41.25802, 0.0], [174.7662, -41.25805, 0.0], [174.76619, -41.25806, 0.0], [174.7662, -41.25808, 0.0], [174.76622, -41.25809, 0.0], [174.76624, -41.25809, 0.0], [174.76627, -41.25812, 0.0], [174.76628, -41.25812, 0.0], [174.76629, -41.25812, 0.0], [174.76633, -41.2581, 0.0], [174.7664, -41.25806, 0.0], [174.76642, -41.25808, 0.0], [174.76642, -41.25808, 0.0], [174.76649, -41.25814, 0.0], [174.76656, -41.25821, 0.0], [174.7664, -41.25829, 0.0], [174.76642, -41.25832, 0.0], [174.76642, -41.25832, 0.0], [174.76646, -41.25837, 0.0], [174.76647, -41.25837, 0.0], [174.76649, -41.2584, 0.0], [174.76659, -41.25835, 0.0], [174.76668, -41.2583, 0.0], [174.76684, -41.25822, 0.0], [174.76684, -41.25823, 0.0], [174.76693, -41.25819, 0.0], [174.76692, -41.25818, 0.0], [174.76709, -41.2581, 0.0], [174.76706, -41.25807, 0.0]]]}}, {"type": "Feature", "properties": {"layer": "#CCCCCC", "fid": "open"}, "geometry": {"type": "Polygon", "coordinates": [[[174.76634, -41.25792, 0.0], [174.76636, -41.25791, 0.0], [174.76634, -41.25789, 0.0], [174.76633, -41.25791, 0.0], [174.76634, -41.25792, 0.0]]]}}, {"type": "Feature", "properties": {"layer": "#CCCCCC", "fid": "theatre"}, "geometry": {"type": "Polygon", "coordinates": [[[174.76639, -41.25796, 0.0], [174.76633, -41.25791, 0.0], [174.76627, -41.25794, 0.0], [174.76633, -41.258, 0.0], [174.76639, -41.25796, 0.0]]]}}, {"type": "Feature", "properties": {"layer": "#015BFF", "fid": "na"}, "geometry": {"type": "Polygon", "coordinates": [[[174.76644, -41.25776, 0.0], [174.7664, -41.25779, 0.0], [174.76632, -41.25771, 0.0], [174.76637, -41.25769, 0.0], [174.76644, -41.25776, 0.0]]]}}, {"type": "Feature", "properties": {"layer": "#015BFF", "fid": "na"}, "geometry": {"type": "Polygon", "coordinates": [[[174.76629, -41.25793, 0.0], [174.76626, -41.25795, 0.0], [174.76625, -41.25796, 0.0], [174.76627, -41.25798, 0.0], [174.76628, -41.25799, 0.0], [174.76632, -41.25797, 0.0], [174.76629, -41.25793, 0.0]]]}}, {"type": "Feature", "properties": {"layer": "#015BFF", "fid": "na"}, "geometry": {"type": "Polygon", "coordinates": [[[174.76644, -41.25799, 0.0], [174.76642, -41.258, 0.0], [174.76639, -41.25797, 0.0], [174.76631, -41.25802, 0.0], [174.76637, -41.25807, 0.0], [174.7664, -41.25806, 0.0], [174.76647, -41.25801, 0.0], [174.76644, -41.25799, 0.0]]]}}, {"type": "Feature", "properties": {"layer": "#015BFF", "fid": "na"}, "geometry": {"type": "Polygon", "coordinates": [[[174.76634, -41.25792, 0.0], [174.76636, -41.25791, 0.0], [174.76634, -41.25789, 0.0], [174.76626, -41.25795, 0.0], [174.76629, -41.25793, 0.0], [174.76632, -41.25797, 0.0], [174.76628, -41.25799, 0.0], [174.76631, -41.25802, 0.0], [174.76639, -41.25797, 0.0], [174.76634, -41.25792, 0.0]]]}}, {"type": "Feature", "properties": {"layer": "#015BFF", "fid": "na"}, "geometry": {"type": "Polygon", "coordinates": [[[174.76627, -41.25774, 0.0], [174.76624, -41.25771, 0.0], [174.7662, -41.25773, 0.0], [174.76621, -41.25773, 0.0], [174.76622, -41.25775, 0.0], [174.76624, -41.25776, 0.0], [174.76624, -41.25777, 0.0], [174.76626, -41.25776, 0.0], [174.76625, -41.25775, 0.0], [174.76627, -41.25774, 0.0]]]}}, {"type": "Feature", "properties": {"layer": "#015BFF", "fid": "na"}, "geometry": {"type": "Polygon", "coordinates": [[[174.76621, -41.25768, 0.0], [174.76618, -41.2577, 0.0], [174.76619, -41.25772, 0.0], [174.7662, -41.25773, 0.0], [174.76624, -41.25771, 0.0], [174.76621, -41.25768, 0.0]]]}}, {"type": "Feature", "properties": {"layer": "#015BFF", "fid": "Wellness Clinic"}, "geometry": {"type": "Polygon", "coordinates": [[[174.76626, -41.25776, 0.0], [174.76626, -41.25776, 0.0], [174.76626, -41.25776, 0.0], [174.76626, -41.25776, 0.0], [174.76626, -41.25776, 0.0], [174.76626, -41.25776, 0.0], [174.76626, -41.25776, 0.0], [174.76626, -41.25776, 0.0], [174.76626, -41.25776, 0.0], [174.76626, -41.25776, 0.0], [174.76626, -41.25776, 0.0], [174.76626, -41.25776, 0.0], [174.76626, -41.25776, 0.0], [174.76626, -41.25776, 0.0], [174.76626, -41.25776, 0.0], [174.76626, -41.25776, 0.0], [174.76626, -41.25776, 0.0], [174.76626, -41.25776, 0.0], [174.76626, -41.25776, 0.0], [174.76626, -41.25776, 0.0], [174.76626, -41.25776, 0.0], [174.76626, -41.25776, 0.0], [174.76626, -41.25776, 0.0], [174.76626, -41.25776, 0.0], [174.76626, -41.25776, 0.0], [174.76626, -41.25776, 0.0], [174.76626, -41.25776, 0.0], [174.76626, -41.25776, 0.0], [174.76626, -41.25776, 0.0], [174.76626, -41.25776, 0.0], [174.76626, -41.25776, 0.0], [174.76626, -41.25776, 0.0], [174.76626, -41.25776, 0.0], [174.76626, -41.25776, 0.0], [174.76626, -41.25776, 0.0], [174.76626, -41.25776, 0.0], [174.76626, -41.25776, 0.0], [174.76626, -41.25776, 0.0], [174.76626, -41.25776, 0.0], [174.76626, -41.25776, 0.0], [174.76626, -41.25776, 0.0], [174.76626, -41.25776, 0.0], [174.76626, -41.25776, 0.0], [174.76626, -41.25776, 0.0], [174.76626, -41.25776, 0.0], [174.76626, -41.25776, 0.0], [174.76626, -41.25776, 0.0], [174.76626, -41.25776, 0.0], [174.76626, -41.25776, 0.0], [174.76626, -41.25776, 0.0], [174.76626, -41.25776, 0.0], [174.76626, -41.25776, 0.0], [174.76626, -41.25776, 0.0], [174.76626, -41.25776, 0.0], [174.76626, -41.25776, 0.0], [174.76626, -41.25776, 0.0], [174.76626, -41.25776, 0.0], [174.76626, -41.25776, 0.0], [174.76626, -41.25776, 0.0], [174.76626, -41.25776, 0.0], [174.76626, -41.25776, 0.0], [174.76626, -41.25776, 0.0], [174.76626, -41.25776, 0.0], [174.76626, -41.25776, 0.0], [174.76626, -41.25776, 0.0], [174.76626, -41.25776, 0.0], [174.76626, -41.25776, 0.0], [174.76627, -41.25776, 0.0], [174.76627, -41.25777, 0.0], [174.76627, -41.25777, 0.0], [174.76627, -41.25777, 0.0], [174.76627, -41.25777, 0.0], [174.76627, -41.25777, 0.0], [174.76627, -41.25777, 0.0], [174.76628, -41.25777, 0.0], [174.76628, -41.25777, 0.0], [174.76628, -41.25778, 0.0], [174.76628, -41.25778, 0.0], [174.76628, -41.25778, 0.0], [174.76628, -41.25778, 0.0], [174.76628, -41.25778, 0.0], [174.76629, -41.25778, 0.0], [174.76629, -41.25778, 0.0], [174.76629, -41.25778, 0.0], [174.76629, -41.25779, 0.0], [174.76629, -41.25779, 0.0], [174.76629, -41.25779, 0.0], [174.76629, -41.25779, 0.0], [174.76629, -41.25779, 0.0], [174.76629, -41.25779, 0.0], [174.76629, -41.25779, 0.0], [174.76629, -41.25779, 0.0], [174.76629, -41.25779, 0.0], [174.76629, -41.25778, 0.0], [174.7663, -41.25778, 0.0], [174.7663, -41.25778, 0.0], [174.7663, -41.25778, 0.0], [174.7663, -41.25778, 0.0], [174.7663, -41.25778, 0.0], [174.76631, -41.25778, 0.0], [174.76631, -41.25778, 0.0], [174.76631, -41.25777, 0.0], [174.76632, -41.25777, 0.0], [174.76632, -41.25777, 0.0], [174.76632, -41.25777, 0.0], [174.76632, -41.25777, 0.0], [174.76633, -41.25777, 0.0], [174.76633, -41.25776, 0.0], [174.76633, -41.25776, 0.0], [174.76633, -41.25776, 0.0], [174.76634, -41.25776, 0.0], [174.76634, -41.25776, 0.0], [174.76634, -41.25776, 0.0], [174.76634, -41.25776, 0.0], [174.76634, -41.25776, 0.0], [174.76634, -41.25775, 0.0], [174.76635, -41.25775, 0.0], [174.76635, -41.25775, 0.0], [174.76635, -41.25775, 0.0], [174.76635, -41.25775, 0.0], [174.76635, -41.25775, 0.0], [174.76634, -41.25775, 0.0], [174.76634, -41.25775, 0.0], [174.76634, -41.25775, 0.0], [174.76634, -41.25775, 0.0], [174.76634, -41.25775, 0.0], [174.76634, -41.25775, 0.0], [174.76634, -41.25775, 0.0], [174.76634, -41.25775, 0.0], [174.76634, -41.25775, 0.0], [174.76634, -41.25775, 0.0], [174.76634, -41.25774, 0.0], [174.76633, -41.25774, 0.0], [174.76633, -41.25774, 0.0], [174.76633, -41.25774, 0.0], [174.76633, -41.25774, 0.0], [174.76633, -41.25774, 0.0], [174.76633, -41.25774, 0.0], [174.76633, -41.25774, 0.0], [174.76633, -41.25774, 0.0], [174.76632, -41.25773, 0.0], [174.76632, -41.25773, 0.0], [174.76632, -41.25773, 0.0], [174.76632, -41.25773, 0.0], [174.76632, -41.25773, 0.0], [174.76632, -41.25773, 0.0], [174.76632, -41.25773, 0.0], [174.76632, -41.25773, 0.0], [174.76632, -41.25773, 0.0], [174.76632, -41.25773, 0.0], [174.76632, -41.25773, 0.0], [174.76632, -41.25773, 0.0], [174.76632, -41.25773, 0.0], [174.76632, -41.25773, 0.0], [174.76632, -41.25773, 0.0], [174.76632, -41.25773, 0.0], [174.76632, -41.25773, 0.0], [174.76632, -41.25773, 0.0], [174.76632, -41.25773, 0.0], [174.76632, -41.25773, 0.0], [174.76632, -41.25773, 0.0], [174.76632, -41.25773, 0.0], [174.76632, -41.25773, 0.0], [174.76632, -41.25773, 0.0], [174.76633, -41.25773, 0.0], [174.76633, -41.25773, 0.0], [174.76633, -41.25773, 0.0], [174.76633, -41.25773, 0.0], [174.76633, -41.25773, 0.0], [174.76633, -41.25773, 0.0], [174.76633, -41.25773, 0.0], [174.76633, -41.25773, 0.0], [174.76633, -41.25773, 0.0], [174.76633, -41.25773, 0.0], [174.76633, -41.25773, 0.0], [174.76633, -41.25773, 0.0], [174.76633, -41.25773, 0.0], [174.76633, -41.25773, 0.0], [174.76633, -41.25773, 0.0], [174.76633, -41.25773, 0.0], [174.76633, -41.25773, 0.0], [174.76633, -41.25773, 0.0], [174.76633, -41.25773, 0.0], [174.76633, -41.25773, 0.0], [174.76633, -41.25773, 0.0], [174.76633, -41.25773, 0.0], [174.76633, -41.25773, 0.0], [174.76633, -41.25773, 0.0], [174.76633, -41.25773, 0.0], [174.76633, -41.25773, 0.0], [174.76632, -41.25773, 0.0], [174.76632, -41.25773, 0.0], [174.76632, -41.25772, 0.0], [174.76632, -41.25772, 0.0], [174.76632, -41.25772, 0.0], [174.76632, -41.25772, 0.0], [174.76632, -41.25772, 0.0], [174.76632, -41.25772, 0.0], [174.76632, -41.25772, 0.0], [174.76632, -41.25772, 0.0], [174.76632, -41.25772, 0.0], [174.76632, -41.25772, 0.0], [174.76632, -41.25772, 0.0], [174.76632, -41.25772, 0.0], [174.76632, -41.25772, 0.0], [174.76632, -41.25772, 0.0], [174.76632, -41.25772, 0.0], [174.76632, -41.25772, 0.0], [174.76632, -41.25772, 0.0], [174.76632, -41.25772, 0.0], [174.76632, -41.25772, 0.0], [174.76632, -41.25772, 0.0], [174.76632, -41.25772, 0.0], [174.76632, -41.25772, 0.0], [174.76632, -41.25772, 0.0], [174.76632, -41.25772, 0.0], [174.76632, -41.25772, 0.0], [174.76632, -41.25772, 0.0], [174.76632, -41.25772, 0.0], [174.76632, -41.25772, 0.0], [174.76632, -41.25772, 0.0], [174.76632, -41.25772, 0.0], [174.76631, -41.25772, 0.0], [174.76631, -41.25772, 0.0], [174.76631, -41.25771, 0.0], [174.76631, -41.25771, 0.0], [174.76631, -41.25771, 0.0], [174.76631, -41.25771, 0.0], [174.76631, -41.25771, 0.0], [174.76631, -41.25771, 0.0], [174.76631, -41.25771, 0.0], [174.76631, -41.25771, 0.0], [174.76631, -41.25771, 0.0], [174.76631, -41.25771, 0.0], [174.76631, -41.25771, 0.0], [174.76631, -41.25771, 0.0], [174.76631, -41.25771, 0.0], [174.76631, -41.25771, 0.0], [174.76631, -41.25771, 0.0], [174.76631, -41.25771, 0.0], [174.76631, -41.25771, 0.0], [174.76631, -41.25771, 0.0], [174.76631, -41.25771, 0.0], [174.76631, -41.25771, 0.0], [174.76631, -41.25771, 0.0], [174.76631, -41.25771, 0.0], [174.76631, -41.25771, 0.0], [174.76631, -41.25771, 0.0], [174.76631, -41.25771, 0.0], [174.76631, -41.25771, 0.0], [174.76631, -41.25771, 0.0], [174.76631, -41.25771, 0.0], [174.76631, -41.25771, 0.0], [174.76631, -41.25771, 0.0], [174.76631, -41.25771, 0.0], [174.76631, -41.25771, 0.0], [174.76631, -41.25771, 0.0], [174.76631, -41.25771, 0.0], [174.76631, -41.25771, 0.0], [174.76631, -41.25771, 0.0], [174.76631, -41.25771, 0.0], [174.76631, -41.25771, 0.0], [174.76631, -41.25771, 0.0], [174.76631, -41.25771, 0.0], [174.76631, -41.25771, 0.0], [174.76631, -41.25771, 0.0], [174.76631, -41.25771, 0.0], [174.76631, -41.25771, 0.0], [174.76631, -41.25771, 0.0], [174.76631, -41.25771, 0.0], [174.76631, -41.25771, 0.0], [174.76631, -41.25771, 0.0], [174.76631, -41.25771, 0.0], [174.76631, -41.25771, 0.0], [174.76631, -41.25771, 0.0], [174.76631, -41.25771, 0.0], [174.76631, -41.25771, 0.0], [174.76631, -41.25771, 0.0], [174.76631, -41.25771, 0.0], [174.76631, -41.25771, 0.0], [174.76631, -41.25771, 0.0], [174.76631, -41.25771, 0.0], [174.76631, -41.25771, 0.0], [174.76631, -41.25771, 0.0], [174.76631, -41.25771, 0.0], [174.76631, -41.25771, 0.0], [174.76631, -41.25771, 0.0], [174.76631, -41.25771, 0.0], [174.76631, -41.25771, 0.0], [174.76631, -41.25771, 0.0], [174.76631, -41.25771, 0.0], [174.76631, -41.25771, 0.0], [174.76631, -41.25771, 0.0], [174.76631, -41.25771, 0.0], [174.76631, -41.25771, 0.0], [174.76631, -41.25771, 0.0], [174.76631, -41.25771, 0.0], [174.76631, -41.25771, 0.0], [174.76631, -41.25771, 0.0], [174.76631, -41.25771, 0.0], [174.7663, -41.25771, 0.0], [174.7663, -41.25771, 0.0], [174.7663, -41.25771, 0.0], [174.7663, -41.25772, 0.0], [174.7663, -41.25772, 0.0], [174.7663, -41.25772, 0.0], [174.7663, -41.25772, 0.0], [174.76629, -41.25772, 0.0], [174.76629, -41.25772, 0.0], [174.76629, -41.25772, 0.0], [174.76629, -41.25772, 0.0], [174.76629, -41.25773, 0.0], [174.76628, -41.25773, 0.0], [174.76628, -41.25773, 0.0], [174.76628, -41.25773, 0.0], [174.76628, -41.25773, 0.0], [174.76628, -41.25773, 0.0], [174.76628, -41.25773, 0.0], [174.76628, -41.25773, 0.0], [174.76627, -41.25773, 0.0], [174.76627, -41.25773, 0.0], [174.76627, -41.25773, 0.0], [174.76627, -41.25774, 0.0], [174.76627, -41.25774, 0.0], [174.76627, -41.25774, 0.0], [174.76627, -41.25774, 0.0], [174.76627, -41.25774, 0.0], [174.76627, -41.25774, 0.0], [174.76627, -41.25774, 0.0], [174.76627, -41.25774, 0.0], [174.76627, -41.25774, 0.0], [174.76627, -41.25774, 0.0], [174.76627, -41.25774, 0.0], [174.76627, -41.25774, 0.0], [174.76627, -41.25774, 0.0], [174.76627, -41.25774, 0.0], [174.76627, -41.25774, 0.0], [174.76627, -41.25774, 0.0], [174.76627, -41.25774, 0.0], [174.76627, -41.25774, 0.0], [174.76627, -41.25774, 0.0], [174.76627, -41.25774, 0.0], [174.76627, -41.25774, 0.0], [174.76627, -41.25774, 0.0], [174.76627, -41.25774, 0.0], [174.76627, -41.25774, 0.0], [174.76627, -41.25774, 0.0], [174.76627, -41.25774, 0.0], [174.76627, -41.25774, 0.0], [174.76627, -41.25774, 0.0], [174.76627, -41.25774, 0.0], [174.76627, -41.25774, 0.0], [174.76627, -41.25774, 0.0], [174.76627, -41.25774, 0.0], [174.76627, -41.25774, 0.0], [174.76627, -41.25774, 0.0], [174.76627, -41.25774, 0.0], [174.76627, -41.25774, 0.0], [174.76627, -41.25774, 0.0], [174.76627, -41.25774, 0.0], [174.76627, -41.25774, 0.0], [174.76627, -41.25774, 0.0], [174.76627, -41.25774, 0.0], [174.76627, -41.25774, 0.0], [174.76627, -41.25774, 0.0], [174.76627, -41.25774, 0.0], [174.76627, -41.25774, 0.0], [174.76627, -41.25774, 0.0], [174.76627, -41.25774, 0.0], [174.76627, -41.25774, 0.0], [174.76627, -41.25774, 0.0], [174.76627, -41.25774, 0.0], [174.76627, -41.25774, 0.0], [174.76627, -41.25774, 0.0], [174.76627, -41.25774, 0.0], [174.76627, -41.25774, 0.0], [174.76627, -41.25774, 0.0], [174.76627, -41.25774, 0.0], [174.76627, -41.25774, 0.0], [174.76627, -41.25774, 0.0], [174.76627, -41.25774, 0.0], [174.76627, -41.25774, 0.0], [174.76627, -41.25774, 0.0], [174.76627, -41.25774, 0.0], [174.76627, -41.25774, 0.0], [174.76627, -41.25774, 0.0], [174.76627, -41.25774, 0.0], [174.76627, -41.25774, 0.0], [174.76627, -41.25774, 0.0], [174.76627, -41.25774, 0.0], [174.76627, -41.25774, 0.0], [174.76627, -41.25774, 0.0], [174.76627, -41.25774, 0.0], [174.76627, -41.25774, 0.0], [174.76626, -41.25774, 0.0], [174.76626, -41.25774, 0.0], [174.76626, -41.25774, 0.0], [174.76626, -41.25774, 0.0], [174.76626, -41.25774, 0.0], [174.76626, -41.25774, 0.0], [174.76626, -41.25774, 0.0], [174.76626, -41.25775, 0.0], [174.76626, -41.25775, 0.0], [174.76626, -41.25775, 0.0], [174.76625, -41.25775, 0.0], [174.76625, -41.25775, 0.0], [174.76625, -41.25775, 0.0], [174.76625, -41.25775, 0.0], [174.76625, -41.25775, 0.0], [174.76625, -41.25775, 0.0], [174.76625, -41.25775, 0.0], [174.76625, -41.25775, 0.0], [174.76625, -41.25775, 0.0], [174.76625, -41.25775, 0.0], [174.76625, -41.25775, 0.0], [174.76625, -41.25775, 0.0], [174.76625, -41.25775, 0.0], [174.76625, -41.25775, 0.0], [174.76625, -41.25775, 0.0], [174.76625, -41.25775, 0.0], [174.76625, -41.25775, 0.0], [174.76625, -41.25775, 0.0], [174.76625, -41.25775, 0.0], [174.76625, -41.25775, 0.0], [174.76625, -41.25775, 0.0], [174.76625, -41.25775, 0.0], [174.76626, -41.25775, 0.0], [174.76626, -41.25775, 0.0], [174.76626, -41.25775, 0.0], [174.76626, -41.25776, 0.0], [174.76626, -41.25776, 0.0], [174.76626, -41.25776, 0.0], [174.76626, -41.25776, 0.0], [174.76626, -41.25776, 0.0], [174.76626, -41.25776, 0.0], [174.76626, -41.25776, 0.0], [174.76626, -41.25776, 0.0], [174.76626, -41.25776, 0.0], [174.76626, -41.25776, 0.0], [174.76626, -41.25776, 0.0], [174.76626, -41.25776, 0.0], [174.76626, -41.25776, 0.0], [174.76626, -41.25776, 0.0], [174.76626, -41.25776, 0.0], [174.76626, -41.25776, 0.0], [174.76626, -41.25776, 0.0], [174.76626, -41.25776, 0.0], [174.76626, -41.25776, 0.0], [174.76626, -41.25776, 0.0], [174.76626, -41.25776, 0.0], [174.76626, -41.25776, 0.0], [174.76626, -41.25776, 0.0], [174.76626, -41.25776, 0.0], [174.76626, -41.25776, 0.0], [174.76626, -41.25776, 0.0], [174.76626, -41.25776, 0.0], [174.76626, -41.25776, 0.0], [174.76626, -41.25776, 0.0], [174.76626, -41.25776, 0.0], [174.76626, -41.25776, 0.0], [174.76626, -41.25776, 0.0], [174.76626, -41.25776, 0.0], [174.76626, -41.25776, 0.0], [174.76626, -41.25776, 0.0], [174.76626, -41.25776, 0.0], [174.76626, -41.25776, 0.0], [174.76626, -41.25776, 0.0], [174.76626, -41.25776, 0.0], [174.76626, -41.25776, 0.0], [174.76626, -41.25776, 0.0], [174.76626, -41.25776, 0.0], [174.76626, -41.25776, 0.0], [174.76626, -41.25776, 0.0], [174.76626, -41.25776, 0.0], [174.76626, -41.25776, 0.0], [174.76626, -41.25776, 0.0], [174.76626, -41.25776, 0.0], [174.76626, -41.25776, 0.0], [174.76626, -41.25776, 0.0], [174.76626, -41.25776, 0.0], [174.76626, -41.25776, 0.0], [174.76626, -41.25776, 0.0], [174.76626, -41.25776, 0.0], [174.76626, -41.25776, 0.0], [174.76626, -41.25776, 0.0], [174.76626, -41.25776, 0.0], [174.76626, -41.25776, 0.0], [174.76626, -41.25776, 0.0], [174.76626, -41.25776, 0.0], [174.76626, -41.25776, 0.0], [174.76626, -41.25776, 0.0], [174.76626, -41.25776, 0.0], [174.76626, -41.25776, 0.0], [174.76626, -41.25776, 0.0], [174.76626, -41.25776, 0.0], [174.76626, -41.25776, 0.0], [174.76626, -41.25776, 0.0], [174.76626, -41.25776, 0.0], [174.76626, -41.25776, 0.0], [174.76626, -41.25776, 0.0], [174.76626, -41.25776, 0.0]]]}}, {"type": "Feature", "properties": {"layer": "#015BFF", "fid": "Refuse"}, "geometry": {"type": "Polygon", "coordinates": [[[174.76627, -41.25768, 0.0], [174.76626, -41.25767, 0.0], [174.76624, -41.25766, 0.0], [174.76622, -41.25767, 0.0], [174.76621, -41.25768, 0.0], [174.76624, -41.25771, 0.0], [174.76627, -41.25768, 0.0]]]}}, {"type": "Feature", "properties": {"layer": "#015BFF", "fid": "Gym II"}, "geometry": {"type": "Polygon", "coordinates": [[[174.76627, -41.25774, 0.0], [174.76631, -41.25771, 0.0], [174.76631, -41.25771, 0.0], [174.76628, -41.25769, 0.0], [174.76627, -41.25768, 0.0], [174.76624, -41.25771, 0.0], [174.76627, -41.25774, 0.0]]]}}, {"type": "Feature", "properties": {"layer": "#015BFF", "fid": "Activities"}, "geometry": {"type": "Polygon", "coordinates": [[[174.76644, -41.25783, 0.0], [174.76643, -41.25784, 0.0], [174.7664, -41.25781, 0.0], [174.76641, -41.2578, 0.0], [174.76639, -41.25778, 0.0], [174.76638, -41.25778, 0.0], [174.76631, -41.25783, 0.0], [174.76634, -41.25786, 0.0], [174.76638, -41.2579, 0.0], [174.76641, -41.25788, 0.0], [174.76641, -41.25788, 0.0], [174.76641, -41.25788, 0.0], [174.76643, -41.25787, 0.0], [174.76643, -41.25787, 0.0], [174.76646, -41.25785, 0.0], [174.76646, -41.25785, 0.0], [174.76644, -41.25783, 0.0]]]}}, {"type": "Feature", "properties": {"layer": "#015BFF", "fid": "Showers"}, "geometry": {"type": "Polygon", "coordinates": [[[174.76636, -41.25776, 0.0], [174.76635, -41.25776, 0.0], [174.76635, -41.25775, 0.0], [174.76627, -41.2578, 0.0], [174.76631, -41.25783, 0.0], [174.76638, -41.25778, 0.0], [174.76636, -41.25776, 0.0]]]}}, {"type": "Feature", "properties": {"layer": "#015BFF", "fid": "Admin"}, "geometry": {"type": "Polygon", "coordinates": [[[174.76629, -41.25784, 0.0], [174.76625, -41.25781, 0.0], [174.76618, -41.25785, 0.0], [174.76621, -41.25787, 0.0], [174.76621, -41.25788, 0.0], [174.76622, -41.25789, 0.0], [174.76622, -41.25789, 0.0], [174.76622, -41.25788, 0.0], [174.76623, -41.25789, 0.0], [174.7663, -41.25785, 0.0], [174.76629, -41.25784, 0.0]]]}}, {"type": "Feature", "properties": {"layer": "#015BFF", "fid": "Office"}, "geometry": {"type": "Polygon", "coordinates": [[[174.76623, -41.25789, 0.0], [174.76626, -41.25791, 0.0], [174.76625, -41.25791, 0.0], [174.76628, -41.25794, 0.0], [174.76634, -41.25789, 0.0], [174.7663, -41.25785, 0.0], [174.76623, -41.25789, 0.0]]]}}, {"type": "Feature", "properties": {"layer": "#015BFF", "fid": "Whana Room"}, "geometry": {"type": "Polygon", "coordinates": [[[174.76622, -41.25778, 0.0], [174.76616, -41.25782, 0.0], [174.76615, -41.25783, 0.0], [174.76618, -41.25785, 0.0], [174.76618, -41.25785, 0.0], [174.76618, -41.25785, 0.0], [174.76625, -41.25781, 0.0], [174.76622, -41.25778, 0.0]]]}}, {"type": "Feature", "properties": {"layer": "#015BFF", "fid": "Lift"}, "geometry": {"type": "Polygon", "coordinates": [[[174.76649, -41.25803, 0.0], [174.76651, -41.25806, 0.0], [174.76644, -41.2581, 0.0], [174.76642, -41.25808, 0.0], [174.76642, -41.25808, 0.0], [174.76648, -41.25804, 0.0], [174.76648, -41.25804, 0.0], [174.76648, -41.25804, 0.0], [174.76649, -41.25803, 0.0]]]}}, {"type": "Feature", "properties": {"layer": "#015BFF", "fid": "Open"}, "geometry": {"type": "Polygon", "coordinates": [[[174.76613, -41.25774, 0.0], [174.7661, -41.25776, 0.0], [174.76614, -41.2578, 0.0], [174.76617, -41.25778, 0.0], [174.76613, -41.25774, 0.0]]]}}, {"type": "Feature", "properties": {"layer": "#015BFF", "fid": "Stairs"}, "geometry": {"type": "Polygon", "coordinates": [[[174.76616, -41.25772, 0.0], [174.76613, -41.25774, 0.0], [174.76617, -41.25778, 0.0], [174.76614, -41.2578, 0.0], [174.76616, -41.25782, 0.0], [174.76616, -41.25782, 0.0], [174.76622, -41.25778, 0.0], [174.76616, -41.25772, 0.0]]]}}, {"type": "Feature", "properties": {"layer": "#015BFF", "fid": "Lounge"}, "geometry": {"type": "Polygon", "coordinates": [[[174.76683, -41.25774, 0.0], [174.76675, -41.25779, 0.0], [174.76667, -41.25772, 0.0], [174.76665, -41.2577, 0.0], [174.76669, -41.25767, 0.0], [174.7667, -41.25769, 0.0], [174.76674, -41.25766, 0.0], [174.76679, -41.25771, 0.0], [174.7668, -41.25771, 0.0], [174.76683, -41.25774, 0.0]]]}}, {"type": "Feature", "properties": {"layer": "#015BFF", "fid": "Community"}, "geometry": {"type": "Polygon", "coordinates": [[[174.76667, -41.25772, 0.0], [174.76674, -41.25778, 0.0], [174.76664, -41.25784, 0.0], [174.76657, -41.25778, 0.0], [174.76657, -41.25778, 0.0], [174.7666, -41.25776, 0.0], [174.76661, -41.25777, 0.0], [174.76665, -41.25775, 0.0], [174.76664, -41.25774, 0.0], [174.76667, -41.25772, 0.0]]]}}, {"type": "Feature", "properties": {"layer": "#015BFF", "fid": "Dining"}, "geometry": {"type": "Polygon", "coordinates": [[[174.76657, -41.25778, 0.0], [174.76664, -41.25784, 0.0], [174.76653, -41.2579, 0.0], [174.76651, -41.25788, 0.0], [174.7665, -41.25789, 0.0], [174.76646, -41.25785, 0.0], [174.76646, -41.25785, 0.0], [174.7665, -41.25783, 0.0], [174.76651, -41.25783, 0.0], [174.76655, -41.25781, 0.0], [174.76654, -41.2578, 0.0], [174.76657, -41.25778, 0.0], [174.76657, -41.25778, 0.0]]]}}, {"type": "Feature", "properties": {"layer": "#015BFF", "fid": "Library"}, "geometry": {"type": "Polygon", "coordinates": [[[174.76675, -41.2578, 0.0], [174.76681, -41.25785, 0.0], [174.76678, -41.25787, 0.0], [174.76678, -41.25787, 0.0], [174.76674, -41.25789, 0.0], [174.76674, -41.25789, 0.0], [174.76671, -41.25791, 0.0], [174.76671, -41.25791, 0.0], [174.76665, -41.25786, 0.0], [174.76675, -41.2578, 0.0]]]}}, {"type": "Feature", "properties": {"layer": "#015BFF", "fid": "Cafe"}, "geometry": {"type": "Polygon", "coordinates": [[[174.76685, -41.25777, 0.0], [174.76691, -41.25781, 0.0], [174.76687, -41.25784, 0.0], [174.76688, -41.25785, 0.0], [174.76684, -41.25788, 0.0], [174.76681, -41.25785, 0.0], [174.76675, -41.25779, 0.0], [174.76683, -41.25774, 0.0], [174.76684, -41.25775, 0.0], [174.76686, -41.25776, 0.0], [174.76685, -41.25777, 0.0]]]}}, {"type": "Feature", "properties": {"layer": "#015BFF", "fid": "103"}, "geometry": {"type": "Polygon", "coordinates": [[[174.76608, -41.25765, 0.0], [174.76615, -41.2577, 0.0], [174.76608, -41.25775, 0.0], [174.76601, -41.2577, 0.0], [174.76604, -41.25767, 0.0], [174.76605, -41.25768, 0.0], [174.76608, -41.25765, 0.0], [174.76608, -41.25765, 0.0], [174.76608, -41.25765, 0.0]]]}}, {"type": "Feature", "properties": {"layer": "#015BFF", "fid": "104"}, "geometry": {"type": "Polygon", "coordinates": [[[174.76616, -41.25759, 0.0], [174.76623, -41.25765, 0.0], [174.76615, -41.2577, 0.0], [174.76608, -41.25765, 0.0], [174.76609, -41.25764, 0.0], [174.7661, -41.25764, 0.0], [174.76613, -41.25762, 0.0], [174.76613, -41.25761, 0.0], [174.76616, -41.25759, 0.0]]]}}, {"type": "Feature", "properties": {"layer": "#015BFF", "fid": "105"}, "geometry": {"type": "Polygon", "coordinates": [[[174.76625, -41.25752, 0.0], [174.76632, -41.25758, 0.0], [174.76623, -41.25765, 0.0], [174.76616, -41.25759, 0.0], [174.76619, -41.25757, 0.0], [174.76619, -41.25757, 0.0], [174.76623, -41.25755, 0.0], [174.76622, -41.25755, 0.0], [174.76625, -41.25752, 0.0]]]}}, {"type": "Feature", "properties": {"layer": "#015BFF", "fid": "107"}, "geometry": {"type": "Polygon", "coordinates": [[[174.76634, -41.25746, 0.0], [174.76643, -41.25752, 0.0], [174.76643, -41.25752, 0.0], [174.76642, -41.25751, 0.0], [174.76632, -41.25758, 0.0], [174.76625, -41.25752, 0.0], [174.76628, -41.2575, 0.0], [174.76628, -41.25751, 0.0], [174.76632, -41.25748, 0.0], [174.76631, -41.25748, 0.0], [174.76634, -41.25746, 0.0]]]}}, {"type": "Feature", "properties": {"layer": "#015BFF", "fid": "109"}, "geometry": {"type": "Polygon", "coordinates": [[[174.76643, -41.25753, 0.0], [174.76643, -41.25752, 0.0], [174.76643, -41.25752, 0.0], [174.7665, -41.25758, 0.0], [174.76647, -41.2576, 0.0], [174.76646, -41.25759, 0.0], [174.76643, -41.25762, 0.0], [174.76643, -41.25762, 0.0], [174.7664, -41.25764, 0.0], [174.76634, -41.25759, 0.0], [174.76643, -41.25753, 0.0]]]}}, {"type": "Feature", "properties": {"layer": "#015BFF", "fid": "Gym"}, "geometry": {"type": "Polygon", "coordinates": [[[174.76626, -41.25767, 0.0], [174.76624, -41.25766, 0.0], [174.76634, -41.25759, 0.0], [174.7664, -41.25764, 0.0], [174.76637, -41.25766, 0.0], [174.76637, -41.25766, 0.0], [174.76633, -41.25769, 0.0], [174.76634, -41.25769, 0.0], [174.76631, -41.25771, 0.0], [174.76631, -41.25771, 0.0], [174.76626, -41.25767, 0.0]]]}}, {"type": "Feature", "properties": {"layer": "#015BFF", "fid": "Kitchen 1"}, "geometry": {"type": "Polygon", "coordinates": [[[174.76654, -41.25799, 0.0], [174.76655, -41.258, 0.0], [174.76651, -41.25803, 0.0], [174.76649, -41.258, 0.0], [174.76646, -41.25797, 0.0], [174.7665, -41.25795, 0.0], [174.7665, -41.25795, 0.0], [174.7665, -41.25795, 0.0], [174.76654, -41.25799, 0.0], [174.76654, -41.25799, 0.0]]]}}, {"type": "Feature", "properties": {"layer": "#015BFF", "fid": "Kitchen 2"}, "geometry": {"type": "Polygon", "coordinates": [[[174.7666, -41.25798, 0.0], [174.76655, -41.258, 0.0], [174.7665, -41.25795, 0.0], [174.76654, -41.25792, 0.0], [174.76656, -41.25794, 0.0], [174.7666, -41.25798, 0.0]]]}}, {"type": "Feature", "properties": {"layer": "#015BFF", "fid": "WC"}, "geometry": {"type": "Polygon", "coordinates": [[[174.7665, -41.25789, 0.0], [174.76646, -41.25785, 0.0], [174.76643, -41.25787, 0.0], [174.76643, -41.25787, 0.0], [174.76641, -41.25788, 0.0], [174.76646, -41.25793, 0.0], [174.76648, -41.25792, 0.0], [174.76646, -41.25791, 0.0], [174.7665, -41.25789, 0.0], [174.7665, -41.25789, 0.0]]]}}, {"type": "Feature", "properties": {"layer": "#015BFF", "fid": "Lift"}, "geometry": {"type": "Polygon", "coordinates": [[[174.76641, -41.25788, 0.0], [174.76645, -41.25792, 0.0], [174.76642, -41.25793, 0.0], [174.76638, -41.2579, 0.0], [174.76638, -41.2579, 0.0], [174.76641, -41.25788, 0.0], [174.76641, -41.25788, 0.0]]]}}, {"type": "Feature", "properties": {"layer": "#015BFF", "fid": "108"}, "geometry": {"type": "Polygon", "coordinates": [[[174.76653, -41.25749, 0.0], [174.76659, -41.25753, 0.0], [174.76655, -41.25756, 0.0], [174.76656, -41.25757, 0.0], [174.76652, -41.2576, 0.0], [174.7665, -41.25758, 0.0], [174.7665, -41.25758, 0.0], [174.76643, -41.25752, 0.0], [174.76651, -41.25746, 0.0], [174.76653, -41.25748, 0.0], [174.76653, -41.25749, 0.0]]]}}, {"type": "Feature", "properties": {"layer": "#015BFF", "fid": "107"}, "geometry": {"type": "Polygon", "coordinates": [[[174.76651, -41.25746, 0.0], [174.76643, -41.25752, 0.0], [174.76634, -41.25746, 0.0], [174.76632, -41.25743, 0.0], [174.76635, -41.25741, 0.0], [174.76637, -41.25742, 0.0], [174.7664, -41.25739, 0.0], [174.76646, -41.25743, 0.0], [174.76647, -41.25743, 0.0], [174.76651, -41.25746, 0.0]]]}}, {"type": "Feature", "properties": {"layer": "#015BFF", "fid": "Stairs"}, "geometry": {"type": "Polygon", "coordinates": [[[174.76649, -41.25803, 0.0], [174.76647, -41.25801, 0.0], [174.76646, -41.25802, 0.0], [174.76646, -41.25802, 0.0], [174.7664, -41.25806, 0.0], [174.76642, -41.25808, 0.0], [174.76648, -41.25804, 0.0], [174.76648, -41.25804, 0.0], [174.76648, -41.25804, 0.0], [174.76649, -41.25803, 0.0]]]}}, {"type": "Feature", "properties": {"layer": "#015BFF", "fid": "101"}, "geometry": {"type": "Polygon", "coordinates": [[[174.76616, -41.25782, 0.0], [174.76615, -41.25783, 0.0], [174.76608, -41.25787, 0.0], [174.76605, -41.25785, 0.0], [174.76603, -41.25786, 0.0], [174.76598, -41.25783, 0.0], [174.76609, -41.25776, 0.0], [174.76609, -41.25776, 0.0], [174.76616, -41.25782, 0.0]]]}}, {"type": "Feature", "properties": {"layer": "#015BFF", "fid": "na"}, "geometry": {"type": "Polygon", "coordinates": [[[174.76609, -41.25776, 0.0], [174.76609, -41.25776, 0.0], [174.76598, -41.25783, 0.0], [174.76594, -41.2578, 0.0], [174.76596, -41.25778, 0.0], [174.76593, -41.25776, 0.0], [174.76601, -41.2577, 0.0], [174.76601, -41.2577, 0.0], [174.76609, -41.25776, 0.0]]]}}, {"type": "Feature", "properties": {"layer": "#015BFF", "fid": "Care Ground"}, "geometry": {"type": "LineString", "coordinates": [[174.76706, -41.25807, 0.0], [174.76706, -41.25807, 0.0], [174.76706, -41.25807, 0.0], [174.76706, -41.25806, 0.0], [174.76707, -41.25806, 0.0], [174.76707, -41.25806, 0.0], [174.76708, -41.25806, 0.0], [174.76708, -41.25806, 0.0], [174.76709, -41.25805, 0.0], [174.76709, -41.25805, 0.0], [174.76709, -41.25805, 0.0], [174.7671, -41.25805, 0.0], [174.7671, -41.25805, 0.0], [174.7671, -41.25805, 0.0], [174.76709, -41.25804, 0.0], [174.76709, -41.25804, 0.0], [174.76708, -41.25803, 0.0], [174.76707, -41.25802, 0.0], [174.76706, -41.25801, 0.0], [174.76705, -41.258, 0.0], [174.76705, -41.25799, 0.0], [174.76704, -41.25798, 0.0], [174.76703, -41.25798, 0.0], [174.76703, -41.25797, 0.0], [174.76703, -41.25797, 0.0], [174.76702, -41.25797, 0.0], [174.76701, -41.25798, 0.0], [174.767, -41.25798, 0.0], [174.76697, -41.258, 0.0], [174.76695, -41.25801, 0.0], [174.76692, -41.25802, 0.0], [174.76689, -41.25804, 0.0], [174.76686, -41.25805, 0.0], [174.76683, -41.25807, 0.0], [174.76681, -41.25808, 0.0], [174.76679, -41.25809, 0.0], [174.76679, -41.25809, 0.0], [174.76678, -41.25809, 0.0], [174.76678, -41.25809, 0.0], [174.76678, -41.25809, 0.0], [174.76678, -41.2581, 0.0], [174.76677, -41.2581, 0.0], [174.76677, -41.2581, 0.0], [174.76676, -41.2581, 0.0], [174.76676, -41.25811, 0.0], [174.76675, -41.25811, 0.0], [174.76675, -41.25811, 0.0], [174.76674, -41.25811, 0.0], [174.76674, -41.25811, 0.0], [174.76674, -41.25811, 0.0], [174.76674, -41.25811, 0.0], [174.76674, -41.25811, 0.0], [174.76674, -41.25811, 0.0], [174.76674, -41.25811, 0.0], [174.76674, -41.25811, 0.0], [174.76674, -41.25811, 0.0], [174.76674, -41.25811, 0.0], [174.76674, -41.25811, 0.0], [174.76674, -41.25811, 0.0], [174.76674, -41.25811, 0.0], [174.76674, -41.25811, 0.0], [174.76674, -41.25811, 0.0], [174.76674, -41.25811, 0.0], [174.76674, -41.25811, 0.0], [174.76674, -41.25811, 0.0], [174.76673, -41.25811, 0.0], [174.76673, -41.2581, 0.0], [174.76673, -41.2581, 0.0], [174.76672, -41.2581, 0.0], [174.76672, -41.25809, 0.0], [174.76672, -41.25809, 0.0], [174.76671, -41.25809, 0.0], [174.76671, -41.25809, 0.0], [174.76671, -41.25809, 0.0], [174.76671, -41.25809, 0.0], [174.76671, -41.25808, 0.0], [174.76671, -41.25808, 0.0], [174.7667, -41.25808, 0.0], [174.7667, -41.25807, 0.0], [174.76669, -41.25807, 0.0], [174.76669, -41.25806, 0.0], [174.76668, -41.25806, 0.0], [174.76668, -41.25805, 0.0], [174.76668, -41.25805, 0.0], [174.76667, -41.25805, 0.0], [174.76667, -41.25805, 0.0], [174.76667, -41.25805, 0.0], [174.76667, -41.25805, 0.0], [174.76667, -41.25804, 0.0], [174.76666, -41.25804, 0.0], [174.76666, -41.25804, 0.0], [174.76665, -41.25803, 0.0], [174.76665, -41.25803, 0.0], [174.76664, -41.25802, 0.0], [174.76664, -41.25802, 0.0], [174.76664, -41.25802, 0.0], [174.76663, -41.25801, 0.0], [174.76663, -41.25801, 0.0], [174.76663, -41.25801, 0.0], [174.76663, -41.25801, 0.0], [174.76663, -41.25801, 0.0], [174.76663, -41.25801, 0.0], [174.76662, -41.258, 0.0], [174.76662, -41.258, 0.0], [174.76661, -41.258, 0.0], [174.76661, -41.25799, 0.0], [174.76661, -41.25799, 0.0], [174.7666, -41.25798, 0.0], [174.7666, -41.25798, 0.0], [174.7666, -41.25798, 0.0], [174.7666, -41.25798, 0.0], [174.7666, -41.25798, 0.0], [174.7666, -41.25798, 0.0], [174.7666, -41.25798, 0.0], [174.7666, -41.25798, 0.0], [174.7666, -41.25798, 0.0], [174.7666, -41.25798, 0.0], [174.7666, -41.25798, 0.0], [174.7666, -41.25798, 0.0], [174.7666, -41.25798, 0.0], [174.7666, -41.25798, 0.0], [174.7666, -41.25798, 0.0], [174.7666, -41.25798, 0.0], [174.7666, -41.25798, 0.0], [174.7666, -41.25798, 0.0], [174.7666, -41.25798, 0.0], [174.76659, -41.25799, 0.0], [174.76658, -41.25799, 0.0], [174.76658, -41.25799, 0.0], [174.76657, -41.25799, 0.0], [174.76657, -41.258, 0.0], [174.76656, -41.258, 0.0], [174.76656, -41.258, 0.0], [174.76656, -41.258, 0.0], [174.76655, -41.258, 0.0], [174.76655, -41.258, 0.0], [174.76655, -41.25801, 0.0], [174.76655, -41.25801, 0.0], [174.76654, -41.25801, 0.0], [174.76654, -41.25801, 0.0], [174.76654, -41.25801, 0.0], [174.76653, -41.25802, 0.0], [174.76653, -41.25802, 0.0], [174.76652, -41.25802, 0.0], [174.76652, -41.25802, 0.0], [174.76652, -41.25803, 0.0], [174.76651, -41.25803, 0.0], [174.76651, -41.25803, 0.0], [174.76651, -41.25803, 0.0], [174.76652, -41.25803, 0.0], [174.76652, -41.25803, 0.0], [174.76652, -41.25803, 0.0], [174.76652, -41.25804, 0.0], [174.76653, -41.25804, 0.0], [174.76653, -41.25804, 0.0], [174.76653, -41.25804, 0.0], [174.76653, -41.25804, 0.0], [174.76653, -41.25805, 0.0], [174.76653, -41.25805, 0.0], [174.76653, -41.25805, 0.0], [174.76653, -41.25805, 0.0], [174.76653, -41.25805, 0.0], [174.76653, -41.25805, 0.0], [174.76653, -41.25805, 0.0], [174.76653, -41.25805, 0.0], [174.76653, -41.25805, 0.0], [174.76653, -41.25805, 0.0], [174.76653, -41.25805, 0.0], [174.76653, -41.25805, 0.0], [174.76653, -41.25805, 0.0], [174.76653, -41.25805, 0.0], [174.76653, -41.25805, 0.0], [174.76653, -41.25805, 0.0], [174.76653, -41.25805, 0.0], [174.76653, -41.25805, 0.0], [174.76653, -41.25805, 0.0], [174.76653, -41.25805, 0.0], [174.76653, -41.25805, 0.0], [174.76653, -41.25805, 0.0], [174.76653, -41.25805, 0.0], [174.76653, -41.25805, 0.0], [174.76653, -41.25805, 0.0], [174.76653, -41.25805, 0.0], [174.76653, -41.25805, 0.0], [174.76653, -41.25805, 0.0], [174.76653, -41.25805, 0.0], [174.76653, -41.25805, 0.0], [174.76653, -41.25805, 0.0], [174.76653, -41.25805, 0.0], [174.76652, -41.25805, 0.0], [174.76652, -41.25805, 0.0], [174.76652, -41.25805, 0.0], [174.76652, -41.25806, 0.0], [174.76652, -41.25806, 0.0], [174.76652, -41.25806, 0.0], [174.76651, -41.25806, 0.0], [174.76651, -41.25806, 0.0], [174.76651, -41.25806, 0.0], [174.7665, -41.25806, 0.0], [174.7665, -41.25807, 0.0], [174.76649, -41.25807, 0.0], [174.76648, -41.25808, 0.0], [174.76647, -41.25808, 0.0], [174.76646, -41.25809, 0.0], [174.76646, -41.25809, 0.0], [174.76645, -41.25809, 0.0], [174.76645, -41.2581, 0.0], [174.76644, -41.2581, 0.0], [174.76644, -41.2581, 0.0], [174.76645, -41.2581, 0.0], [174.76645, -41.2581, 0.0], [174.76645, -41.25811, 0.0], [174.76646, -41.25811, 0.0], [174.76647, -41.25812, 0.0], [174.76647, -41.25812, 0.0], [174.76648, -41.25813, 0.0], [174.76648, -41.25813, 0.0], [174.76649, -41.25814, 0.0], [174.76649, -41.25814, 0.0], [174.76649, -41.25814, 0.0], [174.76649, -41.25814, 0.0], [174.7665, -41.25815, 0.0], [174.7665, -41.25815, 0.0], [174.76651, -41.25816, 0.0], [174.76651, -41.25816, 0.0], [174.76652, -41.25817, 0.0], [174.76653, -41.25818, 0.0], [174.76654, -41.25819, 0.0], [174.76654, -41.25819, 0.0], [174.76655, -41.2582, 0.0], [174.76656, -41.2582, 0.0], [174.76656, -41.2582, 0.0], [174.76656, -41.25821, 0.0], [174.76656, -41.25821, 0.0], [174.76655, -41.25821, 0.0], [174.76655, -41.25821, 0.0], [174.76654, -41.25822, 0.0], [174.76653, -41.25822, 0.0], [174.76652, -41.25822, 0.0], [174.76652, -41.25823, 0.0], [174.76651, -41.25823, 0.0], [174.7665, -41.25824, 0.0], [174.7665, -41.25824, 0.0], [174.76649, -41.25824, 0.0], [174.76649, -41.25824, 0.0], [174.76649, -41.25824, 0.0], [174.76649, -41.25824, 0.0], [174.76648, -41.25824, 0.0], [174.76648, -41.25825, 0.0], [174.76647, -41.25825, 0.0], [174.76647, -41.25825, 0.0], [174.76646, -41.25826, 0.0], [174.76645, -41.25826, 0.0], [174.76645, -41.25826, 0.0], [174.76645, -41.25826, 0.0], [174.76644, -41.25826, 0.0], [174.76644, -41.25826, 0.0], [174.76644, -41.25827, 0.0], [174.76644, -41.25827, 0.0], [174.76644, -41.25827, 0.0], [174.76643, -41.25827, 0.0], [174.76643, -41.25827, 0.0], [174.76642, -41.25828, 0.0], [174.76641, -41.25828, 0.0], [174.76641, -41.25828, 0.0], [174.7664, -41.25828, 0.0], [174.7664, -41.25829, 0.0], [174.7664, -41.25829, 0.0], [174.7664, -41.25829, 0.0], [174.7664, -41.25829, 0.0], [174.7664, -41.25829, 0.0], [174.7664, -41.25829, 0.0], [174.7664, -41.25829, 0.0], [174.7664, -41.2583, 0.0], [174.76641, -41.2583, 0.0], [174.76641, -41.2583, 0.0], [174.76641, -41.25831, 0.0], [174.76642, -41.25831, 0.0], [174.76642, -41.25831, 0.0], [174.76642, -41.25831, 0.0], [174.76642, -41.25832, 0.0], [174.76642, -41.25832, 0.0], [174.76642, -41.25832, 0.0], [174.76642, -41.25832, 0.0], [174.76642, -41.25832, 0.0], [174.76642, -41.25832, 0.0], [174.76642, -41.25832, 0.0], [174.76642, -41.25832, 0.0], [174.76642, -41.25832, 0.0], [174.76642, -41.25832, 0.0], [174.76642, -41.25832, 0.0], [174.76642, -41.25832, 0.0], [174.76642, -41.25832, 0.0], [174.76642, -41.25832, 0.0], [174.76642, -41.25832, 0.0], [174.76642, -41.25832, 0.0], [174.76643, -41.25833, 0.0], [174.76643, -41.25833, 0.0], [174.76644, -41.25834, 0.0], [174.76644, -41.25834, 0.0], [174.76645, -41.25835, 0.0], [174.76645, -41.25836, 0.0], [174.76646, -41.25836, 0.0], [174.76646, -41.25836, 0.0], [174.76646, -41.25837, 0.0], [174.76647, -41.25837, 0.0], [174.76647, -41.25837, 0.0], [174.76647, -41.25837, 0.0], [174.76647, -41.25837, 0.0], [174.76647, -41.25837, 0.0], [174.76647, -41.25837, 0.0], [174.76647, -41.25837, 0.0], [174.76647, -41.25837, 0.0], [174.76647, -41.25837, 0.0], [174.76647, -41.25837, 0.0], [174.76647, -41.25837, 0.0], [174.76647, -41.25837, 0.0], [174.76647, -41.25837, 0.0], [174.76647, -41.25837, 0.0], [174.76647, -41.25837, 0.0], [174.76647, -41.25837, 0.0], [174.76647, -41.25837, 0.0], [174.76648, -41.25838, 0.0], [174.76648, -41.25838, 0.0], [174.76648, -41.25839, 0.0], [174.76649, -41.25839, 0.0], [174.76649, -41.25839, 0.0], [174.76649, -41.25839, 0.0], [174.76649, -41.2584, 0.0], [174.76649, -41.2584, 0.0], [174.76649, -41.2584, 0.0], [174.7665, -41.2584, 0.0], [174.7665, -41.25839, 0.0], [174.7665, -41.25839, 0.0], [174.76651, -41.25839, 0.0], [174.76651, -41.25839, 0.0], [174.76652, -41.25838, 0.0], [174.76653, -41.25838, 0.0], [174.76653, -41.25838, 0.0], [174.76653, -41.25838, 0.0], [174.76654, -41.25838, 0.0], [174.76654, -41.25837, 0.0], [174.76654, -41.25837, 0.0], [174.76654, -41.25837, 0.0], [174.76654, -41.25837, 0.0], [174.76655, -41.25837, 0.0], [174.76655, -41.25837, 0.0], [174.76656, -41.25836, 0.0], [174.76657, -41.25836, 0.0], [174.76657, -41.25836, 0.0], [174.76658, -41.25835, 0.0], [174.76658, -41.25835, 0.0], [174.76659, -41.25835, 0.0], [174.76659, -41.25835, 0.0], [174.76659, -41.25835, 0.0], [174.76659, -41.25835, 0.0], [174.76659, -41.25835, 0.0], [174.76659, -41.25835, 0.0], [174.76659, -41.25835, 0.0], [174.76659, -41.25835, 0.0], [174.76659, -41.25835, 0.0], [174.76659, -41.25835, 0.0], [174.76659, -41.25835, 0.0], [174.76659, -41.25835, 0.0], [174.76659, -41.25835, 0.0], [174.76659, -41.25835, 0.0], [174.76659, -41.25835, 0.0], [174.7666, -41.25835, 0.0], [174.7666, -41.25834, 0.0], [174.76661, -41.25834, 0.0], [174.76662, -41.25834, 0.0], [174.76663, -41.25833, 0.0], [174.76664, -41.25833, 0.0], [174.76665, -41.25832, 0.0], [174.76666, -41.25832, 0.0], [174.76666, -41.25831, 0.0], [174.76667, -41.25831, 0.0], [174.76667, -41.25831, 0.0], [174.76668, -41.2583, 0.0], [174.76668, -41.2583, 0.0], [174.76668, -41.2583, 0.0], [174.76668, -41.2583, 0.0], [174.76668, -41.2583, 0.0], [174.76669, -41.2583, 0.0], [174.76669, -41.2583, 0.0], [174.7667, -41.25829, 0.0], [174.7667, -41.25829, 0.0], [174.7667, -41.25829, 0.0], [174.76671, -41.25829, 0.0], [174.76671, -41.25829, 0.0], [174.76671, -41.25829, 0.0], [174.76671, -41.25829, 0.0], [174.76672, -41.25828, 0.0], [174.76673, -41.25828, 0.0], [174.76674, -41.25827, 0.0], [174.76675, -41.25827, 0.0], [174.76677, -41.25826, 0.0], [174.76678, -41.25825, 0.0], [174.7668, -41.25824, 0.0], [174.76681, -41.25824, 0.0], [174.76682, -41.25823, 0.0], [174.76683, -41.25823, 0.0], [174.76684, -41.25822, 0.0], [174.76684, -41.25822, 0.0], [174.76684, -41.25822, 0.0], [174.76684, -41.25822, 0.0], [174.76684, -41.25822, 0.0], [174.76684, -41.25822, 0.0], [174.76684, -41.25822, 0.0], [174.76684, -41.25822, 0.0], [174.76684, -41.25822, 0.0], [174.76684, -41.25822, 0.0], [174.76684, -41.25822, 0.0], [174.76684, -41.25822, 0.0], [174.76684, -41.25822, 0.0], [174.76684, -41.25822, 0.0], [174.76684, -41.25822, 0.0], [174.76684, -41.25822, 0.0], [174.76684, -41.25822, 0.0], [174.76684, -41.25822, 0.0], [174.76684, -41.25822, 0.0], [174.76684, -41.25823, 0.0], [174.76684, -41.25823, 0.0], [174.76684, -41.25823, 0.0], [174.76684, -41.25823, 0.0], [174.76684, -41.25823, 0.0], [174.76684, -41.25823, 0.0], [174.76684, -41.25823, 0.0], [174.76684, -41.25823, 0.0], [174.76685, -41.25823, 0.0], [174.76685, -41.25822, 0.0], [174.76685, -41.25822, 0.0], [174.76686, -41.25822, 0.0], [174.76686, -41.25822, 0.0], [174.76686, -41.25822, 0.0], [174.76687, -41.25821, 0.0], [174.76687, -41.25821, 0.0], [174.76687, -41.25821, 0.0], [174.76688, -41.25821, 0.0], [174.76688, -41.25821, 0.0], [174.76688, -41.25821, 0.0], [174.76688, -41.25821, 0.0], [174.76688, -41.25821, 0.0], [174.76689, -41.25821, 0.0], [174.76689, -41.2582, 0.0], [174.7669, -41.2582, 0.0], [174.7669, -41.2582, 0.0], [174.76691, -41.2582, 0.0], [174.76691, -41.25819, 0.0], [174.76691, -41.25819, 0.0], [174.76692, -41.25819, 0.0], [174.76692, -41.25819, 0.0], [174.76692, -41.25819, 0.0], [174.76692, -41.25819, 0.0], [174.76692, -41.25819, 0.0], [174.76692, -41.25819, 0.0], [174.76692, -41.25819, 0.0], [174.76692, -41.25819, 0.0], [174.76692, -41.25819, 0.0], [174.76692, -41.25819, 0.0], [174.76692, -41.25819, 0.0], [174.76692, -41.25819, 0.0], [174.76693, -41.25819, 0.0], [174.76693, -41.25819, 0.0], [174.76693, -41.25819, 0.0], [174.76693, -41.25819, 0.0], [174.76693, -41.25819, 0.0], [174.76692, -41.25818, 0.0], [174.76692, -41.25818, 0.0], [174.76692, -41.25818, 0.0], [174.76692, -41.25818, 0.0], [174.76692, -41.25818, 0.0], [174.76692, -41.25818, 0.0], [174.76692, -41.25818, 0.0], [174.76692, -41.25818, 0.0], [174.76692, -41.25818, 0.0], [174.76692, -41.25818, 0.0], [174.76693, -41.25818, 0.0], [174.76694, -41.25817, 0.0], [174.76695, -41.25817, 0.0], [174.76697, -41.25816, 0.0], [174.76699, -41.25815, 0.0], [174.76701, -41.25814, 0.0], [174.76703, -41.25813, 0.0], [174.76705, -41.25812, 0.0], [174.76706, -41.25811, 0.0], [174.76708, -41.2581, 0.0], [174.76708, -41.2581, 0.0], [174.76709, -41.2581, 0.0], [174.76708, -41.2581, 0.0], [174.76708, -41.2581, 0.0], [174.76708, -41.25809, 0.0], [174.76708, -41.25809, 0.0], [174.76708, -41.25809, 0.0], [174.76707, -41.25808, 0.0], [174.76707, -41.25808, 0.0], [174.76707, -41.25808, 0.0], [174.76706, -41.25807, 0.0], [174.76706, -41.25807, 0.0], [174.76706, -41.25807, 0.0], [174.76706, -41.25807, 0.0]]}}, {"type": "Feature", "properties": {"layer": "#015BFF", "fid": "Kitchen Servery"}, "geometry": {"type": "LineString", "coordinates": [[174.76654, -41.25792, 0.0], [174.76665, -41.25786, 0.0], [174.76671, -41.25791, 0.0], [174.76671, -41.25791, 0.0], [174.76668, -41.25793, 0.0], [174.76667, -41.25793, 0.0], [174.76664, -41.25795, 0.0], [174.76664, -41.25796, 0.0], [174.7666, -41.25798, 0.0], [174.7666, -41.25798, 0.0], [174.76658, -41.25796, 0.0], [174.76658, -41.25796, 0.0], [174.76656, -41.25794, 0.0]]}}, {"type": "Feature", "properties": {"layer": "#FF003F", "fid": "na"}, "geometry": {"type": "Polygon", "coordinates": [[[174.76635, -41.25741, 0.0], [174.76637, -41.25742, 0.0], [174.7664, -41.25739, 0.0], [174.76646, -41.25743, 0.0], [174.76647, -41.25743, 0.0], [174.76653, -41.25748, 0.0], [174.76653, -41.25749, 0.0], [174.76659, -41.25753, 0.0], [174.76655, -41.25756, 0.0], [174.76656, -41.25757, 0.0], [174.76652, -41.2576, 0.0], [174.7665, -41.25758, 0.0], [174.76647, -41.2576, 0.0], [174.76646, -41.25759, 0.0], [174.76643, -41.25762, 0.0], [174.76643, -41.25762, 0.0], [174.76637, -41.25766, 0.0], [174.76637, -41.25766, 0.0], [174.76633, -41.25769, 0.0], [174.76634, -41.25769, 0.0], [174.76631, -41.25771, 0.0], [174.76633, -41.25773, 0.0], [174.76632, -41.25773, 0.0], [174.76635, -41.25776, 0.0], [174.76636, -41.25776, 0.0], [174.76641, -41.2578, 0.0], [174.7664, -41.25781, 0.0], [174.76643, -41.25784, 0.0], [174.76644, -41.25783, 0.0], [174.76646, -41.25785, 0.0], [174.7665, -41.25783, 0.0], [174.76651, -41.25783, 0.0], [174.76655, -41.25781, 0.0], [174.76654, -41.2578, 0.0], [174.7666, -41.25776, 0.0], [174.76661, -41.25777, 0.0], [174.76665, -41.25775, 0.0], [174.76664, -41.25774, 0.0], [174.76667, -41.25772, 0.0], [174.76665, -41.2577, 0.0], [174.76669, -41.25767, 0.0], [174.7667, -41.25769, 0.0], [174.76674, -41.25766, 0.0], [174.76679, -41.25771, 0.0], [174.7668, -41.25771, 0.0], [174.76686, -41.25776, 0.0], [174.76685, -41.25777, 0.0], [174.76691, -41.25781, 0.0], [174.76687, -41.25784, 0.0], [174.76688, -41.25785, 0.0], [174.76684, -41.25788, 0.0], [174.76681, -41.25785, 0.0], [174.76678, -41.25787, 0.0], [174.76678, -41.25787, 0.0], [174.76674, -41.25789, 0.0], [174.76674, -41.25789, 0.0], [174.76668, -41.25793, 0.0], [174.76667, -41.25793, 0.0], [174.76664, -41.25795, 0.0], [174.76664, -41.25796, 0.0], [174.7666, -41.25798, 0.0], [174.76663, -41.25801, 0.0], [174.76671, -41.25809, 0.0], [174.76674, -41.25811, 0.0], [174.76703, -41.25797, 0.0], [174.7671, -41.25805, 0.0], [174.76706, -41.25807, 0.0], [174.76709, -41.2581, 0.0], [174.76692, -41.25818, 0.0], [174.76693, -41.25819, 0.0], [174.76684, -41.25823, 0.0], [174.76684, -41.25822, 0.0], [174.76668, -41.2583, 0.0], [174.76659, -41.25835, 0.0], [174.76649, -41.2584, 0.0], [174.76647, -41.25837, 0.0], [174.76646, -41.25837, 0.0], [174.76642, -41.25832, 0.0], [174.76642, -41.25832, 0.0], [174.7664, -41.25829, 0.0], [174.76656, -41.25821, 0.0], [174.7664, -41.25806, 0.0], [174.76629, -41.25812, 0.0], [174.76628, -41.25812, 0.0], [174.76627, -41.25812, 0.0], [174.76624, -41.25809, 0.0], [174.76622, -41.25809, 0.0], [174.76619, -41.25806, 0.0], [174.7662, -41.25805, 0.0], [174.76617, -41.25802, 0.0], [174.76617, -41.25802, 0.0], [174.76616, -41.25801, 0.0], [174.76628, -41.25794, 0.0], [174.76625, -41.25792, 0.0], [174.76626, -41.25791, 0.0], [174.76622, -41.25788, 0.0], [174.76622, -41.25789, 0.0], [174.76621, -41.25788, 0.0], [174.76621, -41.25787, 0.0], [174.76618, -41.25785, 0.0], [174.76618, -41.25785, 0.0], [174.76615, -41.25783, 0.0], [174.76608, -41.25787, 0.0], [174.76605, -41.25785, 0.0], [174.76603, -41.25786, 0.0], [174.76594, -41.2578, 0.0], [174.76596, -41.25778, 0.0], [174.76593, -41.25776, 0.0], [174.76604, -41.25767, 0.0], [174.76605, -41.25768, 0.0], [174.76608, -41.25765, 0.0], [174.76608, -41.25765, 0.0], [174.76609, -41.25764, 0.0], [174.7661, -41.25764, 0.0], [174.76613, -41.25762, 0.0], [174.76613, -41.25761, 0.0], [174.76619, -41.25757, 0.0], [174.76619, -41.25757, 0.0], [174.76623, -41.25755, 0.0], [174.76622, -41.25755, 0.0], [174.76628, -41.2575, 0.0], [174.76628, -41.25751, 0.0], [174.76632, -41.25748, 0.0], [174.76631, -41.25748, 0.0], [174.76634, -41.25746, 0.0], [174.76632, -41.25743, 0.0], [174.76635, -41.25741, 0.0]]]}}], "name": "C:\\Users\\Rebecca\\pbiTable\\demoTable\\assets"}